{
"type": "FeatureCollection",
"name": "ატენი-ატენური",
"crs": { "type": "name", "properties": { "name": "urn:ogc:def:crs:OGC:1.3:CRS84" } },
"features": [
{ "type": "Feature", "properties": { "OBJECTID": 11, "NAME_GEO": "ატენი (ატენური)", "NAME_ENG": "Ateni", "Location": "Shida Kartli", "MoreInfo": "https://www.sakpatenti.gov.ge/media/django-summernote/2025-11-19/8ed83f98-b01c-49ac-8d34-9728ce9cd463.pdf" }, "geometry": { "type": "MultiPolygon", "coordinates": [ [ [ [ 44.124958579185623, 41.923331136494028 ], [ 44.124971305989092, 41.923227093819534 ], [ 44.124991761585079, 41.923121584311033 ], [ 44.125019938144952, 41.923014648434602 ], [ 44.125055824135401, 41.922906332931241 ], [ 44.125099406890278, 41.92279667912775 ], [ 44.125150662631448, 41.922685747178754 ], [ 44.125209564024168, 41.922573592706946 ], [ 44.125276078762134, 41.922460282103664 ], [ 44.125350225184626, 41.922345793879252 ], [ 44.125431906926394, 41.922230293007551 ], [ 44.12552106493024, 41.922113861883965 ], [ 44.125617626739448, 41.921996592707934 ], [ 44.12572152481966, 41.921878570509833 ], [ 44.125832648842042, 41.921759923225068 ], [ 44.125950884972077, 41.921640770655486 ], [ 44.126076099837256, 41.921521250466682 ], [ 44.126210523539683, 41.92139939633681 ], [ 44.126351821505317, 41.921277488073144 ], [ 44.126499775281623, 41.921155712227844 ], [ 44.126654125052468, 41.9210342820585 ], [ 44.12681463666005, 41.920913386700093 ], [ 44.12698091282148, 41.920793327531754 ], [ 44.127152569868258, 41.920674380818888 ], [ 44.127329153647665, 41.920556862822707 ], [ 44.127510993538436, 41.920440584181186 ], [ 44.127696705836684, 41.920326463846429 ], [ 44.127885639929431, 41.920214900357266 ], [ 44.128077043299164, 41.920106337416733 ], [ 44.128270231627411, 41.920001170614483 ], [ 44.128464157626212, 41.919899972022485 ], [ 44.128657844804394, 41.919803252111031 ], [ 44.128850208936285, 41.919711552062978 ], [ 44.128909827829581, 41.919685077110032 ], [ 44.128972539673434, 41.919659683874123 ], [ 44.129038367500414, 41.919635363518253 ], [ 44.129107337960811, 41.919612107232531 ], [ 44.129179475305776, 41.9195899052879 ], [ 44.129254819499018, 41.919568745372068 ], [ 44.129415286994714, 41.919529508670969 ], [ 44.129588924535376, 41.919494339926977 ], [ 44.129776448177772, 41.919463082387161 ], [ 44.129978544478377, 41.919435620496287 ], [ 44.130196320145139, 41.919411803142921 ], [ 44.130391912760118, 41.919394535454671 ], [ 44.130600992370546, 41.919379584298092 ], [ 44.130825442147874, 41.919366809840682 ], [ 44.131069127732289, 41.919355989960273 ], [ 44.131534052708858, 41.919341544536898 ], [ 44.132611352088098, 41.919317703340766 ], [ 44.132880544452739, 41.919308804283048 ], [ 44.133114700667726, 41.919298216121774 ], [ 44.133360090319655, 41.919282887391525 ], [ 44.133577280955286, 41.91926412186092 ], [ 44.133770550218202, 41.919241547561569 ], [ 44.133858907183281, 41.919228750924262 ], [ 44.13394204211248, 41.919214906982745 ], [ 44.134039226903027, 41.919196010817295 ], [ 44.134128734165209, 41.919175367919578 ], [ 44.134210786498109, 41.919152925945944 ], [ 44.134285548525341, 41.919128639318842 ], [ 44.134353182557113, 41.919102455236064 ], [ 44.134413768678208, 41.919074337386512 ], [ 44.134467395451637, 41.919044246819546 ], [ 44.134514130942677, 41.919012144428521 ], [ 44.134554089817101, 41.918977933813963 ], [ 44.134587233289032, 41.918941630001932 ], [ 44.134613593192121, 41.918903198112204 ], [ 44.134633192932803, 41.91886260229905 ], [ 44.134646048708298, 41.918819804859957 ], [ 44.134652170554297, 41.918774777952066 ], [ 44.134651561346068, 41.918727488273348 ], [ 44.134644220294241, 41.918677906095695 ], [ 44.134627115085465, 41.918612244550275 ], [ 44.134602039763031, 41.918539458989436 ], [ 44.134569261303362, 41.918460320590818 ], [ 44.134529189543706, 41.918375826774707 ], [ 44.134482273271168, 41.918286948234162 ], [ 44.134429284671683, 41.918195175083262 ], [ 44.134371053302011, 41.918101945630369 ], [ 44.134308527060554, 41.918008774733124 ], [ 44.1342431358852, 41.917917735697124 ], [ 44.134175507903237, 41.917829642955063 ], [ 44.134106639719455, 41.917745795577353 ], [ 44.134037432986439, 41.917667290170954 ], [ 44.133968886796325, 41.917595240291959 ], [ 44.133901553106391, 41.917530204916964 ], [ 44.133836068737281, 41.917472798604798 ], [ 44.133772936591612, 41.917423461977023 ], [ 44.133712893904537, 41.91738323096466 ], [ 44.133649889742642, 41.917348160923126 ], [ 44.133583888202736, 41.917318230861326 ], [ 44.133514848520676, 41.917293422453156 ], [ 44.133442734681005, 41.91727372281197 ], [ 44.133367486636665, 41.917259112564793 ], [ 44.133289047822586, 41.917249582271786 ], [ 44.133207348396517, 41.917245123293156 ], [ 44.133122454791433, 41.917245726216109 ], [ 44.133034145259096, 41.917251379451834 ], [ 44.132942318383144, 41.917262090332585 ], [ 44.132846849750408, 41.917277872320938 ], [ 44.132747637818916, 41.917298741753477 ], [ 44.132644473413713, 41.917324737570361 ], [ 44.132537159256579, 41.917355910509173 ], [ 44.132425437448447, 41.917392335166291 ], [ 44.132334570849068, 41.917424627428531 ], [ 44.132240624671432, 41.91746027385134 ], [ 44.132143387980001, 41.917499354793584 ], [ 44.132042579462727, 41.917541982505185 ], [ 44.131829123844405, 41.917638346159606 ], [ 44.131595878741621, 41.917751337396624 ], [ 44.131390427230578, 41.91785592172149 ], [ 44.131158691806938, 41.917977962591443 ], [ 44.130377455445164, 41.918401779723894 ], [ 44.130085043288645, 41.918557778778016 ], [ 44.1298004562572, 41.918704183924632 ], [ 44.129545721924295, 41.918828488013929 ], [ 44.129416434887759, 41.918888441618208 ], [ 44.129292332659894, 41.918943637434928 ], [ 44.129172791665553, 41.918994352660867 ], [ 44.129057387422641, 41.919040766926294 ], [ 44.128945654398436, 41.91908306315046 ], [ 44.128837436276413, 41.919121298701704 ], [ 44.128732496836115, 41.91915555375838 ], [ 44.128630658003104, 41.9191858891243 ], [ 44.128397012753489, 41.919248852172274 ], [ 44.12814968760744, 41.919309372735526 ], [ 44.127886269805067, 41.919368046655272 ], [ 44.127602036968305, 41.919425929550023 ], [ 44.127341493603318, 41.919475099492196 ], [ 44.127050238607403, 41.91952680490639 ], [ 44.126020360159664, 41.919698820233691 ], [ 44.125613853258265, 41.91976971245299 ], [ 44.125399534898101, 41.91980948836305 ], [ 44.125200378052028, 41.919848511143414 ], [ 44.125012633071854, 41.919887516065231 ], [ 44.124834385490168, 41.91992690380016 ], [ 44.12462702223187, 41.919976105428574 ], [ 44.124429919128318, 41.920026787261747 ], [ 44.124241750997548, 41.920079291406189 ], [ 44.124061647445053, 41.920133860750639 ], [ 44.123888668637967, 41.920190788984847 ], [ 44.123722524892074, 41.920250182910976 ], [ 44.123562767844298, 41.920312200355674 ], [ 44.123409061604804, 41.920376975682721 ], [ 44.123134945195773, 41.920500850903558 ], [ 44.122863815759587, 41.920630473828425 ], [ 44.122596832537241, 41.920765289518428 ], [ 44.12233502649029, 41.920904777190728 ], [ 44.122079475224304, 41.92104835788458 ], [ 44.12183089951403, 41.921195620144992 ], [ 44.121590073849177, 41.921346106098355 ], [ 44.121357662435301, 41.921499398462942 ], [ 44.121134985050844, 41.921654588710886 ], [ 44.120921779352422, 41.921811815394356 ], [ 44.120718508350059, 41.921970737156101 ], [ 44.120525556114544, 41.922131053465833 ], [ 44.120343315587242, 41.92229243323839 ], [ 44.120172024940175, 41.92245466309042 ], [ 44.120011939641635, 41.922617500047409 ], [ 44.119936166137371, 41.922699078156391 ], [ 44.119863271370583, 41.922780728718159 ], [ 44.119799521362587, 41.922857916277927 ], [ 44.119739498044915, 41.922939469084966 ], [ 44.119683079722208, 41.923025554636695 ], [ 44.119630116147057, 41.923116399654987 ], [ 44.1195805112946, 41.923212146614233 ], [ 44.119534000298948, 41.923313288854402 ], [ 44.119490366998569, 41.923420285862946 ], [ 44.119449319335899, 41.923533854135414 ], [ 44.119417726114314, 41.923631327024268 ], [ 44.119387341797143, 41.923734546424321 ], [ 44.11935785414731, 41.923844555615972 ], [ 44.119328703869009, 41.923963437155415 ], [ 44.119279194644072, 41.924187627936874 ], [ 44.119166858461682, 41.924736195611949 ], [ 44.119133428030572, 41.92488438437428 ], [ 44.119100746239276, 41.9250162776952 ], [ 44.119061971023996, 41.925156086147609 ], [ 44.119021431434142, 41.925284656033682 ], [ 44.118978413890787, 41.925404238047392 ], [ 44.118932496005208, 41.925515991706177 ], [ 44.118875976474882, 41.925635302541714 ], [ 44.118814778045127, 41.92574640388596 ], [ 44.11874854081681, 41.925849945052441 ], [ 44.118676989917113, 41.925946356242967 ], [ 44.118599775506922, 41.926036081493137 ], [ 44.118559004745684, 41.926078476324001 ], [ 44.11851675694588, 41.926119262017451 ], [ 44.118473003987091, 41.926158466276647 ], [ 44.118427726339299, 41.92619610606269 ], [ 44.118380902035931, 41.926232200119074 ], [ 44.118332507929431, 41.926266765378877 ], [ 44.1181860245877, 41.92636419681218 ], [ 44.118033118652832, 41.926459601757642 ], [ 44.117876060128303, 41.926551565569774 ], [ 44.11771656823808, 41.926639084590029 ], [ 44.117556650247131, 41.926721084429104 ], [ 44.11739695566034, 41.926797259348319 ], [ 44.117238477618841, 41.926867136028626 ], [ 44.117081953936406, 41.926930390505063 ], [ 44.116929759248215, 41.926986161999054 ], [ 44.116780585453576, 41.927035031302943 ], [ 44.116634851805607, 41.927076861150375 ], [ 44.116492882884266, 41.927111557681052 ], [ 44.11635502839475, 41.927139041639869 ], [ 44.116221446766623, 41.927159285440027 ], [ 44.116092338685121, 41.927172258217567 ], [ 44.115967863594115, 41.927177945904027 ], [ 44.115855685674696, 41.927176735375511 ], [ 44.11573979777959, 41.927169416665897 ], [ 44.115620134871641, 41.927155985660292 ], [ 44.115496607883891, 41.927136431753503 ], [ 44.115369162662233, 41.927110749111819 ], [ 44.115237605550156, 41.927078902905215 ], [ 44.115101761095488, 41.92704085033666 ], [ 44.114961371024492, 41.926996520048746 ], [ 44.11481963564529, 41.926947094954791 ], [ 44.114672787423984, 41.926891425569934 ], [ 44.114520227687962, 41.926829287494826 ], [ 44.114360855507869, 41.92676023358991 ], [ 44.114197045267439, 41.926685429594215 ], [ 44.114022012980833, 41.926601904080051 ], [ 44.11383262924533, 41.926508245816365 ], [ 44.113599585951839, 41.92638996371538 ], [ 44.113441263498736, 41.926305000056203 ], [ 44.113284628170149, 41.926212936643374 ], [ 44.11312947666049, 41.926113652124513 ], [ 44.112975550741673, 41.926006985092421 ], [ 44.112822678365951, 41.925892821638939 ], [ 44.112670378346841, 41.925770814895273 ], [ 44.11251823565533, 41.925640631110618 ], [ 44.112365666287374, 41.925501772204967 ], [ 44.112219027448944, 41.925360583892136 ], [ 44.112070472064552, 41.925210058667567 ], [ 44.111918899992304, 41.925049088299808 ], [ 44.111762333613186, 41.924875572433628 ], [ 44.111607357201123, 41.924697393291211 ], [ 44.111439956966905, 41.924498972574682 ], [ 44.111263266982007, 41.924284616257516 ], [ 44.110975146139296, 41.923930330343005 ], [ 44.110932216918386, 41.923875756172784 ], [ 44.110890391540778, 41.923818904641251 ], [ 44.110809709266164, 41.923697887687389 ], [ 44.110732316951875, 41.923566126880935 ], [ 44.110656856101066, 41.923421316805907 ], [ 44.110592972148389, 41.923285618337687 ], [ 44.110526489829404, 41.923132358311364 ], [ 44.110463943844515, 41.922979125136685 ], [ 44.110307014682718, 41.922583228826916 ], [ 44.110215756766173, 41.92236798455383 ], [ 44.11016383115669, 41.922255531046446 ], [ 44.110112464846409, 41.922152310084314 ], [ 44.110060670993342, 41.922056348763988 ], [ 44.110007911005454, 41.921966656679871 ], [ 44.109940816946171, 41.921863508269368 ], [ 44.10987098980241, 41.921767861002692 ], [ 44.109797943121997, 41.921679051815246 ], [ 44.10972132939122, 41.921596660097016 ], [ 44.109640721725022, 41.921520249309921 ], [ 44.10955596750803, 41.921449693069441 ], [ 44.1094668306541, 41.921384796792715 ], [ 44.109373116554892, 41.921325418456064 ], [ 44.109272575637959, 41.921269247498074 ], [ 44.109162570352254, 41.921213776694792 ], [ 44.109042136771933, 41.921158513079646 ], [ 44.108909338469189, 41.921102566142913 ], [ 44.108777308536524, 41.921050783397469 ], [ 44.108627275798653, 41.920995213938518 ], [ 44.108107158536498, 41.920812485244966 ], [ 44.107931797044593, 41.920753617127367 ], [ 44.107744709849371, 41.920697812659974 ], [ 44.1075439587297, 41.92064448389592 ], [ 44.107325617224816, 41.920592583383488 ], [ 44.107133360280848, 41.920550936747638 ], [ 44.106917349218236, 41.920507433390121 ], [ 44.106209549546399, 41.92037467323253 ], [ 44.105956606281424, 41.920325374790117 ], [ 44.105715016461275, 41.920274506090649 ], [ 44.105499617232724, 41.920224460583491 ], [ 44.105289548360119, 41.920169860103059 ], [ 44.105095491972214, 41.920112876583531 ], [ 44.104914548834579, 41.920052655288103 ], [ 44.104828492375681, 41.920021163556569 ], [ 44.104745159757641, 41.919988670741141 ], [ 44.104615621883717, 41.9199353543938 ], [ 44.104486175837692, 41.919879712192625 ], [ 44.104356865983902, 41.91982176339797 ], [ 44.10422774384562, 41.919761532730192 ], [ 44.104098857378624, 41.919699041279458 ], [ 44.103970262890797, 41.919634316505956 ], [ 44.103842017895268, 41.919567385879482 ], [ 44.103714177430028, 41.919498281354173 ], [ 44.103586770294676, 41.919427013964196 ], [ 44.103459889809379, 41.919353637578936 ], [ 44.103333601799498, 41.919278188740876 ], [ 44.103207970833381, 41.919200707585553 ], [ 44.103083062709693, 41.919121232457108 ], [ 44.102958951528144, 41.919039811672121 ], [ 44.102835710194348, 41.918956492637463 ], [ 44.10271341156259, 41.918871326362584 ], [ 44.102591825319131, 41.918784139923545 ], [ 44.10247134439139, 41.918695206594229 ], [ 44.102352049932435, 41.91860458735723 ], [ 44.102234026698923, 41.918512344124252 ], [ 44.102002124236236, 41.918323251264106 ], [ 44.101776346440559, 41.918128505519846 ], [ 44.101557346310301, 41.917928665947166 ], [ 44.101345937114864, 41.917724470291603 ], [ 44.101142860057749, 41.917516634123075 ], [ 44.101044683577918, 41.917411590721052 ], [ 44.100948873585708, 41.917305931693569 ], [ 44.100890067446223, 41.91723836697755 ], [ 44.100832187334603, 41.917168412805999 ], [ 44.100718727366733, 41.917020756832422 ], [ 44.100607418221266, 41.916861578236677 ], [ 44.100496379049289, 41.916688194511757 ], [ 44.100397513567366, 41.916521870919063 ], [ 44.100292843717476, 41.916334841337537 ], [ 44.100191194948707, 41.916144909961865 ], [ 44.099924601564673, 41.91563601105252 ], [ 44.099842535574638, 41.915484876913929 ], [ 44.099766594658881, 41.915350207210594 ], [ 44.099676784082462, 41.915198651059455 ], [ 44.099588778969974, 41.915059027532415 ], [ 44.099500879447092, 41.914928646517644 ], [ 44.099412174607615, 41.914806167882723 ], [ 44.099311307852631, 41.914679235444133 ], [ 44.099199418385602, 41.914552166002274 ], [ 44.099076293833292, 41.914424717380335 ], [ 44.098941634709192, 41.914296582766241 ], [ 44.09879525220591, 41.914167559788602 ], [ 44.098636467717427, 41.914037034223895 ], [ 44.098464622146487, 41.913904463146913 ], [ 44.098278677829306, 41.913769043060022 ], [ 44.098110435190222, 41.913652254231415 ], [ 44.097929910287498, 41.913531807421137 ], [ 44.097735359164162, 41.913406535111335 ], [ 44.097523290267937, 41.913274185137396 ], [ 44.097111222370877, 41.913025691875553 ], [ 44.096355121103009, 41.91258148952042 ], [ 44.096066029439591, 41.91240968213053 ], [ 44.095777105935646, 41.91223358815374 ], [ 44.095524859526087, 41.912074149309937 ], [ 44.095384780805936, 41.911982439467756 ], [ 44.095253132185086, 41.911893632984842 ], [ 44.095129024995821, 41.911807128445822 ], [ 44.095011880073457, 41.911722523215062 ], [ 44.094901086356977, 41.91163936846759 ], [ 44.094796455382038, 41.911557516827799 ], [ 44.094697698506735, 41.911476742670978 ], [ 44.094604603541534, 41.911396871410801 ], [ 44.09449704849311, 41.911299124860697 ], [ 44.094397607978451, 41.911202280730492 ], [ 44.09430606431512, 41.911106125667089 ], [ 44.094222257058057, 41.911010491800042 ], [ 44.094146026044598, 41.910915191444339 ], [ 44.094077296672261, 41.91082012585354 ], [ 44.094015982563491, 41.910725176371962 ], [ 44.09396201640272, 41.910630240704698 ], [ 44.093915280930631, 41.910535081961598 ], [ 44.093875822332564, 41.910439757258025 ], [ 44.093843605515445, 41.910344187966267 ], [ 44.093818609701124, 41.910248306378271 ], [ 44.093800814238904, 41.910152035778836 ], [ 44.093790212550665, 41.910055327483214 ], [ 44.093786796967137, 41.909958124690689 ], [ 44.093790566976054, 41.909860376059619 ], [ 44.093799255793876, 41.909769493314961 ], [ 44.093811879779302, 41.90967582433322 ], [ 44.093828434914279, 41.90957939610125 ], [ 44.093848915910463, 41.90948024009883 ], [ 44.093873318735156, 41.909378384212623 ], [ 44.093901630647991, 41.909273875174165 ], [ 44.093933840164347, 41.909166756121834 ], [ 44.093969932041944, 41.909057080071349 ], [ 44.094009931259812, 41.908944784169158 ], [ 44.094053777325762, 41.90883005167013 ], [ 44.09410144140282, 41.908712958898974 ], [ 44.094152885972562, 41.908593599224339 ], [ 44.094208078631517, 41.908472045339522 ], [ 44.094266950778909, 41.908348457016821 ], [ 44.094329431606823, 41.908222979600296 ], [ 44.094395425534181, 41.908095805073181 ], [ 44.094435712543429, 41.908024898809281 ], [ 44.094481990917664, 41.907953122898157 ], [ 44.094534344536385, 41.907880341992879 ], [ 44.09459290121324, 41.907806383263846 ], [ 44.094657736041974, 41.90773113561054 ], [ 44.094729149466019, 41.907654240222698 ], [ 44.094807437735625, 41.907575378785161 ], [ 44.094893080325022, 41.907494065099279 ], [ 44.095052850536547, 41.907352338673739 ], [ 44.095240980404036, 41.907196540966005 ], [ 44.095430412593977, 41.907046815607202 ], [ 44.095894036988689, 41.906688165673188 ], [ 44.096016590426196, 41.906590622581298 ], [ 44.096123313705569, 41.906503011617701 ], [ 44.096235548500822, 41.906406895681847 ], [ 44.096334831971966, 41.906316983293721 ], [ 44.096423026749996, 41.906231581475872 ], [ 44.096501048554728, 41.906149796790309 ], [ 44.096582887598231, 41.906054568971847 ], [ 44.096651485120326, 41.905962795464681 ], [ 44.096680979577201, 41.905917991332643 ], [ 44.096707320480171, 41.905873832482577 ], [ 44.096730539917047, 41.905830266930259 ], [ 44.096750663909525, 41.9057872453455 ], [ 44.096767733694449, 41.905744665378037 ], [ 44.096781733250758, 41.905702552121951 ], [ 44.096792675147988, 41.905660869650511 ], [ 44.096800565851645, 41.905619587392692 ], [ 44.096805413032619, 41.905578674786739 ], [ 44.09680721702685, 41.905538108418291 ], [ 44.096805979363047, 41.905497865782777 ], [ 44.096801700377, 41.905457923465391 ], [ 44.096793111882121, 41.905410570767174 ], [ 44.096781054639337, 41.905362536896725 ], [ 44.096765525167186, 41.905313812818889 ], [ 44.09674651881695, 41.905264386786968 ], [ 44.096724033313187, 41.905214249774687 ], [ 44.096698061660135, 41.905163385512864 ], [ 44.096668596824216, 41.905111780433771 ], [ 44.09663562820635, 41.90505941733862 ], [ 44.096599171246986, 41.905006313458586 ], [ 44.09655918819174, 41.904952410850441 ], [ 44.096515662491079, 41.904897686863571 ], [ 44.096468569284141, 41.904842109774883 ], [ 44.09636358193805, 41.904728282015263 ], [ 44.096243902106103, 41.904610572819905 ], [ 44.096117214723122, 41.904495649948764 ], [ 44.095976400074697, 41.904376274486062 ], [ 44.095820546914133, 41.904251669131831 ], [ 44.095647706187556, 41.904120271123944 ], [ 44.09547410554125, 41.903993561157819 ], [ 44.0952777737566, 41.903854769481029 ], [ 44.094622430086801, 41.903405033590921 ], [ 44.093912757614007, 41.90291235093941 ], [ 44.093470446089306, 41.902612454837829 ], [ 44.093251489715435, 41.902468130182278 ], [ 44.093042702291356, 41.902333700025721 ], [ 44.092841921196715, 41.902207772916746 ], [ 44.092648098245512, 41.9020896948347 ], [ 44.092450673580117, 41.901973324449152 ], [ 44.09225950081526, 41.901864775926953 ], [ 44.092074137334606, 41.90176379811566 ], [ 44.091894301891642, 41.901670238407533 ], [ 44.091719679583406, 41.901583937621275 ], [ 44.091550200846775, 41.901504864607737 ], [ 44.091385733872848, 41.901432957101292 ], [ 44.091226182727475, 41.901368173834214 ], [ 44.091066520053595, 41.901308726832021 ], [ 44.090911949278201, 41.901256817096467 ], [ 44.09076241634434, 41.901212426206783 ], [ 44.090617880369393, 41.90117554215017 ], [ 44.090478296832565, 41.901146154685605 ], [ 44.090343651263559, 41.901124260113754 ], [ 44.090213919526406, 41.901109856459428 ], [ 44.090089085939503, 41.901102940912992 ], [ 44.090028484084364, 41.901102291349666 ], [ 44.089969102226291, 41.901103514008391 ], [ 44.089910939129119, 41.901106610682611 ], [ 44.089853993607967, 41.901111579563398 ], [ 44.089798263234428, 41.901118421533972 ], [ 44.089743750402036, 41.901127137515729 ], [ 44.089690450297475, 41.901137726571605 ], [ 44.089638365327517, 41.901150188722312 ], [ 44.089587491859092, 41.901164524841349 ], [ 44.089537831093956, 41.90118073493985 ], [ 44.089489383015831, 41.901198819919884 ], [ 44.089442145223309, 41.901218778863274 ], [ 44.089396120124242, 41.901240611790577 ], [ 44.089351304073794, 41.90126432047564 ], [ 44.089307699505845, 41.901289903137865 ], [ 44.089265303981421, 41.901317361560523 ], [ 44.089200158306774, 41.901363265367756 ], [ 44.089133015689818, 41.90141377643463 ], [ 44.089064972880209, 41.901468069438003 ], [ 44.088997070041664, 41.901525314104909 ], [ 44.088930434814927, 41.901584548460598 ], [ 44.088865766980767, 41.90164514128638 ], [ 44.0888038253402, 41.901706380773163 ], [ 44.088745212748393, 41.901767670062213 ], [ 44.088691367280717, 41.901827413777049 ], [ 44.0886416154557, 41.901886259564662 ], [ 44.088596276075378, 41.901943832580244 ], [ 44.08855557999685, 41.90199983834119 ], [ 44.088519751165499, 41.902053959793143 ], [ 44.088488879671488, 41.902106051747388 ], [ 44.088463070531461, 41.902155936709086 ], [ 44.088442396881312, 41.902203474757869 ], [ 44.088429913595519, 41.902240032011164 ], [ 44.088420945916219, 41.902276754974935 ], [ 44.08841549236206, 41.902313663452979 ], [ 44.088413546591411, 41.90235077991219 ], [ 44.088415107097404, 41.902388125956911 ], [ 44.088420177067078, 41.902425732235024 ], [ 44.088428757327868, 41.902463625772739 ], [ 44.088440858248646, 41.902501840877058 ], [ 44.088456460906869, 41.902540352177873 ], [ 44.088475601270012, 41.902579259032962 ], [ 44.08849829800495, 41.90261860572155 ], [ 44.088524581744011, 41.902658442922188 ], [ 44.088554478374782, 41.902698815871354 ], [ 44.088588049462984, 41.902739804313846 ], [ 44.088625354215168, 41.902781484372596 ], [ 44.088666479282892, 41.90282395220266 ], [ 44.088740642499772, 41.90289394818236 ], [ 44.088825545135116, 41.902966859237907 ], [ 44.088922093554096, 41.903043470715438 ], [ 44.089032180938112, 41.903125289113753 ], [ 44.089135112629336, 41.903198155631024 ], [ 44.089253774195363, 41.903279267255002 ], [ 44.089689647900741, 41.903567885444723 ], [ 44.089863127752231, 41.903685319985094 ], [ 44.090033538743782, 41.903806315507254 ], [ 44.090178530714539, 41.903916686823742 ], [ 44.090254844116352, 41.903978867534342 ], [ 44.090324821516269, 41.904039298435556 ], [ 44.090388874960922, 41.904098337666824 ], [ 44.09044726147139, 41.904156223249323 ], [ 44.090500242484239, 41.904213222059283 ], [ 44.090547889125013, 41.904269418429806 ], [ 44.090590311624844, 41.904324944738228 ], [ 44.090627589319759, 41.904379901592954 ], [ 44.090689359640415, 41.904482883343363 ], [ 44.090747932943152, 41.904592224588299 ], [ 44.090803842672095, 41.904708906782375 ], [ 44.090857976490433, 41.904834778825929 ], [ 44.09090645801691, 41.904958975880106 ], [ 44.090956373337882, 41.905097870575588 ], [ 44.091132363241194, 41.905631860949008 ], [ 44.091211780849008, 41.905855542953894 ], [ 44.091258967941272, 41.905975386568969 ], [ 44.091306640834986, 41.906086151659643 ], [ 44.091355730995716, 41.906189999997274 ], [ 44.091406754854987, 41.906288008363752 ], [ 44.09146014981188, 41.906381300649983 ], [ 44.091520171405755, 41.906477909364362 ], [ 44.091587432585825, 41.906578825578215 ], [ 44.091663228451722, 41.906685995962228 ], [ 44.091810871913893, 41.906882327993998 ], [ 44.092171222862703, 41.907342802087278 ], [ 44.092261632519268, 41.907463849826669 ], [ 44.09233966273549, 41.907573628640208 ], [ 44.09241548780777, 41.907687504225002 ], [ 44.092481567419973, 41.907795415062111 ], [ 44.092538966812164, 41.907899102474111 ], [ 44.092588205382533, 41.907999518082406 ], [ 44.092621951484674, 41.908078243826139 ], [ 44.092651736766378, 41.908158168574005 ], [ 44.092677572849411, 41.908239322142933 ], [ 44.092699468867508, 41.908321739733758 ], [ 44.092717436428991, 41.908405452063128 ], [ 44.092731482115362, 41.908490504218236 ], [ 44.092741616124542, 41.90857694131445 ], [ 44.092747842574987, 41.908664812021399 ], [ 44.092750165463059, 41.908754088450443 ], [ 44.092748594826396, 41.908844912086025 ], [ 44.092743128511671, 41.908937348659677 ], [ 44.092733761749699, 41.909031478292583 ], [ 44.092720489961927, 41.909127367596973 ], [ 44.092703296978883, 41.90922513533188 ], [ 44.092682163115377, 41.909324893022749 ], [ 44.09265705991438, 41.909426775542705 ], [ 44.092628920430158, 41.909527645127433 ], [ 44.092596974163932, 41.909630822755645 ], [ 44.092561160507103, 41.909736499787435 ], [ 44.092521396357412, 41.909844923246055 ], [ 44.092477623832607, 41.909956261995426 ], [ 44.092429656302073, 41.910071006320628 ], [ 44.09237730653782, 41.91018960326911 ], [ 44.092320286716941, 41.910312706245996 ], [ 44.092205850416399, 41.910545927635283 ], [ 44.092070897663753, 41.910805140282875 ], [ 44.091928250437313, 41.911068216119112 ], [ 44.091538594068467, 41.911773597762263 ], [ 44.091425595710412, 41.911984873192125 ], [ 44.091328059469028, 41.912173982030211 ], [ 44.091222543117489, 41.912389407288217 ], [ 44.091131225566805, 41.912589623565516 ], [ 44.091052317199761, 41.912778567961958 ], [ 44.090984995347235, 41.912958227170073 ], [ 44.090948366900989, 41.91306703870967 ], [ 44.090915991047474, 41.913173060310427 ], [ 44.090887798163884, 41.913276526499217 ], [ 44.090863738670549, 41.913377618821706 ], [ 44.09084376636045, 41.913476535962396 ], [ 44.090827865406034, 41.913573375070399 ], [ 44.090816013617946, 41.913668256661332 ], [ 44.090808201143993, 41.913761281533404 ], [ 44.090804416328893, 41.913852677464213 ], [ 44.090804670961873, 41.91394237969957 ], [ 44.090808965230394, 41.914030461195132 ], [ 44.090817301924396, 41.914116981416733 ], [ 44.090829688553853, 41.914202007072426 ], [ 44.090846132986137, 41.914285579654099 ], [ 44.090866641818536, 41.914367745146308 ], [ 44.090891226547399, 41.914448544168081 ], [ 44.090936595590414, 41.914571124896909 ], [ 44.090991421836151, 41.91469424522073 ], [ 44.091055802360835, 41.914818121154156 ], [ 44.091129876869253, 41.914943023987348 ], [ 44.091213748790899, 41.915069147263097 ], [ 44.091307735552249, 41.915196985236683 ], [ 44.091412160124889, 41.915326981766142 ], [ 44.091527521470162, 41.915459755926889 ], [ 44.091650581650569, 41.915592010845536 ], [ 44.091785492519548, 41.915728593406712 ], [ 44.091933490486888, 41.915870758970122 ], [ 44.092096960873057, 41.916020805935801 ], [ 44.092260504048639, 41.916165514984932 ], [ 44.092446080724578, 41.916325104957309 ], [ 44.093173108048504, 41.916933419173013 ], [ 44.093476444028717, 41.917193245043741 ], [ 44.093636297829157, 41.917335097593693 ], [ 44.093781929672389, 41.917468702844602 ], [ 44.093916141696276, 41.917596634554343 ], [ 44.094040300857074, 41.917720202311216 ], [ 44.09418270607317, 41.917869846793536 ], [ 44.094312289246041, 41.918015587340641 ], [ 44.094429933331135, 41.918158423495264 ], [ 44.094536182404198, 41.918299016171176 ], [ 44.094631579356225, 41.918438110929962 ], [ 44.094716261940512, 41.918575938554909 ], [ 44.094790452847171, 41.918712863794241 ], [ 44.094854305993245, 41.918849168889757 ], [ 44.094899775594051, 41.918966063762163 ], [ 44.094938948692132, 41.919091528368028 ], [ 44.094972223805883, 41.919226801569806 ], [ 44.095000215793014, 41.91937436865561 ], [ 44.095019876154801, 41.91950818982982 ], [ 44.095037278563076, 41.919658689768895 ], [ 44.095082202824436, 41.920175872739243 ], [ 44.095102828450528, 41.920371992522234 ], [ 44.095116323726828, 41.920473259997856 ], [ 44.095131244726453, 41.920566999222622 ], [ 44.095147864974464, 41.920654933526592 ], [ 44.095166355302993, 41.920737946008472 ], [ 44.095191168332377, 41.920831813613042 ], [ 44.095219082395516, 41.920920358387669 ], [ 44.095250278748196, 41.921004152781443 ], [ 44.095284897997416, 41.921083573477915 ], [ 44.095323125035321, 41.921159020926474 ], [ 44.095365034067278, 41.921230620900971 ], [ 44.095410738174721, 41.921298564329184 ], [ 44.095460333038098, 41.921362993365157 ], [ 44.095525473527189, 41.921436521786738 ], [ 44.095598394521879, 41.921508128188059 ], [ 44.095679249446576, 41.92157796597548 ], [ 44.095768259950326, 41.921646225117264 ], [ 44.095865567794029, 41.921713031002852 ], [ 44.095971673263676, 41.921778740611678 ], [ 44.096087064134331, 41.921843657681499 ], [ 44.096212514552221, 41.92190821789616 ], [ 44.096324112081547, 41.921961497074001 ], [ 44.096444171423435, 41.922015343504079 ], [ 44.096573911318913, 41.922070308050131 ], [ 44.096715758181901, 41.922127421217006 ], [ 44.096991597241434, 41.922232383137818 ], [ 44.097510496684194, 41.922421432887909 ], [ 44.097715030468379, 41.922497449863783 ], [ 44.097920773263979, 41.922577225449672 ], [ 44.098101641306954, 41.922651632748256 ], [ 44.098296171694429, 41.922738089898708 ], [ 44.098385741192914, 41.922780833705552 ], [ 44.098470769644358, 41.922823532780342 ], [ 44.098551673727513, 41.922866400259934 ], [ 44.098628581473768, 41.922909507410104 ], [ 44.098701686692941, 41.922952964740951 ], [ 44.098771136496339, 41.922996858977726 ], [ 44.098914777819935, 41.923092402350832 ], [ 44.099057333272484, 41.923190923633726 ], [ 44.099198824371626, 41.923292437409849 ], [ 44.099339272622295, 41.923396959163014 ], [ 44.099478700722628, 41.923504505286971 ], [ 44.099617137298829, 41.923615099427053 ], [ 44.099754611015257, 41.923728762526835 ], [ 44.099891152884801, 41.923845520051401 ], [ 44.100026751002133, 41.923965362003251 ], [ 44.100161485239433, 41.924088355660892 ], [ 44.100295394912294, 41.924214536461264 ], [ 44.100428521685146, 41.924343944362818 ], [ 44.100560902449857, 41.92447661568378 ], [ 44.100692597913167, 41.92461260854467 ], [ 44.100823661559758, 41.924751980108468 ], [ 44.100954155202615, 41.924894795709172 ], [ 44.101082801679468, 41.925039593475077 ], [ 44.101211031342814, 41.925187921146033 ], [ 44.101338926091536, 41.925339873934213 ], [ 44.101466582044253, 41.925495565175993 ], [ 44.101594078703705, 41.925655089163293 ], [ 44.101721567783706, 41.925818637123925 ], [ 44.10184919032455, 41.925986387592211 ], [ 44.10197711922229, 41.9261585697882 ], [ 44.102104825871358, 41.926334436527064 ], [ 44.102233276280089, 41.926515283315361 ], [ 44.102493631254546, 41.926893654065651 ], [ 44.102761076111143, 41.92729785307489 ], [ 44.103042333060273, 41.927738024767912 ], [ 44.103223472273427, 41.928030047732157 ], [ 44.103393245619571, 41.928312249946053 ], [ 44.103552738446353, 41.928586434962426 ], [ 44.103702592379264, 41.9288537111495 ], [ 44.10384349889933, 41.929115332265773 ], [ 44.10397559980246, 41.929371584061649 ], [ 44.104099173235532, 41.929623007336545 ], [ 44.104214414941275, 41.929869999037855 ], [ 44.104321886909865, 41.930113848825194 ], [ 44.104421241909243, 41.930353849691478 ], [ 44.104512577797749, 41.930590241097683 ], [ 44.104595967843458, 41.930823210072418 ], [ 44.104671481436469, 41.931052962526081 ], [ 44.104739153263864, 41.931279598718717 ], [ 44.104799016482531, 41.93150324231415 ], [ 44.104851102104867, 41.931723998043736 ], [ 44.105029333159372, 41.932528772998438 ], [ 44.105081854342181, 41.932787682367895 ], [ 44.105124702276484, 41.933021136459239 ], [ 44.105162101947123, 41.933255810795991 ], [ 44.105190602433446, 41.933474786510629 ], [ 44.105210568373046, 41.933680877429445 ], [ 44.105222127039177, 41.933875499494981 ], [ 44.105225280331091, 41.934069815570112 ], [ 44.105219137290213, 41.934253347578554 ], [ 44.105212575527567, 41.934341276115617 ], [ 44.105203679519128, 41.93442671593457 ], [ 44.10519244493355, 41.934509717438402 ], [ 44.105178867553235, 41.93459032292494 ], [ 44.105162925545606, 41.934668626793091 ], [ 44.1051446241311, 41.934744600261347 ], [ 44.105123955664034, 41.934818272090361 ], [ 44.105100913755628, 41.934889667447756 ], [ 44.105075488411835, 41.934958810572212 ], [ 44.105047674576703, 41.935025717634822 ], [ 44.105017464770015, 41.9350904056882 ], [ 44.104984852743208, 41.935152889993141 ], [ 44.104949178543066, 41.93521154150379 ], [ 44.104907674666663, 41.935268545270993 ], [ 44.104860325032035, 41.935323929083673 ], [ 44.10480710514048, 41.935377718862874 ], [ 44.104747992918796, 41.935429939646994 ], [ 44.104682946858219, 41.935480626229165 ], [ 44.104611929094133, 41.935529811628633 ], [ 44.10453488483919, 41.935577531433658 ], [ 44.104451877193739, 41.935623758203675 ], [ 44.10436272850891, 41.93566860132173 ], [ 44.104267352539061, 41.935712103332627 ], [ 44.104165639996694, 41.935754315606665 ], [ 44.10405750106878, 41.935795277055448 ], [ 44.103942744137335, 41.935835060920496 ], [ 44.103821181303402, 41.935873733265183 ], [ 44.103692566597715, 41.935911372306883 ], [ 44.10346969242466, 41.935970076697274 ], [ 44.103225925673371, 41.936026796323951 ], [ 44.102958832505742, 41.93608210467545 ], [ 44.10266336205936, 41.936137051917534 ], [ 44.102397770600263, 41.936182320179064 ], [ 44.102096856795619, 41.936230288285088 ], [ 44.101096739781738, 41.936379800423133 ], [ 44.100738590062896, 41.93643529311673 ], [ 44.100395915941057, 41.936492507332204 ], [ 44.100096879867493, 41.936547674005624 ], [ 44.099943510932725, 41.936578583187945 ], [ 44.099799098455527, 41.936609740721273 ], [ 44.099662822108129, 41.936641323942105 ], [ 44.099534132454906, 41.936673460967945 ], [ 44.099412449601168, 41.936706301289298 ], [ 44.099297578568127, 41.936739900140687 ], [ 44.099189239529338, 41.936774341810853 ], [ 44.099087218054997, 41.936809692185555 ], [ 44.098984749032567, 41.936848635310703 ], [ 44.098889147394608, 41.936888760776014 ], [ 44.098800263906483, 41.93693013047379 ], [ 44.098717985644477, 41.936972797573027 ], [ 44.098642197171401, 41.937016822426855 ], [ 44.098572837643417, 41.937062243298996 ], [ 44.09850984254809, 41.937109102025744 ], [ 44.098453158254081, 41.937157438726324 ], [ 44.09840269060502, 41.937207344538528 ], [ 44.09835846756841, 41.937258804378793 ], [ 44.098320458520277, 41.937311852239098 ], [ 44.098288642524672, 41.937366519484449 ], [ 44.098262998595629, 41.93742284108103 ], [ 44.098243519180585, 41.937480840390926 ], [ 44.098230191827177, 41.937540546140724 ], [ 44.09822301256505, 41.937601984420603 ], [ 44.098219419609428, 41.937713505295129 ], [ 44.098222791861168, 41.937832550085368 ], [ 44.09823307958731, 41.937957428753265 ], [ 44.098250139726311, 41.938086397387437 ], [ 44.098273706326822, 41.938217530076784 ], [ 44.098303501047361, 41.938349352044995 ], [ 44.098339170759409, 41.938480302364674 ], [ 44.098380347209066, 41.938609037049375 ], [ 44.098425890992978, 41.93873243625152 ], [ 44.098476038420877, 41.938851537585769 ], [ 44.098530428763446, 41.938965488887597 ], [ 44.098588742156878, 41.939073619347106 ], [ 44.098650591501958, 41.939175235110163 ], [ 44.098715767806127, 41.939270014794936 ], [ 44.098784007437523, 41.939357576246394 ], [ 44.098855084038142, 41.939437631271502 ], [ 44.098899607058968, 41.939482668977554 ], [ 44.098947115494738, 41.939527212214216 ], [ 44.098997596222105, 41.939571250967504 ], [ 44.099051039748787, 41.939614774351057 ], [ 44.099107430551328, 41.939657771431001 ], [ 44.099166753144118, 41.93970022857151 ], [ 44.099228987191204, 41.939742133899919 ], [ 44.099294114806796, 41.939783472860533 ], [ 44.09943300653579, 41.939864422490551 ], [ 44.099583167578039, 41.9399429213613 ], [ 44.099744334509502, 41.940018831362877 ], [ 44.099916158615848, 41.940091988496341 ], [ 44.100099677188766, 41.940162747600098 ], [ 44.100293038833122, 41.940230315035357 ], [ 44.100495583308451, 41.940294460413703 ], [ 44.100706412297889, 41.940354897444344 ], [ 44.100924907291578, 41.940411429396796 ], [ 44.101149206684454, 41.940463556194914 ], [ 44.101377619862951, 41.940510884492035 ], [ 44.101607822939442, 41.940552930435913 ], [ 44.10178116787214, 41.940578921693707 ], [ 44.101965049265146, 41.940599569504769 ], [ 44.10216113268509, 41.940615070578978 ], [ 44.102372682428168, 41.940625683647198 ], [ 44.102576950914994, 41.940631212805037 ], [ 44.102806151299021, 41.940633349088785 ], [ 44.103622724800388, 41.940628269999976 ], [ 44.103740555531985, 41.940626670739192 ], [ 44.103862728347323, 41.940622021374956 ], [ 44.103989279426941, 41.940614321275078 ], [ 44.104120248606513, 41.940603567133167 ], [ 44.104255675707826, 41.940589756542821 ], [ 44.104395619901027, 41.940572883645032 ], [ 44.104540142804986, 41.940552939897202 ], [ 44.104689315686848, 41.940529916831061 ], [ 44.104843055065622, 41.940503829989467 ], [ 44.105001607520521, 41.94047464254762 ], [ 44.105165079482667, 41.940442332798348 ], [ 44.105333602749276, 41.940406876529018 ], [ 44.105507280129046, 41.940368252001605 ], [ 44.10568633545121, 41.940326409598242 ], [ 44.106061468102219, 41.940232864519771 ], [ 44.10640054302484, 41.940142396148843 ], [ 44.106759760849648, 41.940041423225793 ], [ 44.107142076274982, 41.939929118311376 ], [ 44.107553601042433, 41.939803690425364 ], [ 44.107922881370222, 41.939687954521354 ], [ 44.108333217679359, 41.939556694501519 ], [ 44.109620441091288, 41.93913709170242 ], [ 44.110041236376503, 41.939001227709426 ], [ 44.110439356364083, 41.938875507196741 ], [ 44.11078445488323, 41.938770145785931 ], [ 44.111144886362446, 41.938665506386307 ], [ 44.11146252369722, 41.938579953001344 ], [ 44.111607556719292, 41.938543721167058 ], [ 44.111743990479063, 41.938511706181202 ], [ 44.111872255848212, 41.938483807831133 ], [ 44.111992678332442, 41.938459955708183 ], [ 44.112140376369872, 41.938434530171961 ], [ 44.112275337888256, 41.938416000529443 ], [ 44.112397973849404, 41.938404311459621 ], [ 44.112508586277066, 41.938399433813466 ], [ 44.112607470856432, 41.938401360003937 ], [ 44.11265255679568, 41.938404877008082 ], [ 44.112694768651359, 41.93841009745622 ], [ 44.112734125687247, 41.938417024202451 ], [ 44.112770642329544, 41.938425660963794 ], [ 44.11280433301652, 41.938436010556551 ], [ 44.112835209761172, 41.938448076678675 ], [ 44.112863337235453, 41.938461893156749 ], [ 44.112888660205833, 41.938477441552713 ], [ 44.112911189440375, 41.938494728256259 ], [ 44.11293092970088, 41.938513757809126 ], [ 44.112947888136041, 41.938534536572604 ], [ 44.112962068275657, 41.93855707087986 ], [ 44.112973476073812, 41.938581366181893 ], [ 44.112982112634604, 41.938607429693327 ], [ 44.112987982642693, 41.938635271358265 ], [ 44.112991084826341, 41.938664895670613 ], [ 44.112991420288232, 41.938696309844381 ], [ 44.11298899014308, 41.938729520192837 ], [ 44.112983791849175, 41.938764535702767 ], [ 44.112975825301653, 41.938801363578264 ], [ 44.112951579774318, 41.938880486085957 ], [ 44.112929136485441, 41.938934362471066 ], [ 44.112898170538394, 41.938994858634054 ], [ 44.112858350662492, 41.939062634897226 ], [ 44.112808871187475, 41.939139070247514 ], [ 44.112704093348128, 41.939287625859606 ], [ 44.112423438073563, 41.93966669432799 ], [ 44.112353431944342, 41.939767231983943 ], [ 44.11229673694227, 41.939854753436542 ], [ 44.112246583723916, 41.939941053704537 ], [ 44.112209161999552, 41.940017260478562 ], [ 44.112183900704302, 41.94008454292144 ], [ 44.112175761019053, 41.940115022410687 ], [ 44.112170594138028, 41.940143471372856 ], [ 44.112167655047308, 41.940198811587933 ], [ 44.112169740814338, 41.940225071277681 ], [ 44.112174197970546, 41.940250392799463 ], [ 44.11218102648111, 41.9402747788548 ], [ 44.112190226323463, 41.940298231244384 ], [ 44.11220179986227, 41.940320753588644 ], [ 44.112215747087077, 41.940342346787411 ], [ 44.112232067974723, 41.940363012641036 ], [ 44.112250766095478, 41.940382754778739 ], [ 44.112271842631969, 41.940401575009894 ], [ 44.112295302372765, 41.940419476072165 ], [ 44.11232114528142, 41.940436460665836 ], [ 44.112349377364808, 41.940452530637089 ], [ 44.11241302218891, 41.940481936713965 ], [ 44.112486185105865, 41.940507684880345 ], [ 44.112568985986215, 41.940529830084508 ], [ 44.112661492136674, 41.940548389938392 ], [ 44.112763786554034, 41.940563381271936 ], [ 44.112875943838603, 41.940574817244674 ], [ 44.112998125359432, 41.940582717087707 ], [ 44.113130497444722, 41.940587090159802 ], [ 44.113273283123618, 41.940587945353528 ], [ 44.113394580209452, 41.940586111668829 ], [ 44.113522834986263, 41.940582045691599 ], [ 44.113658259831745, 41.940575741832724 ], [ 44.113801145637666, 41.940567187000838 ], [ 44.114110490487022, 41.940543253330652 ], [ 44.114455598379244, 41.940509882810062 ], [ 44.114790458401821, 41.940472653951403 ], [ 44.115170958973934, 41.940426310785341 ], [ 44.115552797798955, 41.940377016181657 ], [ 44.11649770980106, 41.940251806383159 ], [ 44.116984464791251, 41.940191040966717 ], [ 44.117234646692552, 41.940162592641236 ], [ 44.117458373431212, 41.94013966954207 ], [ 44.11766030202751, 41.940121796937348 ], [ 44.117842727314716, 41.940108775514553 ], [ 44.118330775380606, 41.940077269707167 ], [ 44.118800966475817, 41.940043782909946 ], [ 44.119255945052956, 41.940008124872975 ], [ 44.119697428318752, 41.939970162135225 ], [ 44.120127323368457, 41.939929724831401 ], [ 44.120546173813679, 41.939886755109796 ], [ 44.120954871157082, 41.939841160843841 ], [ 44.121354083468972, 41.939792868896724 ], [ 44.121745791462907, 41.9397416180148 ], [ 44.12212900564861, 41.939687515993988 ], [ 44.122504140545693, 41.939630505742841 ], [ 44.122871529784511, 41.939570534948686 ], [ 44.123231530011473, 41.939507544263478 ], [ 44.123584331036234, 41.939441500980223 ], [ 44.123930159002605, 41.939372361857515 ], [ 44.124269201370367, 41.939300089659454 ], [ 44.124872810672407, 41.939171636003749 ], [ 44.126310277907024, 41.93887654233427 ], [ 44.126985816782913, 41.938735362594421 ], [ 44.127655549301238, 41.938590545602992 ], [ 44.128248597037384, 41.9384562656779 ], [ 44.128570035675487, 41.938380288555699 ], [ 44.128871935311807, 41.938306343692929 ], [ 44.129155411949334, 41.93823415870132 ], [ 44.129421136300572, 41.938163561372299 ], [ 44.129669826416212, 41.938094357324857 ], [ 44.129901630130007, 41.938026502756948 ], [ 44.13011683213179, 41.937959913464177 ], [ 44.13031562872704, 41.937894528881145 ], [ 44.130510991631496, 41.93782560715529 ], [ 44.130687763595688, 41.937757965583657 ], [ 44.130846055035086, 41.937691561856184 ], [ 44.130985941249293, 41.937626363294854 ], [ 44.131107496365807, 41.937562334501507 ], [ 44.131161406613501, 41.937530755348156 ], [ 44.131210744751868, 41.937499462208869 ], [ 44.131255514431096, 41.93746845331588 ], [ 44.131295719301264, 41.937437726900797 ], [ 44.131331359406026, 41.937407280266768 ], [ 44.131362439601382, 41.937377111653518 ], [ 44.131388970957239, 41.93734720583717 ], [ 44.131410940041512, 41.937317575328578 ], [ 44.131428346860787, 41.937288220130455 ], [ 44.131441193870479, 41.937259137561483 ], [ 44.131449479895259, 41.937230325812948 ], [ 44.131453206135305, 41.937201785795622 ], [ 44.13145237262119, 41.937173515708842 ], [ 44.131446979383412, 41.937145513751467 ], [ 44.131437025221743, 41.937117779913741 ], [ 44.131422510154252, 41.937090313293993 ], [ 44.131403434198866, 41.937063112989961 ], [ 44.131379797373441, 41.937036178098879 ], [ 44.131351598465116, 41.937009509509402 ], [ 44.131318836309838, 41.936983104507412 ], [ 44.131281510900692, 41.936956963989587 ], [ 44.131239621048969, 41.936931087041863 ], [ 44.131188216354623, 41.93690422120094 ], [ 44.131126393573815, 41.93687750436429 ], [ 44.131053403257852, 41.936850608404775 ], [ 44.130967643134433, 41.936822938442774 ], [ 44.130793157052793, 41.936773805776276 ], [ 44.130426827811284, 41.936680229451717 ], [ 44.130272906747571, 41.936639007379327 ], [ 44.130121808852479, 41.936594477630813 ], [ 44.12999292567001, 41.936551188712727 ], [ 44.129927270004721, 41.936526352497516 ], [ 44.129866965115362, 41.936501267683198 ], [ 44.129811714733911, 41.93647581044295 ], [ 44.129761335455413, 41.936449895631959 ], [ 44.129715639271161, 41.936423421857711 ], [ 44.129674578359712, 41.936396357239929 ], [ 44.129638075015635, 41.936368649856618 ], [ 44.129606075509209, 41.93634025877482 ], [ 44.129574787097447, 41.936308099286528 ], [ 44.129545221253245, 41.936273721900847 ], [ 44.129517395762562, 41.936237149270511 ], [ 44.129491330774229, 41.936198407668826 ], [ 44.129467044061066, 41.936157520648997 ], [ 44.129444557987277, 41.936114528911624 ], [ 44.129423893783922, 41.936069467744673 ], [ 44.129405070122417, 41.936022383224575 ], [ 44.129388086088234, 41.93597325372933 ], [ 44.129372988269971, 41.935922201202779 ], [ 44.129348527221602, 41.93581459603265 ], [ 44.129331825959454, 41.935700166814527 ], [ 44.129323004778378, 41.935579733168609 ], [ 44.129322220835043, 41.93545096086212 ], [ 44.129329814389081, 41.935318272941807 ], [ 44.129345699757238, 41.935183264735514 ], [ 44.129369636805443, 41.935047978929681 ], [ 44.129401352662988, 41.934914204874175 ], [ 44.129440156023612, 41.934785053624218 ], [ 44.129485234492201, 41.934663228215882 ], [ 44.129535573636524, 41.934551476988482 ], [ 44.129560718018446, 41.934504589819063 ], [ 44.129589257020733, 41.934458297599399 ], [ 44.129621201724376, 41.934412583298297 ], [ 44.129656565671702, 41.934367426300255 ], [ 44.129695364792788, 41.93432280780889 ], [ 44.129737619952387, 41.93427870095892 ], [ 44.129783356815189, 41.934235080722345 ], [ 44.129832604713108, 41.934191918496083 ], [ 44.129885327114742, 41.934149239217355 ], [ 44.12994162898665, 41.9341069518089 ], [ 44.130001557849916, 41.934065020598915 ], [ 44.130065175820924, 41.934023401019061 ], [ 44.130132534002001, 41.933982060125736 ], [ 44.130203740683022, 41.933940928480794 ], [ 44.130278901606658, 41.93389994653343 ], [ 44.130358154105714, 41.933859037858824 ], [ 44.130497045752641, 41.933792058891683 ], [ 44.130648377958337, 41.933724544388163 ], [ 44.130813558465469, 41.933655861880652 ], [ 44.130995499817104, 41.933584795838669 ], [ 44.131161809593181, 41.933522971839608 ], [ 44.131349608752444, 41.93345572425244 ], [ 44.131981310280068, 41.933237387900078 ], [ 44.132210525917344, 41.933156451153749 ], [ 44.13243393264667, 41.933073771397886 ], [ 44.132626073853437, 41.932997710881615 ], [ 44.132821937878383, 41.932920777493855 ], [ 44.133025770014306, 41.932847993863113 ], [ 44.133237994507027, 41.932779207334633 ], [ 44.13345918319262, 41.932714233037942 ], [ 44.133689698366915, 41.932652950263758 ], [ 44.133930753160513, 41.932595024953123 ], [ 44.134183469390891, 41.932540185392206 ], [ 44.134449573362247, 41.932488056330982 ], [ 44.134675536790766, 41.932447674144413 ], [ 44.134913587433331, 41.932408426457833 ], [ 44.135166160025818, 41.932369906421101 ], [ 44.135438084406751, 41.932331376635105 ], [ 44.135948003512844, 41.932265046118793 ], [ 44.137195239715226, 41.932112380388659 ], [ 44.137534159516015, 41.932067531922378 ], [ 44.137837461438735, 41.932024226239619 ], [ 44.138159698070275, 41.931973798012116 ], [ 44.138458672044457, 41.931921838821111 ], [ 44.138739532561189, 41.931867450781141 ], [ 44.139004963195177, 41.931810108345317 ], [ 44.139148482435225, 41.931776336818395 ], [ 44.139288030479207, 41.931741423919135 ], [ 44.139423844510155, 41.931705311995735 ], [ 44.139556109777878, 41.931667948409775 ], [ 44.13968502845271, 41.931629277946328 ], [ 44.139810707136483, 41.931589266289343 ], [ 44.139933275430458, 41.93154787298959 ], [ 44.140052836330106, 41.93150506280174 ], [ 44.140169622591017, 41.931460748312254 ], [ 44.14028357850281, 41.93141494622509 ], [ 44.140394779261186, 41.931367625588244 ], [ 44.140503292789326, 41.931318758096872 ], [ 44.140609187034556, 41.931268313644452 ], [ 44.140712509356931, 41.931216268274618 ], [ 44.140813308322628, 41.931162598039741 ], [ 44.140911626467705, 41.931107278946655 ], [ 44.141005185789133, 41.931055223307098 ], [ 44.141114558822622, 41.930998225942382 ], [ 44.141519295731989, 41.930799487357547 ], [ 44.141679221683823, 41.930717718110863 ], [ 44.141760120746888, 41.93067379929942 ], [ 44.141833515577545, 41.930631730152449 ], [ 44.141900683665376, 41.930590778983316 ], [ 44.141962250137396, 41.93055056138671 ], [ 44.142031865129518, 41.930500984727651 ], [ 44.142094048946369, 41.930451678541345 ], [ 44.142149190490386, 41.9304023350156 ], [ 44.142197521745445, 41.930352745137768 ], [ 44.142239263080356, 41.930302666482092 ], [ 44.142274467393982, 41.930252022894258 ], [ 44.142303218362976, 41.930200691614061 ], [ 44.142325567933469, 41.93014857756372 ], [ 44.142342479103959, 41.93009510430835 ], [ 44.142355848193141, 41.930037101257604 ], [ 44.142365698170522, 41.929974474914815 ], [ 44.142372059363986, 41.929907032764596 ], [ 44.14237494984755, 41.929835137010457 ], [ 44.142374463850253, 41.929757606681449 ], [ 44.142370616040438, 41.929673617776771 ], [ 44.142363231178763, 41.929579235774625 ], [ 44.14235401743337, 41.929509645375695 ], [ 44.142339160972185, 41.929440810815862 ], [ 44.142318654830291, 41.929372713126966 ], [ 44.142292494526814, 41.929305327954545 ], [ 44.142260669514407, 41.929238633600008 ], [ 44.142223168160065, 41.929172599349116 ], [ 44.142179971582522, 41.929107195333245 ], [ 44.142131058548649, 41.92904238716207 ], [ 44.142076461202109, 41.928978207492499 ], [ 44.142016099035217, 41.928914544932852 ], [ 44.141949928009382, 41.928851356813567 ], [ 44.141877894570897, 41.92878859048578 ], [ 44.141799952257379, 41.928726204160483 ], [ 44.14171600088028, 41.928664115116071 ], [ 44.141625940118949, 41.928602250535995 ], [ 44.141529637369402, 41.928540516645803 ], [ 44.141441056109855, 41.928487072509995 ], [ 44.141347531999031, 41.928433566121988 ], [ 44.141248902279933, 41.928379903483737 ], [ 44.141144941860077, 41.928325962208973 ], [ 44.141035517856935, 41.92827166923577 ], [ 44.140920125951382, 41.928216768588307 ], [ 44.14066929550053, 41.928104138326155 ], [ 44.140441809701748, 41.928008059113367 ], [ 44.140183796130032, 41.927903965476929 ], [ 44.139934923716353, 41.927806746076044 ], [ 44.139379196217888, 41.927592990370051 ], [ 44.13913263534068, 41.927495901840871 ], [ 44.138919805523109, 41.927408703795109 ], [ 44.13873565482708, 41.927329110459745 ], [ 44.1385997047676, 41.927271376482281 ], [ 44.138458990875122, 41.927217320949069 ], [ 44.138313451936838, 41.927166920866604 ], [ 44.138163018321258, 41.927120151375902 ], [ 44.138007628752511, 41.927076993984443 ], [ 44.137847181108427, 41.927037418183311 ], [ 44.137681580392339, 41.927001401621844 ], [ 44.13751071115351, 41.926968918191825 ], [ 44.137334688974192, 41.926939981347552 ], [ 44.137153134890781, 41.926914518866006 ], [ 44.136965885150026, 41.926892508774777 ], [ 44.136772733813203, 41.92687392698101 ], [ 44.136573514663908, 41.926858755092219 ], [ 44.136367887948168, 41.926846964401918 ], [ 44.136155534254016, 41.926838538061801 ], [ 44.135936042515262, 41.926833458530318 ], [ 44.135751525665086, 41.926831786976607 ], [ 44.135561615543367, 41.926832327089798 ], [ 44.135365935787867, 41.926835082313602 ], [ 44.135163983373452, 41.926840057836174 ], [ 44.134955443426783, 41.926847258457407 ], [ 44.134739260191012, 41.926856714913868 ], [ 44.134514474212814, 41.926868471268001 ], [ 44.134279610630543, 41.926882601912126 ], [ 44.133870585665811, 41.926910998147491 ], [ 44.133412864444033, 41.926947181837775 ], [ 44.13297021530073, 41.926985131143049 ], [ 44.131902083915712, 41.927080015511606 ], [ 44.131356013716832, 41.92712526459291 ], [ 44.131079904766324, 41.927146012674712 ], [ 44.130823200886979, 41.927163519584091 ], [ 44.130581349775952, 41.927178095935822 ], [ 44.130351966346595, 41.927189882276046 ], [ 44.130100208974135, 41.927200144943086 ], [ 44.129860713298264, 41.927206892812926 ], [ 44.129632018246298, 41.927210166224761 ], [ 44.129413143141662, 41.927209977621992 ], [ 44.129203026737883, 41.92720632171411 ], [ 44.129001313455852, 41.927199185043861 ], [ 44.128807476516954, 41.927188549247866 ], [ 44.128621117033425, 41.927174392424767 ], [ 44.128415222689206, 41.927153680566349 ], [ 44.128218362827354, 41.927128215666542 ], [ 44.128030169058171, 41.927097950841414 ], [ 44.127850351401051, 41.927062837996878 ], [ 44.127678610384592, 41.927022817254347 ], [ 44.127514787386339, 41.926977847815266 ], [ 44.127358694973125, 41.926927878752295 ], [ 44.127210181863333, 41.9268728612115 ], [ 44.127068941067172, 41.926812666794838 ], [ 44.127001082491496, 41.926780637424429 ], [ 44.126935048351505, 41.926747312317197 ], [ 44.126870825468814, 41.926712685071344 ], [ 44.126808403089022, 41.926676748402784 ], [ 44.126747770420714, 41.92663949772902 ], [ 44.126688919108759, 41.926600926684671 ], [ 44.126631833599035, 41.926561026147432 ], [ 44.126576510323019, 41.926519792490119 ], [ 44.126522943312359, 41.9264772211665 ], [ 44.126471124223507, 41.926433304910184 ], [ 44.126421044688172, 41.926388038255872 ], [ 44.126372699955688, 41.926341415765634 ], [ 44.126326084081569, 41.926293431091715 ], [ 44.12628119109656, 41.926244079687429 ], [ 44.126207311348395, 41.926158424250062 ], [ 44.126133598581013, 41.926069561859322 ], [ 44.1259879731372, 41.925883793268596 ], [ 44.125846760215673, 41.925689901642684 ], [ 44.125711961730261, 41.925490635765399 ], [ 44.125585678605333, 41.92528917390095 ], [ 44.125468811578706, 41.92508702525047 ], [ 44.125362453919585, 41.924886082366278 ], [ 44.125267384939846, 41.924687822904851 ], [ 44.12518543434841, 41.924496552514341 ], [ 44.125148922229457, 41.924402676980691 ], [ 44.12511544344553, 41.924310120607622 ], [ 44.125085038637692, 41.924218997191531 ], [ 44.125057730924432, 41.92412937896448 ], [ 44.125033546869894, 41.9240413507939 ], [ 44.125012506012197, 41.923954982182032 ], [ 44.1249946365771, 41.923870412949213 ], [ 44.124979933923925, 41.923787628650935 ], [ 44.124968406948057, 41.923706683396283 ], [ 44.124960063413283, 41.923627625881494 ], [ 44.124954907429284, 41.923550507476634 ], [ 44.124952940940638, 41.923475361521746 ], [ 44.124954164600489, 41.923402227651344 ], [ 44.124958579185623, 41.923331136494028 ] ] ] ] } }
]
}
