{
"type": "FeatureCollection",
"name": "ახაშენი",
"crs": { "type": "name", "properties": { "name": "urn:ogc:def:crs:OGC:1.3:CRS84" } },
"features": [
{ "type": "Feature", "properties": { "OBJECTID": 4, "NAME_GEO": "ახაშენი", "NAME_ENG": "Akhasheni", "Location": "Kakheti", "MoreInfo": "https://www.sakpatenti.gov.ge/media/django-summernote/2025-11-18/c839ceee-8bc5-45ce-9634-fcd997311b72.pdf" }, "geometry": { "type": "MultiPolygon", "coordinates": [ [ [ [ 45.846460912386938, 41.832764416644032 ], [ 45.84753119031619, 41.832737459319155 ], [ 45.848375591905913, 41.832979063341384 ], [ 45.849274506479851, 41.833487160733824 ], [ 45.850121195893571, 41.833900315725394 ], [ 45.851654760181546, 41.834251944731058 ], [ 45.851830364766357, 41.834268941648453 ], [ 45.852547730045728, 41.834263619087452 ], [ 45.854716098921948, 41.834380954712429 ], [ 45.85548230427694, 41.834489636917162 ], [ 45.856350977207029, 41.83463567951695 ], [ 45.85726757981832, 41.834552583809348 ], [ 45.858104657471543, 41.834241301854469 ], [ 45.858456426015707, 41.83389720142587 ], [ 45.858909864430814, 41.833453640260849 ], [ 45.859589139400178, 41.832781302073329 ], [ 45.860114193788931, 41.832014792951711 ], [ 45.86066472419828, 41.831248089555075 ], [ 45.860871101862578, 41.831113913901227 ], [ 45.862117687670832, 41.831089522450547 ], [ 45.866219663356723, 41.831058659911662 ], [ 45.867350181045353, 41.831086877959592 ], [ 45.868052417537172, 41.831104399732702 ], [ 45.869050458740887, 41.831275582032497 ], [ 45.870484162072941, 41.831264725199063 ], [ 45.872197043175163, 41.831281519046506 ], [ 45.874265107760579, 41.831057278395441 ], [ 45.878355666311251, 41.830191999443066 ], [ 45.879703168119434, 41.829705074857024 ], [ 45.879795776108629, 41.829683520154155 ], [ 45.881291224471298, 41.82933544194541 ], [ 45.882524532505435, 41.829236607577293 ], [ 45.884672549319284, 41.829041353513688 ], [ 45.887417903456075, 41.828841446592186 ], [ 45.888333841462511, 41.828834366212085 ], [ 45.889410308326887, 41.8289154002928 ], [ 45.890166540596077, 41.828879753634723 ], [ 45.890918228912334, 41.828516466615447 ], [ 45.891510616968397, 41.828154411241457 ], [ 45.891911649114199, 41.827911846201488 ], [ 45.893017677128725, 41.827695880199734 ], [ 45.893929038012658, 41.827361120147771 ], [ 45.895519443272541, 41.827170002678926 ], [ 45.896395531968615, 41.827163168731616 ], [ 45.89790628013975, 41.826972638966268 ], [ 45.899053202194651, 41.82639769060232 ], [ 45.899835455933022, 41.825378765453117 ], [ 45.900261387060581, 41.82451156858572 ], [ 45.900291192863435, 41.823796416885131 ], [ 45.900122316887661, 41.823112611425152 ], [ 45.899639476779136, 41.822758935145231 ], [ 45.898913976739514, 41.822139061768617 ], [ 45.897914880906399, 41.821597489955664 ], [ 45.897830539311023, 41.821551771319008 ], [ 45.897792274558057, 41.821504469350543 ], [ 45.897303746459038, 41.820900545912252 ], [ 45.896896418286346, 41.820248386119395 ], [ 45.896767821446446, 41.819594048076489 ], [ 45.896766558422883, 41.819503525812536 ], [ 45.896758678827091, 41.818938777264087 ], [ 45.896949451586948, 41.818341522905875 ], [ 45.8974977368308, 41.817681897776495 ], [ 45.898285739138728, 41.817079972104366 ], [ 45.899554013762447, 41.816653011390045 ], [ 45.900188145277838, 41.816439525376452 ], [ 45.900899397530992, 41.816046701251047 ], [ 45.901251053767439, 41.815567329876039 ], [ 45.901243537100363, 41.815031200400163 ], [ 45.900955650301945, 41.814378116237961 ], [ 45.900506011739921, 41.813547569634338 ], [ 45.900337579462317, 41.812893548079806 ], [ 45.900198954260865, 41.811524373025698 ], [ 45.900149133094352, 41.810809843796491 ], [ 45.900142181186006, 41.810313306142028 ], [ 45.90013787381401, 41.810005647300585 ], [ 45.900237707607062, 41.808604814365054 ], [ 45.900545347051249, 41.807827907123659 ], [ 45.901367582070691, 41.80683844279541 ], [ 45.902589555407822, 41.805964986437139 ], [ 45.902758643696863, 41.805828605416892 ], [ 45.902876396488139, 41.805596291326751 ], [ 45.902907422750999, 41.804970492170526 ], [ 45.90277754371823, 41.804226804237089 ], [ 45.902407986761467, 41.803425423400796 ], [ 45.902196356845216, 41.803240882639365 ], [ 45.902074824498122, 41.802989004889817 ], [ 45.90159179280311, 41.802611505600545 ], [ 45.901031657069396, 41.802413340153066 ], [ 45.900632086578071, 41.802309235387845 ], [ 45.900329055304454, 41.802275865404532 ], [ 45.900287614563652, 41.802278723831023 ], [ 45.899549508147082, 41.802329634295987 ], [ 45.899233052406622, 41.802475095835476 ], [ 45.898884083975481, 41.802573149364974 ], [ 45.898550870602506, 41.802659164328844 ], [ 45.898249834336255, 41.802768756143912 ], [ 45.897964388182729, 41.802854395868792 ], [ 45.897678108523905, 41.802880463770201 ], [ 45.897311217956933, 41.80283566879227 ], [ 45.896815615344671, 41.802696555374631 ], [ 45.895968053649824, 41.802441032121685 ], [ 45.894736695445985, 41.802069339199399 ], [ 45.894611789040013, 41.80204563776762 ], [ 45.893907059630742, 41.801956644874544 ], [ 45.893196904530775, 41.802064134759092 ], [ 45.893160183601331, 41.802069691998057 ], [ 45.893048867686559, 41.802134307092501 ], [ 45.892307134774718, 41.802564850759858 ], [ 45.891932588775092, 41.803115865440894 ], [ 45.891696717816963, 41.803332173288013 ], [ 45.891203104350815, 41.803336004009772 ], [ 45.890644808421655, 41.803268842244371 ], [ 45.890278083871316, 41.803235938676231 ], [ 45.889927613382753, 41.803226739247791 ], [ 45.889595493294642, 41.803191714493266 ], [ 45.888892619193392, 41.803234753007338 ], [ 45.887905228416386, 41.803230474321502 ], [ 45.887473990995709, 41.803138483699875 ], [ 45.887106119422306, 41.803022171776753 ], [ 45.886609551164277, 41.80281152982004 ], [ 45.88593767072431, 41.802590321869758 ], [ 45.88574512002679, 41.802484568430437 ], [ 45.885519083146903, 41.802259920201323 ], [ 45.885493109351032, 41.802224107410659 ], [ 45.885462566118747, 41.802181993513038 ], [ 45.885372989510998, 41.802058484813728 ], [ 45.885257922917006, 41.801797234262004 ], [ 45.885189968434773, 41.801487958953068 ], [ 45.885164121075114, 41.801229617158803 ], [ 45.885153040519413, 41.801118867741593 ], [ 45.885052751081261, 41.800774095047778 ], [ 45.88503832029803, 41.800689806555859 ], [ 45.885034748958411, 41.800430277991062 ], [ 45.885058847836511, 41.800330003584001 ], [ 45.885045126723753, 41.800258616449142 ], [ 45.884935805499133, 41.800183201202678 ], [ 45.884781444206553, 41.80007476866335 ], [ 45.884659779542524, 41.800028044106064 ], [ 45.884499639671468, 41.79996255176151 ], [ 45.884313958734317, 41.799892489388057 ], [ 45.884115540870681, 41.799822523843915 ], [ 45.883942861242538, 41.799771425623717 ], [ 45.883776877346541, 41.799744105982192 ], [ 45.883540640256278, 41.799703028088693 ], [ 45.883419502036759, 41.79969442690912 ], [ 45.883234673795542, 41.799686316228382 ], [ 45.883018001769088, 41.799678450039167 ], [ 45.88266056077422, 41.799624003576426 ], [ 45.882301426076104, 41.799649177959111 ], [ 45.882268219204427, 41.799648422439979 ], [ 45.881565117106938, 41.799632415668334 ], [ 45.8797854676273, 41.799445881190124 ], [ 45.879501196462108, 41.799412821392011 ], [ 45.878362807713557, 41.79928042120266 ], [ 45.877621856948657, 41.799193826288821 ], [ 45.877558970332657, 41.799186476161012 ], [ 45.8768945994373, 41.799043799301025 ], [ 45.876492313335973, 41.798903586531424 ], [ 45.876158616022416, 41.798787277638382 ], [ 45.874923735813219, 41.79837726889356 ], [ 45.874423928540658, 41.798157065737946 ], [ 45.873761671365891, 41.797699789777077 ], [ 45.872906292993193, 41.797091459817921 ], [ 45.871657154705595, 41.796095288535462 ], [ 45.871369250535139, 41.79586771653986 ], [ 45.871100907759349, 41.795632991731068 ], [ 45.870685058011745, 41.795330545793171 ], [ 45.869435987169524, 41.79433434940956 ], [ 45.868785897358507, 41.79382928964484 ], [ 45.868781234619306, 41.79382563028895 ], [ 45.8687345683324, 41.793789006390185 ], [ 45.86841897926395, 41.79354132933296 ], [ 45.868110408704432, 41.793329184519294 ], [ 45.867776624039301, 41.793136295093824 ], [ 45.867526269873863, 41.792990435439712 ], [ 45.867270063405989, 41.792882748227392 ], [ 45.866966478192396, 41.79277200441517 ], [ 45.866591630201619, 41.792635262252361 ], [ 45.86522037705371, 41.792016467246491 ], [ 45.864591810676984, 41.791722614572599 ], [ 45.863765534373883, 41.791336324181813 ], [ 45.863215991986351, 41.791115600018117 ], [ 45.862670588046292, 41.790896533623489 ], [ 45.861541264490697, 41.790266344427216 ], [ 45.861322839798163, 41.790124998104481 ], [ 45.86109174318851, 41.789988511890279 ], [ 45.860905543378401, 41.789875520058466 ], [ 45.86068107185136, 41.789758048227775 ], [ 45.860559125198819, 41.789687469687607 ], [ 45.860411644329275, 41.789612315826396 ], [ 45.860232451040119, 41.789546932138244 ], [ 45.85998282848103, 41.78945347768186 ], [ 45.859087760797003, 41.789193270247075 ], [ 45.856741871439418, 41.788543528183688 ], [ 45.85532964533575, 41.788182291673309 ], [ 45.853622496107214, 41.787670713296031 ], [ 45.852279530724843, 41.78724696428754 ], [ 45.850581701211745, 41.786473133052581 ], [ 45.848161593063622, 41.785295255441973 ], [ 45.848059485816506, 41.785255851136355 ], [ 45.847684643950501, 41.785059933743192 ], [ 45.846890248086126, 41.784698798834157 ], [ 45.846703962879417, 41.784576251532947 ], [ 45.846473731845286, 41.784501689531787 ], [ 45.846320224699227, 41.784450393203535 ], [ 45.846211540622946, 41.784417830498342 ], [ 45.846096551522535, 41.784390080576443 ], [ 45.845898911305646, 41.784372471161859 ], [ 45.845790664818992, 41.784373268176481 ], [ 45.845767895677533, 41.78437147140793 ], [ 45.845624923914542, 41.784360189876345 ], [ 45.845458745995046, 41.784313751211343 ], [ 45.845362546534382, 41.78426203182341 ], [ 45.845183070179282, 41.784172795276646 ], [ 45.845041986253989, 41.784097574487404 ], [ 45.845011655710799, 41.784079604564859 ], [ 45.844875119983577, 41.783998712697205 ], [ 45.843920694328325, 41.783572007262308 ], [ 45.841673545053254, 41.782654326598411 ], [ 45.841193447597256, 41.782462430291218 ], [ 45.841103682979131, 41.782415425740005 ], [ 45.840963168091392, 41.782383091094808 ], [ 45.840886512572858, 41.782364588215017 ], [ 45.840810043873525, 41.782360381469061 ], [ 45.840701615068802, 41.782346876562826 ], [ 45.840561349505428, 41.782333604505098 ], [ 45.840414716397007, 41.782320378858707 ], [ 45.840338310007397, 41.782320937794054 ], [ 45.840198355650216, 41.782331493471858 ], [ 45.840130001522937, 41.78234481649946 ], [ 45.84009672888196, 41.782351301604045 ], [ 45.839982243630928, 41.782361670763819 ], [ 45.839880367966551, 41.782362415619694 ], [ 45.839631363072208, 41.782311808455681 ], [ 45.839197398378978, 41.782238720678997 ], [ 45.838857365626112, 41.782152715831707 ], [ 45.837708566398454, 41.782009606224477 ], [ 45.836526190795063, 41.781548622057002 ], [ 45.835636506898936, 41.781158928462865 ], [ 45.833741841341293, 41.780400575990853 ], [ 45.832934969864127, 41.780048966569829 ], [ 45.832640670061743, 41.779941478753642 ], [ 45.832499918107658, 41.779890070524317 ], [ 45.832448981533041, 41.779890439632787 ], [ 45.832378945245381, 41.77989094710918 ], [ 45.832321642498741, 41.779891362287749 ], [ 45.8322516050046, 41.779891869695234 ], [ 45.832187934881986, 41.77989233093534 ], [ 45.832137184349911, 41.779906997020646 ], [ 45.83207388387293, 41.779936052445493 ], [ 45.832005464204833, 41.779951222035827 ], [ 45.831984993017628, 41.779955761160039 ], [ 45.831896162493265, 41.779980234922697 ], [ 45.831800965730203, 41.780004755612772 ], [ 45.831673872776648, 41.78002474068537 ], [ 45.831578551501352, 41.780039729183713 ], [ 45.831457579532703, 41.780040604792241 ], [ 45.831260017842872, 41.780027736028941 ], [ 45.83096633493934, 41.779967900396478 ], [ 45.829796076175427, 41.779580767835967 ], [ 45.829641181435839, 41.77949250921435 ], [ 45.82919309971205, 41.779237191096534 ], [ 45.828262965773796, 41.778705324719205 ], [ 45.82825327173525, 41.778704836181909 ], [ 45.828228776273896, 41.778689599260446 ], [ 45.828211504094156, 41.77867818683265 ], [ 45.827928577117966, 41.77845036176641 ], [ 45.827684431564315, 41.778280539399162 ], [ 45.827587703760187, 41.778185912526766 ], [ 45.827427369089335, 41.778096510169959 ], [ 45.827248363228357, 41.778040605433176 ], [ 45.827242855659733, 41.778038160986661 ], [ 45.827037033050658, 41.777946804172956 ], [ 45.826813216388999, 41.777872156414439 ], [ 45.826621171300708, 41.777792513155617 ], [ 45.826276325512005, 41.777713969581754 ], [ 45.825823611686268, 41.777664796467739 ], [ 45.825517700285623, 41.777643164610645 ], [ 45.824995686558637, 41.777651680971395 ], [ 45.824149942771292, 41.777738775736928 ], [ 45.823380841834464, 41.777844379917219 ], [ 45.823043949905475, 41.777889689412412 ], [ 45.822923467950112, 41.777928682372931 ], [ 45.822865801267071, 41.777900498495264 ], [ 45.822781936066534, 41.777815308338511 ], [ 45.822761678305298, 41.777724896134202 ], [ 45.822753849145037, 41.777610563527581 ], [ 45.82275226535252, 41.777486655076579 ], [ 45.822801677179996, 41.77736714695294 ], [ 45.822832048371289, 41.777252541642376 ], [ 45.822862236678752, 41.777123638257599 ], [ 45.82287932634032, 41.776966232639552 ], [ 45.822909698418485, 41.776851627294825 ], [ 45.822959595707559, 41.776770244578728 ], [ 45.822989906620883, 41.776650873189162 ], [ 45.822994627344592, 41.776522153099201 ], [ 45.822985751062937, 41.776504094777366 ], [ 45.822929255676826, 41.776389168657495 ], [ 45.822819559958873, 41.77627556657901 ], [ 45.822696949057772, 41.776147757505406 ], [ 45.822542749624013, 41.776039240306929 ], [ 45.82209349459221, 41.77576125205789 ], [ 45.821081554818157, 41.775296638310877 ], [ 45.819852136635767, 41.774752542482979 ], [ 45.818643430879952, 41.774366641841652 ], [ 45.818567137980764, 41.77434228314354 ], [ 45.81840956264034, 41.774309562298541 ], [ 45.818188403635055, 41.774218911249037 ], [ 45.817396486806558, 41.773982419091098 ], [ 45.817109476150776, 41.773871276270832 ], [ 45.814929780621107, 41.773195664022012 ], [ 45.813772349993066, 41.772798744332768 ], [ 45.813141234369368, 41.772632120276121 ], [ 45.812668229292093, 41.772475755554218 ], [ 45.811247927275708, 41.77204447790799 ], [ 45.811088983160644, 41.771980490022521 ], [ 45.810991956954062, 41.771941429239028 ], [ 45.810989442325202, 41.771940665189312 ], [ 45.810755626210678, 41.771881136872445 ], [ 45.810577191801535, 41.771868097478411 ], [ 45.810128234893952, 41.771834173741105 ], [ 45.810003811635582, 41.771838778130828 ], [ 45.80958988722351, 41.771832163768401 ], [ 45.809239864988498, 41.771844161864415 ], [ 45.808647626346236, 41.771834033538298 ], [ 45.808301611478591, 41.771841703364956 ], [ 45.808017488431432, 41.771848000142427 ], [ 45.807794850679258, 41.771863864296563 ], [ 45.807597676884612, 41.771879549019594 ], [ 45.807470770107727, 41.771913804508067 ], [ 45.807375575588857, 41.771938304067469 ], [ 45.807299300401198, 41.771948372110145 ], [ 45.807197380633951, 41.771944322696335 ], [ 45.807107895398062, 41.771916354414167 ], [ 45.807030246178265, 41.771816809553918 ], [ 45.806965269480358, 41.771712410062399 ], [ 45.806919092925938, 41.771584047964247 ], [ 45.806860542959498, 41.771484369733571 ], [ 45.806769206010649, 41.771308662784485 ], [ 45.806717560520781, 41.771251831472107 ], [ 45.806610049990084, 41.771168199570013 ], [ 45.806582199455299, 41.771119328977342 ], [ 45.80616481874759, 41.770836287754015 ], [ 45.805945805078203, 41.770632878987506 ], [ 45.805939819833327, 41.770628971437866 ], [ 45.805919982356556, 41.770604463144593 ], [ 45.805879868863251, 41.770559817082415 ], [ 45.805699492668488, 41.770427291522793 ], [ 45.805566626744792, 41.770349567551769 ], [ 45.805373616547854, 41.770188870826267 ], [ 45.805238677717092, 41.77008972721687 ], [ 45.805141577944759, 41.769961721272537 ], [ 45.80508826641622, 41.769771447933842 ], [ 45.805048282672963, 41.769628742234282 ], [ 45.80501472389625, 41.769490758864215 ], [ 45.805000443130844, 41.769366938000999 ], [ 45.804960102374984, 41.769195638662353 ], [ 45.8047717360975, 41.768896688906324 ], [ 45.804681289230352, 41.768781818480861 ], [ 45.80455711400721, 41.768704638606799 ], [ 45.804481339367136, 41.768584154827224 ], [ 45.80418636485301, 41.768414637961044 ], [ 45.803686280015263, 41.768185486567567 ], [ 45.803674118075463, 41.768179913491622 ], [ 45.803059784677814, 41.767926836284531 ], [ 45.802497036695847, 41.76772582210269 ], [ 45.80244629899741, 41.76769312466287 ], [ 45.802131215546915, 41.767490068710607 ], [ 45.801862249807854, 41.767363258846572 ], [ 45.801580552792807, 41.767236538077334 ], [ 45.801285947853344, 41.767095608133843 ], [ 45.800902163720082, 41.766950532682479 ], [ 45.800543963109426, 41.766814809714653 ], [ 45.800217593379742, 41.766678863918081 ], [ 45.800006280148978, 41.766580246016595 ], [ 45.799744161959147, 41.766491513433643 ], [ 45.799500726164844, 41.766369287653056 ], [ 45.799437709403428, 41.766334882842145 ], [ 45.799250747747472, 41.766232807458195 ], [ 45.799057589440167, 41.766057802476446 ], [ 45.798600957819822, 41.765684449757678 ], [ 45.798157712012348, 41.765363428873137 ], [ 45.797932377517519, 41.765160048470484 ], [ 45.797739756155977, 41.765027933038652 ], [ 45.797540770841721, 41.764895861457546 ], [ 45.797418644832803, 41.764801386055609 ], [ 45.797328347602821, 41.764706688731977 ], [ 45.797256791992417, 41.76458326515273 ], [ 45.797185060865289, 41.764445543328257 ], [ 45.797202281499708, 41.764341496375707 ], [ 45.797220598968345, 41.764230819005704 ], [ 45.797157882324974, 41.763792764865357 ], [ 45.797100824544877, 41.763297478225567 ], [ 45.797074973775828, 41.763171275792182 ], [ 45.79707624551132, 41.763056301479622 ], [ 45.797090801634923, 41.763002044458979 ], [ 45.797128988845778, 41.762487031928785 ], [ 45.797127691130662, 41.762382184821149 ], [ 45.79712615747318, 41.762258274354885 ], [ 45.797131637154664, 41.76218674373429 ], [ 45.797130221480053, 41.762072365392875 ], [ 45.797109415120097, 41.761934290116159 ], [ 45.797043461997198, 41.761748866909102 ], [ 45.796959594266525, 41.761658891106777 ], [ 45.796870669325841, 41.761594767819489 ], [ 45.796619171234894, 41.761413410685286 ], [ 45.795847602127822, 41.760947899289661 ], [ 45.795650722309453, 41.760829114786041 ], [ 45.795585894262949, 41.760734239628 ], [ 45.795501734382185, 41.760620434188297 ], [ 45.795399950840363, 41.760625905371967 ], [ 45.795266334123639, 41.760752833897499 ], [ 45.79509164806263, 41.760918776353776 ], [ 45.793434400052135, 41.762293362233734 ], [ 45.791865786818313, 41.763633949618004 ], [ 45.791225872653996, 41.764129288939195 ], [ 45.791184525562414, 41.764143857792419 ], [ 45.791070181096899, 41.764163710165619 ], [ 45.790913002134289, 41.764160590585433 ], [ 45.790859884874003, 41.764146092989343 ], [ 45.790731931978748, 41.764094546111437 ], [ 45.790616241753341, 41.764004784721116 ], [ 45.790366291123668, 41.763868284895501 ], [ 45.790186128302047, 41.763712240459981 ], [ 45.790018698003891, 41.763556108183067 ], [ 45.789825220794462, 41.763352492689584 ], [ 45.78961101375338, 41.76301556527077 ], [ 45.789392604608778, 41.762855015940069 ], [ 45.789008872076934, 41.762709900199951 ], [ 45.788577984869669, 41.762599064820506 ], [ 45.787917391948184, 41.762335138849039 ], [ 45.787748180837816, 41.762267532968444 ], [ 45.787557235137925, 41.762171749889013 ], [ 45.786705876147515, 41.761786755187266 ], [ 45.78607981443043, 41.761689935678362 ], [ 45.785200709440197, 41.761553977015232 ], [ 45.784734021932529, 41.761593349198399 ], [ 45.784278619426324, 41.761631767876793 ], [ 45.783866153953262, 41.761739438941959 ], [ 45.783533228249034, 41.761799137326157 ], [ 45.783313534921746, 41.761838531224008 ], [ 45.782740775745488, 41.761851966904928 ], [ 45.78203301467201, 41.761756697002902 ], [ 45.781439714470991, 41.761651112216519 ], [ 45.781107852940622, 41.761581876305705 ], [ 45.780865916352482, 41.761578754445274 ], [ 45.780668824515622, 41.761599158847318 ], [ 45.780509693002557, 41.761600240027185 ], [ 45.780254678644177, 41.761568608666472 ], [ 45.780160480268179, 41.761546439168178 ], [ 45.780110929062019, 41.761534777481621 ], [ 45.780018470451061, 41.761513018479242 ], [ 45.779788456389028, 41.761443087234959 ], [ 45.7797525727484, 41.761430266204414 ], [ 45.77951353975493, 41.761344862236626 ], [ 45.779027188490168, 41.761133683096787 ], [ 45.778255702745483, 41.760505008929535 ], [ 45.77761366455973, 41.760051802298648 ], [ 45.777172612748579, 41.759373221660908 ], [ 45.776590164094152, 41.758581206777713 ], [ 45.776375638869403, 41.758210893748192 ], [ 45.776229528441945, 41.757967686274043 ], [ 45.776123846840697, 41.757917091219831 ], [ 45.776034220862577, 41.75787480101657 ], [ 45.775880258146138, 41.757775751079713 ], [ 45.775790059737631, 41.757685802450801 ], [ 45.775623252556166, 41.757577305934205 ], [ 45.775411720729878, 41.757454813391355 ], [ 45.775199901725642, 41.757308490890715 ], [ 45.775077134537582, 41.757156800790654 ], [ 45.774897027415967, 41.757000731722556 ], [ 45.774678560513124, 41.756830621577443 ], [ 45.774530222601783, 41.756669571227334 ], [ 45.774452584857698, 41.756565238305321 ], [ 45.77441915602035, 41.756432010264263 ], [ 45.774392322831552, 41.756317802779719 ], [ 45.774333205824441, 41.75616568282166 ], [ 45.774236667378645, 41.756118426313499 ], [ 45.77417953620143, 41.756090460096971 ], [ 45.773987449658648, 41.755996430045457 ], [ 45.773965547215937, 41.75593982385373 ], [ 45.774797319525867, 41.755061564135261 ], [ 45.774908159697418, 41.754890304979327 ], [ 45.775166007861721, 41.754491900029159 ], [ 45.775338365111921, 41.754004585484935 ], [ 45.775510662433497, 41.753512504566856 ], [ 45.775756460709857, 41.75278161821003 ], [ 45.776169104294844, 41.752163992664819 ], [ 45.77650009212315, 41.751721014872714 ], [ 45.776595042597798, 41.751593936972341 ], [ 45.776879641920999, 41.751305097026616 ], [ 45.777223823900108, 41.750955781376227 ], [ 45.777229583348124, 41.75094794868911 ], [ 45.777582787011063, 41.750638783413393 ], [ 45.77770892061428, 41.750542606288512 ], [ 45.777783909725187, 41.750427709317144 ], [ 45.777889856968599, 41.750241110813562 ], [ 45.777913931701647, 41.750126559355529 ], [ 45.777905784657534, 41.749978862453617 ], [ 45.777879177100445, 41.749883718279285 ], [ 45.777833132187986, 41.749760109472732 ], [ 45.777780954301079, 41.74965560630654 ], [ 45.777710143396376, 41.749589358430768 ], [ 45.777530093941493, 41.749537884468189 ], [ 45.777520157377417, 41.749535043362116 ], [ 45.777384426206346, 41.749496239281726 ], [ 45.777275489095516, 41.749435015578918 ], [ 45.777173146573233, 41.749392812211227 ], [ 45.776930163977575, 41.749299131204488 ], [ 45.776790039900625, 41.749290546576262 ], [ 45.776586102789786, 41.749268093651708 ], [ 45.776401545047136, 41.749269340944871 ], [ 45.776140964542535, 41.749299698636847 ], [ 45.775792088577909, 41.749397379172834 ], [ 45.775570838865221, 41.749522794330709 ], [ 45.775272472739722, 41.749586767816027 ], [ 45.773952111890829, 41.749805382386782 ], [ 45.772655548318305, 41.74995709544546 ], [ 45.771330441841165, 41.749851609611476 ], [ 45.77066880281528, 41.749875114569413 ], [ 45.76957485869751, 41.749939641337143 ], [ 45.768430453210051, 41.750042625290654 ], [ 45.766830502592775, 41.750366957237311 ], [ 45.766436762840911, 41.750446769667739 ], [ 45.761691337229017, 41.750668975097874 ], [ 45.761357408369925, 41.750700354748325 ], [ 45.757762290721857, 41.7510381218177 ], [ 45.752692080104573, 41.751795911444788 ], [ 45.75183164776378, 41.752240034913164 ], [ 45.749320464489287, 41.754134321417503 ], [ 45.746928803386446, 41.755370041239296 ], [ 45.746449836577568, 41.755783046585925 ], [ 45.745643373534335, 41.756499078640246 ], [ 45.743778372468455, 41.758154871197597 ], [ 45.742451405484864, 41.759798698197237 ], [ 45.74178263071358, 41.760627129493407 ], [ 45.739529241796696, 41.763194137556134 ], [ 45.739040164531325, 41.764845518336415 ], [ 45.738385452948684, 41.767232828310703 ], [ 45.737042763367434, 41.769113885277037 ], [ 45.736151209662388, 41.769586725977376 ], [ 45.731844430821752, 41.771870658448307 ], [ 45.72754555472217, 41.773770396925428 ], [ 45.722348347418368, 41.776696953524848 ], [ 45.719143493859889, 41.778325450984141 ], [ 45.717655429890414, 41.778738886678177 ], [ 45.713611892585213, 41.780158181710462 ], [ 45.705109354054578, 41.784357256616303 ], [ 45.70202658533313, 41.786342184147124 ], [ 45.701381730280374, 41.788526648314523 ], [ 45.699943378219487, 41.79083188084055 ], [ 45.699839917523335, 41.790997689083845 ], [ 45.698471036016706, 41.793191399518655 ], [ 45.697912996734253, 41.794105567826215 ], [ 45.697778705571331, 41.794325557895498 ], [ 45.697675187987045, 41.794495132945642 ], [ 45.698014302726889, 41.794763792857133 ], [ 45.698554683714256, 41.795127531769403 ], [ 45.698558221063067, 41.795133289995746 ], [ 45.698573376395302, 41.795140114245122 ], [ 45.699054254659927, 41.795356664945807 ], [ 45.699902645913042, 41.795768539004953 ], [ 45.700974215735961, 41.796202875616522 ], [ 45.701870007076998, 41.79657869917272 ], [ 45.702718692626242, 41.797014381878057 ], [ 45.703469901566415, 41.797271923015444 ], [ 45.704059545952482, 41.797315972518575 ], [ 45.704664070153285, 41.797264603994137 ], [ 45.705252408894737, 41.79718950117649 ], [ 45.706206957356926, 41.797112143720447 ], [ 45.708281171058509, 41.797492582771469 ], [ 45.712043442541777, 41.797886363880181 ], [ 45.715882435498727, 41.798223553037396 ], [ 45.716984551527396, 41.798320330986193 ], [ 45.718883184839399, 41.798654012248846 ], [ 45.7201611231268, 41.799015385433044 ], [ 45.721512383361571, 41.799451708550272 ], [ 45.724396313237179, 41.800382858111078 ], [ 45.727496008079683, 41.801304586819143 ], [ 45.736674191390854, 41.803200218473876 ], [ 45.738138829702208, 41.80339847213186 ], [ 45.73885928261948, 41.803495984885366 ], [ 45.740310803364309, 41.803701117005929 ], [ 45.741298210271374, 41.80370666447056 ], [ 45.746536966192799, 41.803660822718534 ], [ 45.748140624794772, 41.803473694187474 ], [ 45.75017455926838, 41.803144971301975 ], [ 45.751778334344024, 41.802616614743911 ], [ 45.752890400925921, 41.802250231242446 ], [ 45.758936979783144, 41.800318768730165 ], [ 45.761482623224012, 41.799505483134631 ], [ 45.761791321811224, 41.799370758551504 ], [ 45.76228665316475, 41.799844329979194 ], [ 45.762622591093141, 41.800242457483883 ], [ 45.76312951014463, 41.800723120441674 ], [ 45.763508603452159, 41.80116530309958 ], [ 45.763644494820241, 41.801308735216949 ], [ 45.764016388278826, 41.801754552349827 ], [ 45.764096227918976, 41.801826467317944 ], [ 45.764183212520187, 41.801856392319401 ], [ 45.764269812084557, 41.801853909428146 ], [ 45.764376679562872, 41.801841759617403 ], [ 45.764501290651317, 41.801821865488208 ], [ 45.764742868306165, 41.801782128617454 ], [ 45.764892548432343, 41.801727750922211 ], [ 45.76513367309763, 41.801649886483098 ], [ 45.765756496504032, 41.80153134884771 ], [ 45.766596098123543, 41.801430425361701 ], [ 45.767318891284674, 41.801362686440029 ], [ 45.768049348653037, 41.801296798486455 ], [ 45.769126127594902, 41.801215242115255 ], [ 45.770349012447078, 41.801207047804304 ], [ 45.771032963706119, 41.801201079248898 ], [ 45.771294177463673, 41.801198798760964 ], [ 45.771447176077892, 41.801209210119744 ], [ 45.771567327842348, 41.801242719398232 ], [ 45.771628700682534, 41.801261372036336 ], [ 45.771682476279842, 41.801283888293696 ], [ 45.771733727920498, 41.801308328240296 ], [ 45.771790141962917, 41.801338451952482 ], [ 45.771874765543309, 41.801383638352114 ], [ 45.772014867049094, 41.801452434494664 ], [ 45.772020399551401, 41.801454555362845 ], [ 45.772426359418013, 41.801600571457719 ], [ 45.772545279931279, 41.801630784261796 ], [ 45.772931494267276, 41.801754012430976 ], [ 45.773320532033097, 41.801900098681379 ], [ 45.77395196991619, 41.802075053408643 ], [ 45.774130676681551, 41.802104351949744 ], [ 45.774661657018221, 41.802188469751286 ], [ 45.775190021664223, 41.802266883373719 ], [ 45.775532174219968, 41.802327487009556 ], [ 45.775709700215707, 41.802348991999899 ], [ 45.775815407222908, 41.80236179746467 ], [ 45.775993333941919, 41.802356639830528 ], [ 45.776329908878921, 41.802346882753369 ], [ 45.776735219374842, 41.802360713724489 ], [ 45.777122639838765, 41.802373932035039 ], [ 45.77750406893184, 41.802350666673291 ], [ 45.778036671197086, 41.802318177268475 ], [ 45.778530542603981, 41.802328748610769 ], [ 45.778780858126936, 41.802334105144048 ], [ 45.77939944474484, 41.802287968271351 ], [ 45.780016777054485, 41.802348596985809 ], [ 45.78021894323561, 41.802372123564453 ], [ 45.780248966025724, 41.802375616968988 ], [ 45.780425476440747, 41.802433518383545 ], [ 45.780706697669565, 41.802511678650859 ], [ 45.780888511013977, 41.802586701423756 ], [ 45.781052283161088, 41.802644688464007 ], [ 45.781434109509959, 41.802752182792531 ], [ 45.782105377232938, 41.802876938841081 ], [ 45.782257871113501, 41.802888138133049 ], [ 45.783046513628982, 41.802997152293727 ], [ 45.784407272408252, 41.803218549876291 ], [ 45.784910458078144, 41.803319968145772 ], [ 45.786771033055501, 41.803574144345902 ], [ 45.787118111429876, 41.803619428334095 ], [ 45.787518741087609, 41.803668156766832 ], [ 45.788013707724112, 41.803721956057736 ], [ 45.788212993761462, 41.803766343735482 ], [ 45.788369015226905, 41.803814840615416 ], [ 45.788440703581067, 41.803842945433288 ], [ 45.788480682422509, 41.803855843584898 ], [ 45.788683722732891, 41.803921349224602 ], [ 45.788942100446569, 41.804005365484592 ], [ 45.789333057069491, 41.804096096348133 ], [ 45.789808299409373, 41.804190341819329 ], [ 45.789979401768115, 41.804234637384852 ], [ 45.790099849620589, 41.804291002667938 ], [ 45.790169155030696, 41.804332468284777 ], [ 45.790261437439533, 41.804377588401337 ], [ 45.790369195329404, 41.804437853312173 ], [ 45.790459375048314, 41.804519210698388 ], [ 45.790508650502993, 41.804589410776529 ], [ 45.790662760300897, 41.804689392891184 ], [ 45.790786379175223, 41.804770328900815 ], [ 45.790860488756643, 41.804813857823746 ], [ 45.791152837803985, 41.804966267601515 ], [ 45.79147314460436, 41.805112765532904 ], [ 45.791777954687532, 41.805242210380584 ], [ 45.791937257153741, 41.805349780197332 ], [ 45.792201210920574, 41.805471880355434 ], [ 45.792311964542556, 41.805568345719827 ], [ 45.792432817481938, 41.805657116084163 ], [ 45.79262826254736, 41.805802564402335 ], [ 45.79355973997022, 41.806331848648604 ], [ 45.794268343822147, 41.806763529688475 ], [ 45.794938289796356, 41.807159251800321 ], [ 45.795470101252583, 41.807443855916361 ], [ 45.795497480804279, 41.807458507834063 ], [ 45.795749045067126, 41.807617232752371 ], [ 45.796355257936348, 41.807999717369903 ], [ 45.796608797595646, 41.808127383605836 ], [ 45.796698853628307, 41.808172729207122 ], [ 45.796866450540804, 41.808269225479066 ], [ 45.797127454783727, 41.808419501864869 ], [ 45.797394132013871, 41.808569033033031 ], [ 45.797584204498399, 41.808675609433053 ], [ 45.797608647217281, 41.808691779977465 ], [ 45.797857203241719, 41.808856210754719 ], [ 45.797869393704097, 41.808864274596296 ], [ 45.797877821617178, 41.808872008799952 ], [ 45.798013735103901, 41.808996724004736 ], [ 45.798313867638669, 41.809362585350762 ], [ 45.798377947170771, 41.809414244727961 ], [ 45.79872281034266, 41.809728260371365 ], [ 45.798977057356517, 41.809956386212079 ], [ 45.799027213024772, 41.810001388718504 ], [ 45.798818729892211, 41.810232843521227 ], [ 45.798810620187162, 41.810247159590176 ], [ 45.798614116933436, 41.81059407169397 ], [ 45.798265651913461, 41.811390056424734 ], [ 45.7974948687772, 41.813193437213307 ], [ 45.797015204073666, 41.81427932103081 ], [ 45.796869218987794, 41.814639794109247 ], [ 45.796747520466056, 41.815079656124446 ], [ 45.796586081451245, 41.815431488529697 ], [ 45.796238362873545, 41.816291804561146 ], [ 45.796102769778564, 41.816918300428867 ], [ 45.796061630024845, 41.817454775477657 ], [ 45.796138686935706, 41.817889151895741 ], [ 45.796166551994652, 41.818269915437526 ], [ 45.796060679111243, 41.818664190265856 ], [ 45.795890422259369, 41.819064533183365 ], [ 45.79583716794599, 41.819123155801059 ], [ 45.79541112746071, 41.819592128674486 ], [ 45.794596672917557, 41.820711850412465 ], [ 45.794293258242391, 41.821224358250255 ], [ 45.794229308193685, 41.821372415544332 ], [ 45.794191753915534, 41.821459358947756 ], [ 45.794043456877581, 41.821704649113379 ], [ 45.794014470557599, 41.821937198317478 ], [ 45.794056036030149, 41.822141340362819 ], [ 45.794065052073556, 41.822163239436627 ], [ 45.794218356119615, 41.822323037356789 ], [ 45.794387884583408, 41.822506552281979 ], [ 45.79456471454008, 41.822636397767155 ], [ 45.79493312563875, 41.822800663636407 ], [ 45.795077217039797, 41.822859243030635 ], [ 45.79537299540393, 41.82294656032753 ], [ 45.795596286474186, 41.822968844236705 ], [ 45.795891106939798, 41.822978716941108 ], [ 45.796201707918563, 41.822976564342802 ], [ 45.796440041491458, 41.822927251380371 ], [ 45.796646443601965, 41.822872200462598 ], [ 45.796853068164971, 41.822835021721488 ], [ 45.797075546584558, 41.822791774563612 ], [ 45.797274575544172, 41.822784435222175 ], [ 45.797497569755535, 41.822782887176388 ], [ 45.797665112361187, 41.822805554114971 ], [ 45.797872844274124, 41.822857730897326 ], [ 45.798024755080668, 41.822904336211529 ], [ 45.798232339612738, 41.822944598206512 ], [ 45.798343838176471, 41.822943823297322 ], [ 45.798645659843579, 41.822876190383596 ], [ 45.79878104968035, 41.822875248930217 ], [ 45.798988265449964, 41.822885722874446 ], [ 45.799419587316947, 41.82298400197152 ], [ 45.800263784700071, 41.822978123423098 ], [ 45.80075056212916, 41.823052180818429 ], [ 45.801181813449197, 41.823144496650869 ], [ 45.801764310238987, 41.823229797203659 ], [ 45.802218267090339, 41.823226627586216 ], [ 45.80264833235919, 41.823223623129451 ], [ 45.803070431720499, 41.823220672756932 ], [ 45.803444746809078, 41.823218055087096 ], [ 45.803738675265379, 41.823156422039247 ], [ 45.803762433733269, 41.823149567304974 ], [ 45.803929144815868, 41.823101469530293 ], [ 45.804271229088499, 41.823069286406692 ], [ 45.804525708286015, 41.823037715906899 ], [ 45.80489957451644, 41.822999351170814 ], [ 45.805098826902615, 41.823009869890264 ], [ 45.80537772062047, 41.823019829871889 ], [ 45.805910943319795, 41.82298630150521 ], [ 45.806979482633984, 41.823010761010323 ], [ 45.807504366064109, 41.823022772007917 ], [ 45.807926463602364, 41.823019803802993 ], [ 45.808252993069885, 41.823017506571944 ], [ 45.808380418282894, 41.823016609846164 ], [ 45.808635569719925, 41.823038644162409 ], [ 45.808819644474269, 41.823108839952688 ], [ 45.809003419664997, 41.823155207246018 ], [ 45.809354441373856, 41.8232003958951 ], [ 45.809474278673186, 41.823229339759116 ], [ 45.809698100588719, 41.823293296890171 ], [ 45.810281961339165, 41.823485781889389 ], [ 45.810377906798692, 41.823514893347394 ], [ 45.810538918474286, 41.823650783779833 ], [ 45.810628854550878, 41.823834836227839 ], [ 45.810710600980435, 41.824001074123785 ], [ 45.811057197385779, 41.824326298919267 ], [ 45.811186506239792, 41.824474327425143 ], [ 45.811483592134941, 41.824662874056862 ], [ 45.81172395139054, 41.824774370979732 ], [ 45.811880079560794, 41.824831388667278 ], [ 45.811899994362491, 41.824838661432153 ], [ 45.812124125385928, 41.82492644191921 ], [ 45.812259970875694, 41.824961226798074 ], [ 45.81241197093685, 41.825013771332316 ], [ 45.812603718945624, 41.825060076443002 ], [ 45.812835739982702, 41.825141841690176 ], [ 45.813012011149418, 41.825224001089367 ], [ 45.813212402354843, 41.825323862624025 ], [ 45.813324883608004, 41.825400516026953 ], [ 45.813493644898053, 41.825518474204934 ], [ 45.813598313964874, 41.825607097813837 ], [ 45.813831017241668, 41.825742475722635 ], [ 45.814111735170208, 41.825895385118024 ], [ 45.814424160896543, 41.826036154753282 ], [ 45.814424307303319, 41.826036305030087 ], [ 45.814682422755098, 41.8263024172116 ], [ 45.814923171389601, 41.826443693841952 ], [ 45.815124098319906, 41.826585251668831 ], [ 45.815300451935023, 41.826673364961039 ], [ 45.815428868136941, 41.826749903166593 ], [ 45.815589216878095, 41.826832171610569 ], [ 45.815701477933089, 41.82689095105146 ], [ 45.816086879089845, 41.827132477934768 ], [ 45.816286902600062, 41.827202548353824 ], [ 45.816582123361165, 41.827242153360366 ], [ 45.817054536827492, 41.827435396861816 ], [ 45.817373274415353, 41.827445044232192 ], [ 45.817494872786348, 41.827352346942732 ], [ 45.817531050375237, 41.827324768112817 ], [ 45.817712493622267, 41.827186450119321 ], [ 45.817967057852883, 41.827160807256966 ], [ 45.818151609539321, 41.827266730035483 ], [ 45.818288601108982, 41.827390865418955 ], [ 45.818385997526534, 41.827533155024724 ], [ 45.818392451184877, 41.82754291568461 ], [ 45.818499704129884, 41.827705117525269 ], [ 45.818636773203785, 41.827835209049773 ], [ 45.818916069066852, 41.827874921544179 ], [ 45.819194833624358, 41.827872933700128 ], [ 45.819489451333041, 41.827864874051926 ], [ 45.819632814959853, 41.827863851108056 ], [ 45.819946151714888, 41.82790246973326 ], [ 45.820135427609081, 41.827925798028424 ], [ 45.820757358478232, 41.827974974150926 ], [ 45.820943811959019, 41.828010160764556 ], [ 45.82106821127423, 41.827990625622739 ], [ 45.821282953685206, 41.827965260067195 ], [ 45.82161739500372, 41.827956910201877 ], [ 45.821824552848263, 41.827961386190914 ], [ 45.821960258643905, 41.827984245414939 ], [ 45.822113112034948, 41.828102304672719 ], [ 45.822234412438483, 41.828244419883852 ], [ 45.822340012833024, 41.828404520528409 ], [ 45.822437190995771, 41.828528935958154 ], [ 45.822559560620121, 41.828754450933076 ], [ 45.822673431871721, 41.828938322300111 ], [ 45.822710889337323, 41.829003374258527 ], [ 45.822779339666802, 41.829122251493395 ], [ 45.822916191498479, 41.82923446625621 ], [ 45.823053043808741, 41.829346680849525 ], [ 45.823302779790424, 41.829565324227687 ], [ 45.823400801370092, 41.82975526646873 ], [ 45.823466964220444, 41.829945437030517 ], [ 45.823518418259198, 41.830231035896993 ], [ 45.823770068795177, 41.8305986059313 ], [ 45.8240432479029, 41.830781334098141 ], [ 45.824196111814373, 41.830899390432471 ], [ 45.82444409955022, 41.830981017506126 ], [ 45.824778556002528, 41.830972658302791 ], [ 45.824961216302597, 41.830929643086968 ], [ 45.825215793393568, 41.83090398405907 ], [ 45.825342544957984, 41.830849453872311 ], [ 45.825596890708482, 41.830805922511125 ], [ 45.825780163711173, 41.830810563025885 ], [ 45.8261392804379, 41.830861599132113 ], [ 45.826274762794505, 41.830866582589515 ], [ 45.826475191981586, 41.830966420542815 ], [ 45.826628443989073, 41.831114259117193 ], [ 45.826701663575925, 41.831232885267312 ], [ 45.82679134886056, 41.831393096256924 ], [ 45.826808505485239, 41.831488294715122 ], [ 45.82683385780561, 41.831601308219724 ], [ 45.826915886197973, 41.831785404483327 ], [ 45.827005650700457, 41.831951572733665 ], [ 45.827087526664833, 41.832123754828643 ], [ 45.827168559382393, 41.832230409264078 ], [ 45.827401468466228, 41.83237767307466 ], [ 45.827633918148798, 41.832489193427307 ], [ 45.8277613627329, 41.832488275025526 ], [ 45.827912625352646, 41.832481227686124 ], [ 45.827912952971545, 41.832481137958375 ], [ 45.828047573747789, 41.832444508587777 ], [ 45.828206878747444, 41.832443359995089 ], [ 45.828334476836815, 41.832454354980307 ], [ 45.828582244031097, 41.83251810242237 ], [ 45.828742625039126, 41.832600352130108 ], [ 45.828927978636592, 41.832765829091592 ], [ 45.829296995702528, 41.832965725188501 ], [ 45.829753172591445, 41.833129245078162 ], [ 45.830640789636945, 41.833390923742634 ], [ 45.831093756689526, 41.833594509435677 ], [ 45.833282346984134, 41.834014042886253 ], [ 45.837505487571626, 41.835317840037256 ], [ 45.838815127370125, 41.835662010463786 ], [ 45.840133985631475, 41.83606277027318 ], [ 45.840178269350162, 41.836035620439596 ], [ 45.840256956985321, 41.835987378930284 ], [ 45.840561176710942, 41.835800866247752 ], [ 45.841081671467052, 41.835426592871066 ], [ 45.84112120688259, 41.835398164249689 ], [ 45.842328981494383, 41.83452965999679 ], [ 45.843340053046113, 41.833874048653243 ], [ 45.844252405697034, 41.833466992014266 ], [ 45.84511276508335, 41.832984052648222 ], [ 45.846460912386938, 41.832764416644032 ] ] ] ] } }
]
}
