{
"type": "FeatureCollection",
"name": "ახმეტა-ახმეტის მწვანე",
"crs": { "type": "name", "properties": { "name": "urn:ogc:def:crs:OGC:1.3:CRS84" } },
"features": [
{ "type": "Feature", "properties": { "OBJECTID": 23, "NAME_GEO": "ახმეტა (ახმეტის მწვანე)", "NAME_ENG": "Akhmeta", "Location": "Kakheti", "MoreInfo": "https://www.sakpatenti.gov.ge/media/django-summernote/2025-11-19/e84cc827-7524-4c93-8453-d63cfdb2dc9c.pdf" }, "geometry": { "type": "MultiPolygon", "coordinates": [ [ [ [ 45.390343211057719, 42.126708597569426 ], [ 45.392432393090104, 42.124352081670004 ], [ 45.392978956060126, 42.124678462864573 ], [ 45.39505470297496, 42.123829493997725 ], [ 45.397006241586247, 42.123091657943924 ], [ 45.398392644533345, 42.122139464008832 ], [ 45.400992117037987, 42.120186022013215 ], [ 45.402651628052077, 42.117870208315637 ], [ 45.403545231076833, 42.115842481592374 ], [ 45.403838811391275, 42.115007615992205 ], [ 45.404074301345446, 42.11342800952167 ], [ 45.404080784739499, 42.110935180060409 ], [ 45.404100846387642, 42.108094965222833 ], [ 45.404178592035464, 42.105251225129969 ], [ 45.404156276431962, 42.103492457910782 ], [ 45.405360288768961, 42.10157431090613 ], [ 45.40665936459407, 42.099637845000807 ], [ 45.408688377284449, 42.097333984731208 ], [ 45.410328453601714, 42.096141437592216 ], [ 45.41025585707191, 42.095956381360715 ], [ 45.409987569345269, 42.095146232502728 ], [ 45.409867649006792, 42.094578416821882 ], [ 45.409562969157328, 42.094178591296988 ], [ 45.408377694982079, 42.094146791233854 ], [ 45.407266641479822, 42.093861398829993 ], [ 45.40656307252128, 42.09357596313172 ], [ 45.406562470008033, 42.093481622210021 ], [ 45.406562038040882, 42.093413984946821 ], [ 45.405741554293591, 42.090432900428191 ], [ 45.405609973415295, 42.089954985203953 ], [ 45.403733099513452, 42.087190932494835 ], [ 45.402300946223988, 42.085782840838242 ], [ 45.400926036852418, 42.084431001768181 ], [ 45.403860095092966, 42.083851187003503 ], [ 45.403971249561607, 42.083829225180217 ], [ 45.404028304437446, 42.083693836570269 ], [ 45.40426138352268, 42.083346805387684 ], [ 45.404650626641157, 42.082860027504793 ], [ 45.405042758426411, 42.082367383835276 ], [ 45.405149298660255, 42.082242988047611 ], [ 45.405454968403113, 42.081886511420798 ], [ 45.405922131886975, 42.081459392158017 ], [ 45.406075809437965, 42.081281149916748 ], [ 45.40629915251796, 42.081021962453839 ], [ 45.406576693548942, 42.081009969046946 ], [ 45.406632503957354, 42.081007564710987 ], [ 45.406922343025698, 42.080995031533512 ], [ 45.407003079605367, 42.080461424321328 ], [ 45.407019052820168, 42.080331268524866 ], [ 45.407074779101762, 42.079876016547125 ], [ 45.40713482482203, 42.079264441042632 ], [ 45.407204975896626, 42.078928879425966 ], [ 45.407217058270341, 42.07887101469634 ], [ 45.407322845422421, 42.078531183530693 ], [ 45.407329603497104, 42.078491485821509 ], [ 45.407385933318061, 42.078159530681901 ], [ 45.407436493646784, 42.0775116021629 ], [ 45.407370302908895, 42.077350710456912 ], [ 45.407313076881266, 42.077211582675439 ], [ 45.407251831210573, 42.077067695669172 ], [ 45.407098662126842, 42.076708653677755 ], [ 45.407151762732482, 42.076202523831846 ], [ 45.40715814735762, 42.07614224753393 ], [ 45.407165836404801, 42.076059090035344 ], [ 45.407209845572922, 42.075587082058661 ], [ 45.407200682857059, 42.075553159970426 ], [ 45.407189294093691, 42.075511410102564 ], [ 45.407041120921228, 42.075498425949881 ], [ 45.406980902178454, 42.075363541637422 ], [ 45.406999643883964, 42.074910041631718 ], [ 45.407005083773882, 42.074777581370881 ], [ 45.407062972813421, 42.074585807235906 ], [ 45.407206214801221, 42.074111375620241 ], [ 45.407260200478305, 42.073611772090374 ], [ 45.407530474894642, 42.07330513108257 ], [ 45.407844670516347, 42.073080653021748 ], [ 45.408268185440953, 42.072806069206116 ], [ 45.408367964259213, 42.072738255299662 ], [ 45.408545897779582, 42.072680340490187 ], [ 45.408667479475881, 42.072675944737789 ], [ 45.408821286979133, 42.072644864802207 ], [ 45.409086372025037, 42.072567274625534 ], [ 45.409175232695944, 42.072531291983147 ], [ 45.409180559526483, 42.072476062964128 ], [ 45.409273712682797, 42.072412054632949 ], [ 45.409377227059224, 42.072286224471071 ], [ 45.409449325035034, 42.072106106860652 ], [ 45.40946570555024, 42.072002788547827 ], [ 45.409462003229677, 42.071596021796452 ], [ 45.409439640764113, 42.071596146612613 ], [ 45.409437967166546, 42.071580256056052 ], [ 45.409440101569693, 42.071564396946556 ], [ 45.409855423225331, 42.071550260297371 ], [ 45.41000354839634, 42.070824570312801 ], [ 45.410093473189022, 42.0706726690781 ], [ 45.410120353317282, 42.070604483637823 ], [ 45.410130513250671, 42.070445797257477 ], [ 45.410159121659611, 42.069998295484368 ], [ 45.410197326010071, 42.069811543563105 ], [ 45.4102296523821, 42.069763243060997 ], [ 45.410509031632408, 42.069523660992729 ], [ 45.410540940774801, 42.069495086203226 ], [ 45.410574171976393, 42.069465335825612 ], [ 45.410802772125756, 42.069083946663113 ], [ 45.410822327986239, 42.069089235549633 ], [ 45.410826481373938, 42.069077241990513 ], [ 45.410830158809858, 42.069066420984512 ], [ 45.41085201169625, 42.069043646287128 ], [ 45.410969092791724, 42.068867329457575 ], [ 45.41098179255988, 42.068821665879042 ], [ 45.411039974394562, 42.06861237079346 ], [ 45.41108034585929, 42.068424800186179 ], [ 45.411095073880574, 42.06835629775815 ], [ 45.41110544636625, 42.068249713281993 ], [ 45.411122560981973, 42.068073394059873 ], [ 45.411095357609732, 42.067978742742781 ], [ 45.411058263713088, 42.067849902003502 ], [ 45.411019561445315, 42.067715302825718 ], [ 45.411070744556241, 42.067648561200535 ], [ 45.411087257557668, 42.067660030420377 ], [ 45.411097477659673, 42.067651617732551 ], [ 45.411107894178073, 42.067636179241305 ], [ 45.411117350687213, 42.067621824972498 ], [ 45.411131238202181, 42.067601060188252 ], [ 45.411151590618609, 42.067570635247108 ], [ 45.411134133316459, 42.067562681968695 ], [ 45.411072657103652, 42.067532820347864 ], [ 45.411059197894318, 42.067526293783402 ], [ 45.411017183282503, 42.06750590935475 ], [ 45.41098414139514, 42.06748986094977 ], [ 45.410939883440321, 42.067468358708993 ], [ 45.410972917597277, 42.067426990478772 ], [ 45.410947782673375, 42.067418704403202 ], [ 45.410920955000066, 42.067400967518694 ], [ 45.410900036698756, 42.06738113796694 ], [ 45.410884184568019, 42.067359669096859 ], [ 45.410878819171337, 42.067352393010417 ], [ 45.41083985336175, 42.067308040210925 ], [ 45.410833581566656, 42.067272666969522 ], [ 45.41082217859293, 42.067228845949991 ], [ 45.410525389147757, 42.067081435187738 ], [ 45.409836684052586, 42.066739171397963 ], [ 45.409691459002985, 42.06667403224408 ], [ 45.409270937193675, 42.066485224475301 ], [ 45.409168611719466, 42.066474781486768 ], [ 45.408875035069279, 42.066365407605439 ], [ 45.408629977716842, 42.066207044781947 ], [ 45.408048228805541, 42.065831020090222 ], [ 45.407981894890135, 42.065787664262857 ], [ 45.407704430580047, 42.065522597068686 ], [ 45.407415234015929, 42.065246492793072 ], [ 45.407219698253677, 42.064911152699516 ], [ 45.407158318649053, 42.064763302922223 ], [ 45.407095469946142, 42.064612486160222 ], [ 45.407076291845584, 42.064391713764998 ], [ 45.406594619241922, 42.06437117506821 ], [ 45.406511591129217, 42.064372549972383 ], [ 45.405821383305224, 42.064384179315155 ], [ 45.405671625007905, 42.064383898178022 ], [ 45.405066246916732, 42.06438288413483 ], [ 45.404476955618613, 42.064326510030547 ], [ 45.404379354998902, 42.064317126897585 ], [ 45.403969445024799, 42.064291100510935 ], [ 45.403516004816552, 42.064262253558383 ], [ 45.403160990290125, 42.064239453747668 ], [ 45.40280766870054, 42.064216736962074 ], [ 45.402254226356213, 42.064257361184232 ], [ 45.401473240772539, 42.0643256184404 ], [ 45.401237553400534, 42.064307483891639 ], [ 45.400828215308032, 42.06427608539132 ], [ 45.400672750982984, 42.064233306773325 ], [ 45.40039209202223, 42.06415601939144 ], [ 45.400052224195242, 42.063984999470478 ], [ 45.39996326069236, 42.063926496807625 ], [ 45.399901362771857, 42.06388582279299 ], [ 45.399974711071955, 42.063786585270037 ], [ 45.40012595969818, 42.063581699562064 ], [ 45.402037045414367, 42.061214269966598 ], [ 45.402184889445479, 42.061075186226432 ], [ 45.402254455774795, 42.0610097350134 ], [ 45.402423679806745, 42.061002792157709 ], [ 45.402346675113485, 42.060981221259496 ], [ 45.402248126467519, 42.060954817250838 ], [ 45.402202415727686, 42.060931740555645 ], [ 45.402189682752947, 42.060912950682543 ], [ 45.402183057613463, 42.060890243171578 ], [ 45.402193582975279, 42.06084400269237 ], [ 45.402235078520775, 42.060783288228386 ], [ 45.40231353381818, 42.06069006565194 ], [ 45.402423119072552, 42.060550305110745 ], [ 45.402549080586788, 42.060381846196798 ], [ 45.402682010975902, 42.060168735235429 ], [ 45.40277715931304, 42.060039742792071 ], [ 45.402848592626398, 42.059944878270478 ], [ 45.402903251134362, 42.059873084328757 ], [ 45.40295060226871, 42.059792489597001 ], [ 45.402976674574283, 42.059729847563077 ], [ 45.402997667253125, 42.059647544046264 ], [ 45.403042774616516, 42.059556194324188 ], [ 45.403099544970232, 42.059436207821413 ], [ 45.403156338468982, 42.059319913892843 ], [ 45.403253313373156, 42.059097921979152 ], [ 45.403319589528955, 42.058961870297018 ], [ 45.403381099008399, 42.058836553123733 ], [ 45.403428746924355, 42.058764873624547 ], [ 45.403649238573571, 42.058390506577823 ], [ 45.403715861502143, 42.058261748739405 ], [ 45.40380321314985, 42.058066539635711 ], [ 45.403869505970178, 42.057943006663606 ], [ 45.403909566000451, 42.057837489015562 ], [ 45.403994088246385, 42.057558348630799 ], [ 45.404048373978419, 42.057390140269597 ], [ 45.40409994414351, 42.057213024950713 ], [ 45.404179993593509, 42.056991136802928 ], [ 45.404248277846889, 42.056781719077222 ], [ 45.404307276038331, 42.056613584039027 ], [ 45.404379834712387, 42.056354164781233 ], [ 45.404419752633508, 42.056207487468477 ], [ 45.404464379688349, 42.056069710033292 ], [ 45.40449972000593, 42.055973035204246 ], [ 45.404518572255455, 42.055915777128085 ], [ 45.404527934192906, 42.055867514022204 ], [ 45.404534769699723, 42.055821061131439 ], [ 45.404536914344931, 42.055778137330982 ], [ 45.404529391007571, 42.055735247607004 ], [ 45.404521954523211, 42.055686998674886 ], [ 45.404504718090884, 42.055637028003162 ], [ 45.404490374775129, 42.055576374362445 ], [ 45.404482617091801, 42.055544158229523 ], [ 45.404472752536613, 42.055494161571119 ], [ 45.404462710287973, 42.055435204013428 ], [ 45.40446486238514, 42.055374402169427 ], [ 45.404464420647862, 42.055304783039688 ], [ 45.404480598327417, 42.055226008716765 ], [ 45.404484360049743, 42.05520937836129 ], [ 45.404499291500422, 42.055143712967542 ], [ 45.404522648819075, 42.055034651299053 ], [ 45.404541104401055, 42.054914934130387 ], [ 45.40455470574598, 42.054811085608954 ], [ 45.404570676231081, 42.054680659386442 ], [ 45.404604987653812, 42.054412503257048 ], [ 45.404639358315372, 42.054172762589722 ], [ 45.404685538273455, 42.053870609839912 ], [ 45.404696093597579, 42.053800996949654 ], [ 45.404703860090507, 42.053748956682711 ], [ 45.404722552556798, 42.053666660879067 ], [ 45.404750501105177, 42.053557582946688 ], [ 45.404793128756438, 42.053457414761475 ], [ 45.40487097925282, 42.05331852920127 ], [ 45.404930666075821, 42.053211996189475 ], [ 45.4049485623298, 42.053166134688013 ], [ 45.405029838847753, 42.05295793144078 ], [ 45.405091414317617, 42.052825407745793 ], [ 45.405145777455488, 42.052717992747496 ], [ 45.405176424775753, 42.05266294453525 ], [ 45.405271473715715, 42.052492339905832 ], [ 45.40539213090851, 42.052234551291406 ], [ 45.405437143480398, 42.052148649822392 ], [ 45.405470316797739, 42.052082334400843 ], [ 45.405508032483695, 42.051989208397643 ], [ 45.405552958261566, 42.051908711123893 ], [ 45.405586354739818, 42.05185851662447 ], [ 45.405607565607212, 42.051820929334362 ], [ 45.40563169249036, 42.051804812385924 ], [ 45.405665087003342, 42.051792310334044 ], [ 45.405715253927973, 42.051775876162196 ], [ 45.405787040687386, 42.051757654285019 ], [ 45.405897343081506, 42.051734117384065 ], [ 45.405985737988118, 42.051705163869386 ], [ 45.406028874698343, 42.051685421999913 ], [ 45.406062335604844, 42.051654906472059 ], [ 45.406090842533786, 42.051624498528298 ], [ 45.406104885309794, 42.051590449066602 ], [ 45.406114256049449, 42.05154385197951 ], [ 45.406101939890817, 42.051488505196687 ], [ 45.406079997817677, 42.051420718380214 ], [ 45.406060107038392, 42.05136193086453 ], [ 45.406045618591925, 42.051297540163198 ], [ 45.406030806275858, 42.051229728110968 ], [ 45.406025676373865, 42.051183227358848 ], [ 45.406025391878359, 42.051138555810446 ], [ 45.406034676760477, 42.051097453033726 ], [ 45.406050960552825, 42.051016831713284 ], [ 45.406078947663396, 42.050895369248195 ], [ 45.406111606787263, 42.050748536764559 ], [ 45.406122944632045, 42.050650325096655 ], [ 45.406139131960018, 42.05055459558718 ], [ 45.406133707934799, 42.050442955897196 ], [ 45.406130767340585, 42.050360736367395 ], [ 45.406127849703047, 42.050282119381016 ], [ 45.406127542483574, 42.050233890313173 ], [ 45.406136810893393, 42.050171261889815 ], [ 45.406150825859193, 42.050113930541826 ], [ 45.406176406234451, 42.049994142765684 ], [ 45.406182772601824, 42.049874332915707 ], [ 45.406193479367673, 42.049658137448532 ], [ 45.40619264795351, 42.049527635250875 ], [ 45.406188986266507, 42.049465007542807 ], [ 45.406187211111138, 42.049432950449678 ], [ 45.406177151699559, 42.049352422314868 ], [ 45.406152673285838, 42.049284734528158 ], [ 45.406116477061751, 42.049236587414896 ], [ 45.406073000732974, 42.049202741455225 ], [ 45.405998378369404, 42.049154730250422 ], [ 45.405911570340592, 42.049090730404615 ], [ 45.40584662694534, 42.049044531214925 ], [ 45.405807847368415, 42.048989142850502 ], [ 45.405773846880621, 42.048925181337729 ], [ 45.405742169201666, 42.048846440832612 ], [ 45.405710534498397, 42.048755451234172 ], [ 45.40569331788398, 42.048689448919923 ], [ 45.405700026023844, 42.048623226937664 ], [ 45.405699707684491, 42.048573196580271 ], [ 45.405723955171631, 42.048528753522938 ], [ 45.405743451335582, 42.048478247823667 ], [ 45.405592044089218, 42.048345846030237 ], [ 45.405560146549703, 42.048317948319969 ], [ 45.405423747136545, 42.048198687890668 ], [ 45.405412142641168, 42.048188551459297 ], [ 45.405242874114307, 42.048040495824793 ], [ 45.405196152580643, 42.047999680892325 ], [ 45.404423547179086, 42.048014159452876 ], [ 45.403992779115569, 42.047864546294939 ], [ 45.403614148358379, 42.047733076549115 ], [ 45.402761523300072, 42.047437008576367 ], [ 45.402464453398153, 42.047332853921723 ], [ 45.402418251832678, 42.047316623964143 ], [ 45.402302199732972, 42.047289695863519 ], [ 45.402131369741817, 42.047294887872489 ], [ 45.401985476268827, 42.047345430437872 ], [ 45.401755120233013, 42.047568969475144 ], [ 45.401687225250356, 42.047571413723581 ], [ 45.401621022226337, 42.047573897044181 ], [ 45.40136551509832, 42.047670305506252 ], [ 45.401134238024603, 42.047757577115206 ], [ 45.400939226010792, 42.047799103305337 ], [ 45.40070781471919, 42.04783634303049 ], [ 45.400500832963466, 42.047896103534434 ], [ 45.400412320613704, 42.047905914291682 ], [ 45.400353634120485, 42.047912378581564 ], [ 45.400344033304357, 42.047903675698421 ], [ 45.400107289285465, 42.047688163443155 ], [ 45.399998825915965, 42.047628467679303 ], [ 45.399782160648563, 42.047502500134875 ], [ 45.399781283127155, 42.047362541092973 ], [ 45.399710506263482, 42.047059446309355 ], [ 45.399659863082661, 42.046980274778676 ], [ 45.399622917305862, 42.046927219621978 ], [ 45.39954000275489, 42.046808126186278 ], [ 45.399569920220628, 42.046607355630826 ], [ 45.399630376702788, 42.046266516606615 ], [ 45.399578827874564, 42.046042702633528 ], [ 45.399571738079956, 42.045942934494441 ], [ 45.399565182988724, 42.045851360472703 ], [ 45.399814412183865, 42.045631272583989 ], [ 45.400431519175626, 42.045190501146983 ], [ 45.400574050437022, 42.045105432065782 ], [ 45.400730545469358, 42.045012028006106 ], [ 45.400905730878137, 42.044941390113387 ], [ 45.401174348392715, 42.044865832065042 ], [ 45.401386243272192, 42.044753229585112 ], [ 45.401548959163676, 42.04460227315716 ], [ 45.401659822165257, 42.044448841027737 ], [ 45.401723246117406, 42.044283843773904 ], [ 45.401746012767184, 42.044224725988904 ], [ 45.401858006372237, 42.044126252325604 ], [ 45.401988261132324, 42.043934496542278 ], [ 45.402037580631784, 42.04380363838758 ], [ 45.402017999059723, 42.043668338145366 ], [ 45.401961249874446, 42.043617289487031 ], [ 45.401854565916516, 42.043580285769792 ], [ 45.401827828820046, 42.043555746393835 ], [ 45.401722463015616, 42.04345942963549 ], [ 45.401702996833727, 42.043361506218297 ], [ 45.401651504998597, 42.043128326027961 ], [ 45.401624819657492, 42.042862545261734 ], [ 45.401604207572213, 42.042582602900019 ], [ 45.401521926801351, 42.042410324745738 ], [ 45.401237726846119, 42.042023945687482 ], [ 45.401216882186901, 42.041706716790465 ], [ 45.401252872723262, 42.041454586893536 ], [ 45.401432674418693, 42.041187993886176 ], [ 45.401699779917088, 42.040855797365424 ], [ 45.40189240459047, 42.040649773020746 ], [ 45.401885037295706, 42.040458499045556 ], [ 45.401903091354264, 42.040332433763226 ], [ 45.40197718310899, 42.040164201563705 ], [ 45.402063893347631, 42.040042759333303 ], [ 45.402219890297381, 42.039920578889365 ], [ 45.402469436573611, 42.03978456036436 ], [ 45.402624922543524, 42.039648646119943 ], [ 45.402786749593389, 42.039522076255167 ], [ 45.403017537532186, 42.039372027056714 ], [ 45.403198151577968, 42.039236023793102 ], [ 45.403322582582412, 42.039119041438305 ], [ 45.403496765155928, 42.038959733249932 ], [ 45.403652134036484, 42.038767797062448 ], [ 45.403795289422121, 42.03865065826961 ], [ 45.404037451411199, 42.038332504135553 ], [ 45.404236110323907, 42.038070613716037 ], [ 45.404424111436867, 42.037862079476113 ], [ 45.40462548117037, 42.037285218529803 ], [ 45.404711591277042, 42.037051554304028 ], [ 45.404779359817582, 42.036878659079647 ], [ 45.404810148623021, 42.036789925688517 ], [ 45.4048531059724, 42.036733933340919 ], [ 45.404878389011586, 42.036700970118758 ], [ 45.404915698109413, 42.036640224180097 ], [ 45.404920770170968, 42.036620842126069 ], [ 45.404934098490685, 42.036569817825963 ], [ 45.404940114178174, 42.0365468298072 ], [ 45.404958185969654, 42.036462734595716 ], [ 45.404989064470854, 42.036378684259205 ], [ 45.405019612988376, 42.036271217951665 ], [ 45.40505638475566, 42.036154452887587 ], [ 45.405106018086158, 42.036074929687253 ], [ 45.405161993028734, 42.03600475092999 ], [ 45.405248813631793, 42.035864482057697 ], [ 45.405460201245404, 42.035630374832365 ], [ 45.405584381179089, 42.03549465714508 ], [ 45.405628178682264, 42.035457034967095 ], [ 45.405715349085952, 42.035419529665852 ], [ 45.405909134664562, 42.035381557244385 ], [ 45.406052844519223, 42.035324892856295 ], [ 45.4062584778586, 42.035202891493789 ], [ 45.406476499252392, 42.035024869942298 ], [ 45.406500852745459, 42.034922108582748 ], [ 45.406613093523724, 42.034837679543138 ], [ 45.40688127415671, 42.034710817068735 ], [ 45.407074490768167, 42.034584129790076 ], [ 45.407134197703492, 42.034540821489202 ], [ 45.407242608156345, 42.034462214666327 ], [ 45.407516324662744, 42.034190595162734 ], [ 45.407689916976004, 42.033942657742237 ], [ 45.407807433025191, 42.033824073807843 ], [ 45.407926508775283, 42.033703863021607 ], [ 45.40807269781066, 42.033601253668905 ], [ 45.408200485229024, 42.033511588998074 ], [ 45.408424536666082, 42.03331480854834 ], [ 45.408803835161386, 42.032930768185409 ], [ 45.408909609967886, 42.032780972048293 ], [ 45.409002905864916, 42.032738758987058 ], [ 45.408970421357544, 42.032552348213045 ], [ 45.409019866869784, 42.032444723377587 ], [ 45.409056839124723, 42.032351283322491 ], [ 45.409106283951481, 42.032262437194611 ], [ 45.409224318297611, 42.032131375801136 ], [ 45.409261860432167, 42.032089181157815 ], [ 45.409286386845231, 42.032033072695121 ], [ 45.409298291212799, 42.031949088797738 ], [ 45.409316569330251, 42.031841755092039 ], [ 45.40937214525681, 42.031729514868104 ], [ 45.409414440113899, 42.031505550159679 ], [ 45.409425924609494, 42.031337356084656 ], [ 45.409525653204568, 42.031224913242042 ], [ 45.409650814973574, 42.031160114493645 ], [ 45.409725225475434, 42.031121570873601 ], [ 45.409943399797946, 42.03104621726262 ], [ 45.410136869628829, 42.03096158465506 ], [ 45.410274015457517, 42.030853780945819 ], [ 45.410292075185318, 42.030834892608446 ], [ 45.410354955997093, 42.030769415039934 ], [ 45.410535469307653, 42.030661500996615 ], [ 45.410741140039448, 42.03051143584571 ], [ 45.4109715447375, 42.030328587824705 ], [ 45.411045660885435, 42.030169626214203 ], [ 45.411101053011258, 42.030029555400901 ], [ 45.411269151060651, 42.029888945681428 ], [ 45.411405870461437, 42.029753131616431 ], [ 45.411586349928498, 42.029584511565567 ], [ 45.411741611420368, 42.029401931399683 ], [ 45.41182804764108, 42.029205727819672 ], [ 45.411914271248314, 42.028995384573243 ], [ 45.411981288418588, 42.028710445496728 ], [ 45.412116527671159, 42.028346093440859 ], [ 45.412277795269659, 42.028102876539492 ], [ 45.412513774003983, 42.027831290333864 ], [ 45.412756697090792, 42.027643800300538 ], [ 45.41288135882742, 42.027559320375552 ], [ 45.412880362856193, 42.027405401168117 ], [ 45.41295377619246, 42.027167092631906 ], [ 45.413071400689979, 42.026956725537673 ], [ 45.413176612811917, 42.026769730092902 ], [ 45.413369369913148, 42.026577735869346 ], [ 45.413612769107672, 42.026464816933874 ], [ 45.413762310203801, 42.026342868987825 ], [ 45.413880688093606, 42.02627723441033 ], [ 45.414112037636649, 42.026243706019883 ], [ 45.41436195906163, 42.026186873088669 ], [ 45.414624017458713, 42.02608316144309 ], [ 45.41484887089306, 42.025988905503311 ], [ 45.415011003818428, 42.025909106343555 ], [ 45.415597015943817, 42.025533662392029 ], [ 45.415902492203827, 42.025364582804457 ], [ 45.416208239081243, 42.02520946165356 ], [ 45.416676599569151, 42.02504906606066 ], [ 45.417057233608404, 42.024884439000871 ], [ 45.417235226780988, 42.024783323476356 ], [ 45.417181667796015, 42.024720652057034 ], [ 45.417197188319165, 42.024637284562807 ], [ 45.417265545085087, 42.024506080070573 ], [ 45.4173340146153, 42.024410631343038 ], [ 45.417402578811284, 42.024311219323181 ], [ 45.41749256472449, 42.024199705530648 ], [ 45.417598574209833, 42.024155682904357 ], [ 45.417683179317486, 42.024108000328873 ], [ 45.417794337775554, 42.024020231719575 ], [ 45.417894710766511, 42.023908724832339 ], [ 45.418000373348463, 42.023793415818758 ], [ 45.418068866391074, 42.023701839397198 ], [ 45.418163768492391, 42.023566664823633 ], [ 45.418168658669735, 42.023483425975115 ], [ 45.418209860663794, 42.023393119744291 ], [ 45.418361641110096, 42.023237472890038 ], [ 45.41864939017217, 42.022974331516849 ], [ 45.418957022110256, 42.022796319339342 ], [ 45.419103846505976, 42.022677391501276 ], [ 45.419148422429537, 42.022641292375383 ], [ 45.419182304775404, 42.022613833593866 ], [ 45.419123474757626, 42.022576220672988 ], [ 45.419122940347769, 42.022494847932229 ], [ 45.419087351724819, 42.022428013752688 ], [ 45.419019196548362, 42.022386652048596 ], [ 45.418958071430488, 42.022367375864775 ], [ 45.41883896145189, 42.022328766907677 ], [ 45.418755327657401, 42.022303087988568 ], [ 45.418663742899561, 42.022225379818963 ], [ 45.418540825485735, 42.022103428286378 ], [ 45.418361373496651, 42.02187000075088 ], [ 45.418175686446681, 42.021717114717049 ], [ 45.417658120716204, 42.021045079611625 ], [ 45.417411655802802, 42.020620368799669 ], [ 45.417131082102117, 42.020234104509427 ], [ 45.416992103333115, 42.020111579173559 ], [ 45.416916440615687, 42.019937305895745 ], [ 45.416829424306464, 42.019652022272744 ], [ 45.416721150797265, 42.019366725677614 ], [ 45.416634628235414, 42.01915682543062 ], [ 45.416484282749799, 42.018939230881472 ], [ 45.416328382310468, 42.018666085471288 ], [ 45.416172552305191, 42.018440584565688 ], [ 45.415979679169503, 42.018239085214219 ], [ 45.415353330698792, 42.017630254576318 ], [ 45.415102297679553, 42.017464450217972 ], [ 45.414963682427548, 42.017405597814474 ], [ 45.41465900167011, 42.017208283120553 ], [ 45.41445561107507, 42.017022580728757 ], [ 45.414273581105533, 42.016852652524058 ], [ 45.41413400593477, 42.016654830482864 ], [ 45.413941367048324, 42.016468998301917 ], [ 45.413732846604731, 42.016311053481672 ], [ 45.413599282822432, 42.016220387848975 ], [ 45.413470937229349, 42.016133486042271 ], [ 45.413406526032347, 42.016034555178727 ], [ 45.413346993450801, 42.015868327274042 ], [ 45.413245064669816, 42.015757462540982 ], [ 45.413148846889541, 42.015670534764297 ], [ 45.413004432708362, 42.015563875699605 ], [ 45.412887269918407, 42.01549701775162 ], [ 45.412758806559701, 42.015410205625443 ], [ 45.412609011918356, 42.015283750843039 ], [ 45.412448547835034, 42.015141482549623 ], [ 45.41228266810252, 42.01498338182914 ], [ 45.412100650329855, 42.014813540130717 ], [ 45.411945535191094, 42.014695029393636 ], [ 45.41183337949473, 42.014608247757835 ], [ 45.411715565505631, 42.014505499555042 ], [ 45.411367641922162, 42.014153642387321 ], [ 45.411196128558664, 42.013963856947896 ], [ 45.410987513678229, 42.013770151109938 ], [ 45.410933546549842, 42.013679197311461 ], [ 45.410773313009315, 42.013552777458933 ], [ 45.410538642333208, 42.013438602434761 ], [ 45.410251476420683, 42.013368206608853 ], [ 45.410436678566242, 42.013339714086186 ], [ 45.410585453098079, 42.01329955289328 ], [ 45.410771117797218, 42.013211614469107 ], [ 45.410921724202829, 42.013118397278156 ], [ 45.410956391620587, 42.013081796348352 ], [ 45.41102917570678, 42.013019119854349 ], [ 45.411116256909054, 42.012982376215653 ], [ 45.411301036262181, 42.012963475865185 ], [ 45.411475225332829, 42.012931688676581 ], [ 45.412203401521637, 42.012845224455596 ], [ 45.412541705554915, 42.0127928514937 ], [ 45.412701810803831, 42.012768408423653 ], [ 45.41283003444898, 42.012781637412402 ], [ 45.413005952116521, 42.012746554266776 ], [ 45.413291447764628, 42.012698827364872 ], [ 45.413845489548002, 42.012569207372543 ], [ 45.414395513669405, 42.012416362121307 ], [ 45.414798403107476, 42.012360506946763 ], [ 45.414876591938139, 42.012349686628582 ], [ 45.415148322991257, 42.01231222737313 ], [ 45.415319480974837, 42.012269907563315 ], [ 45.415482705630467, 42.012214826808325 ], [ 45.415597642537158, 42.012181446489322 ], [ 45.415691604856043, 42.012154131418384 ], [ 45.415931920686951, 42.012096023802414 ], [ 45.416102774042315, 42.012071987373538 ], [ 45.416302020531461, 42.012086891433768 ], [ 45.41645197298017, 42.01213574883478 ], [ 45.416550422443123, 42.012231672421564 ], [ 45.416606794909356, 42.012320047978939 ], [ 45.416690789292652, 42.012375359000799 ], [ 45.416730450153317, 42.012401244162291 ], [ 45.417699717931939, 42.012220515911629 ], [ 45.417721550561232, 42.012216428516297 ], [ 45.417709406893849, 42.012169323035017 ], [ 45.417689890523604, 42.012093648351026 ], [ 45.417532219579016, 42.011483347713686 ], [ 45.417506696608029, 42.011384772978282 ], [ 45.417481545730681, 42.011287682975208 ], [ 45.417478943991291, 42.011277650051177 ], [ 45.417474729311387, 42.011261048157166 ], [ 45.417416366420156, 42.01103451862236 ], [ 45.416882734368258, 42.010162229744687 ], [ 45.416587329807854, 42.009679376131892 ], [ 45.416138554954841, 42.008945747858405 ], [ 45.41507903986772, 42.00718194275796 ], [ 45.414747041113785, 42.006629144854514 ], [ 45.414342387298866, 42.006016714096269 ], [ 45.41428055542243, 42.005923088145067 ], [ 45.413738957483808, 42.005103366265566 ], [ 45.413584931217109, 42.004870109071561 ], [ 45.413549321295207, 42.004816197554931 ], [ 45.413204463835335, 42.004408988502185 ], [ 45.412911789260171, 42.003760933354776 ], [ 45.412369204848218, 42.003325161198525 ], [ 45.41178053512283, 42.002997766523315 ], [ 45.411730592558634, 42.002967908526728 ], [ 45.411624221922914, 42.002904252802871 ], [ 45.411590401305524, 42.002883974036372 ], [ 45.411527851637018, 42.002846505510426 ], [ 45.411381418247785, 42.002758855385295 ], [ 45.411370690450148, 42.002752454083328 ], [ 45.411354204437067, 42.002742560825773 ], [ 45.411325959340587, 42.00272550439076 ], [ 45.411172920453943, 42.002633959778137 ], [ 45.410650723106883, 42.002248093219229 ], [ 45.410487542669053, 42.001865264193256 ], [ 45.410429343567451, 42.00175293432244 ], [ 45.410314535656696, 42.001531376091926 ], [ 45.410111381201119, 42.001165801974331 ], [ 45.410101005837106, 42.001101396521996 ], [ 45.410035785616593, 42.000694574330232 ], [ 45.409971635744363, 42.000642474861756 ], [ 45.409859784847264, 42.000551862150665 ], [ 45.409796533754516, 42.000573929073532 ], [ 45.409638103822708, 42.000629074789785 ], [ 45.409503147481537, 42.00063532055119 ], [ 45.409411767491207, 42.000639429285286 ], [ 45.409240787246404, 42.000582756716334 ], [ 45.409038988250657, 42.000427390842809 ], [ 45.408663329602589, 42.000406572457926 ], [ 45.408243039592477, 42.000317235924328 ], [ 45.408205738596962, 42.000309352660679 ], [ 45.408073973019476, 42.000314099299239 ], [ 45.407427039622412, 42.000338013173952 ], [ 45.407293881490176, 42.000361092377972 ], [ 45.407054944479249, 42.000402514818497 ], [ 45.407032682923578, 42.000395613607111 ], [ 45.406870189685122, 42.000343951129047 ], [ 45.406434455468933, 42.000132622692398 ], [ 45.406428124510832, 42.000114947053149 ], [ 45.405716683827855, 41.998043233344539 ], [ 45.405604490698138, 41.997716418327016 ], [ 45.405274317221114, 41.996754953912863 ], [ 45.404931172864302, 41.995898011277582 ], [ 45.404777329546349, 41.99551351953518 ], [ 45.404481554205354, 41.994775206064766 ], [ 45.404263065797601, 41.994229136794473 ], [ 45.404258649009435, 41.994218029132114 ], [ 45.404246749232115, 41.994188259015864 ], [ 45.404038081523119, 41.993667148139217 ], [ 45.404020998442164, 41.993638657171175 ], [ 45.404005868165498, 41.993613491789837 ], [ 45.403980730223495, 41.993571339048962 ], [ 45.403063813823586, 41.991323438563164 ], [ 45.402686987735308, 41.990399867271485 ], [ 45.40268242759214, 41.990365928162667 ], [ 45.402676473054498, 41.990321456153325 ], [ 45.402671784817748, 41.990286346627244 ], [ 45.402667727745218, 41.990255603116587 ], [ 45.402610214136288, 41.99009490086798 ], [ 45.402605911841555, 41.990082711932892 ], [ 45.40260099684059, 41.990069084080865 ], [ 45.402593377358926, 41.990047765019199 ], [ 45.402560812254464, 41.989956956990042 ], [ 45.402556130779054, 41.989942067384497 ], [ 45.402533164199021, 41.989880092031704 ], [ 45.402524089820275, 41.989857787333619 ], [ 45.402199225594849, 41.989054541111173 ], [ 45.402065677075257, 41.988724374381434 ], [ 45.402000643306707, 41.988576802813547 ], [ 45.401985456108733, 41.988542270412857 ], [ 45.401764637723758, 41.988041192199411 ], [ 45.400732517871006, 41.986897891128486 ], [ 45.39959313735217, 41.985835383455061 ], [ 45.398918667513932, 41.985757029430559 ], [ 45.398882359375349, 41.985722930258689 ], [ 45.398870457679237, 41.985711533144809 ], [ 45.398844711861578, 41.985686989361731 ], [ 45.398828830690867, 41.985671440485703 ], [ 45.398769097564276, 41.985583270071004 ], [ 45.398667117889126, 41.985433032787853 ], [ 45.398654242208899, 41.985439652367951 ], [ 45.398604375564261, 41.98545747859248 ], [ 45.398591381336352, 41.985445094509089 ], [ 45.398264947862764, 41.985133876210185 ], [ 45.397771510440265, 41.984717047117925 ], [ 45.397507925393036, 41.984494324528988 ], [ 45.396787870113798, 41.984187346387891 ], [ 45.396729166480455, 41.984162240531049 ], [ 45.396710768687079, 41.984154378239928 ], [ 45.396692975867872, 41.984146739022073 ], [ 45.396679299082052, 41.984140976979653 ], [ 45.396656629375698, 41.98414501824471 ], [ 45.395762257577665, 41.984304235604846 ], [ 45.395692680200987, 41.984316589415506 ], [ 45.395592595695696, 41.984334497348335 ], [ 45.395568491210689, 41.98434079500997 ], [ 45.395541253153596, 41.984347914063505 ], [ 45.395487378922994, 41.984361879877589 ], [ 45.395433602533743, 41.984372152594915 ], [ 45.394427218441145, 41.984563944171683 ], [ 45.394367231543121, 41.984575318527448 ], [ 45.394252382941964, 41.98459721642692 ], [ 45.394186190750403, 41.984600708646262 ], [ 45.394112575532816, 41.984604383927952 ], [ 45.394037822498916, 41.984599731898868 ], [ 45.394019768622073, 41.98459866803168 ], [ 45.393996400774562, 41.984597217099342 ], [ 45.393977139190987, 41.984596067303627 ], [ 45.393896649702413, 41.98459102956901 ], [ 45.393065443304025, 41.984796483581029 ], [ 45.392975530091327, 41.984819668340464 ], [ 45.392967033202453, 41.984821904060048 ], [ 45.392951184283945, 41.984826056345135 ], [ 45.392928883163101, 41.984831221445951 ], [ 45.392888981349699, 41.984840319647702 ], [ 45.391743727028974, 41.985106192395556 ], [ 45.391569230973374, 41.984752060058419 ], [ 45.391322240552775, 41.984288608429878 ], [ 45.391299037283595, 41.984245005171587 ], [ 45.39113704550801, 41.98394104168721 ], [ 45.390645106161813, 41.982989991029726 ], [ 45.39005895477932, 41.981829582870901 ], [ 45.389910427792515, 41.981544305650999 ], [ 45.38990432033399, 41.981532527650636 ], [ 45.389888625917699, 41.981502543693772 ], [ 45.389884105272301, 41.981493642438942 ], [ 45.389880868560418, 41.981487438825894 ], [ 45.389875128460687, 41.981476515210339 ], [ 45.389609709898046, 41.980966107349452 ], [ 45.389009824631927, 41.979803938667906 ], [ 45.388745105897996, 41.979287221602107 ], [ 45.388724034451428, 41.979246222500329 ], [ 45.388039905977017, 41.977911225200927 ], [ 45.387560743112985, 41.976981643036879 ], [ 45.387368429956524, 41.976607794255649 ], [ 45.387344605510577, 41.976560364391219 ], [ 45.387091639033677, 41.976056438070543 ], [ 45.387013036308559, 41.975907619945872 ], [ 45.387001829814565, 41.975885793998906 ], [ 45.386998103785814, 41.975878421078669 ], [ 45.386992604450619, 41.975867226295406 ], [ 45.386989186441582, 41.97586088810516 ], [ 45.386920241828903, 41.975727281167302 ], [ 45.386755422670539, 41.975407784013449 ], [ 45.386686540207315, 41.975274311814793 ], [ 45.386476338347933, 41.974874627451527 ], [ 45.386455825216267, 41.97483565252427 ], [ 45.386381647152454, 41.974694497238247 ], [ 45.386169114786455, 41.974278022642672 ], [ 45.38599682899774, 41.973940040687069 ], [ 45.385976981101201, 41.973901198531074 ], [ 45.38582833223569, 41.973609611335071 ], [ 45.385726062024844, 41.973402981314116 ], [ 45.385356946205086, 41.972657926700862 ], [ 45.38511701661254, 41.972159130747698 ], [ 45.385084555729939, 41.972089978189814 ], [ 45.386328893178103, 41.971717153815426 ], [ 45.386368202235744, 41.971706033368569 ], [ 45.386487679797206, 41.971669604453098 ], [ 45.386339358258432, 41.971351807231088 ], [ 45.385910791456517, 41.970434250852904 ], [ 45.385800803562347, 41.970167887316549 ], [ 45.385444938504762, 41.969305565900228 ], [ 45.385324972064751, 41.969014917278166 ], [ 45.385043815471541, 41.968361434110903 ], [ 45.385034994106633, 41.968339532392072 ], [ 45.385013369489457, 41.968285834940431 ], [ 45.385003016811673, 41.968260155541969 ], [ 45.384886258192836, 41.967970441351071 ], [ 45.384722699421545, 41.967564517341316 ], [ 45.384023962145513, 41.965681034178729 ], [ 45.384010591714052, 41.965645052101088 ], [ 45.383970927590184, 41.965651759654257 ], [ 45.382997005920799, 41.965850368093243 ], [ 45.38276023344423, 41.965891777934608 ], [ 45.382739135985112, 41.965895450949894 ], [ 45.382717194301591, 41.965899216842551 ], [ 45.382559506321961, 41.965926762494021 ], [ 45.381483175460836, 41.96611507138244 ], [ 45.381461596205305, 41.966118925897817 ], [ 45.381433981843699, 41.966122620326175 ], [ 45.381417343234276, 41.966125242514025 ], [ 45.38132691094107, 41.966138647663008 ], [ 45.380835802006651, 41.966211340661332 ], [ 45.380445312042426, 41.966238462027327 ], [ 45.380426356958331, 41.966196576135339 ], [ 45.380413609460234, 41.966173696324255 ], [ 45.380351582794574, 41.966062849224656 ], [ 45.380095547123702, 41.965604850830651 ], [ 45.379988440825905, 41.965411741447454 ], [ 45.379857834966614, 41.965183493509493 ], [ 45.379506537111155, 41.964513295736616 ], [ 45.379387099559672, 41.964275193000596 ], [ 45.379342282353655, 41.964084489057832 ], [ 45.379322441594518, 41.964045645655453 ], [ 45.379306019335736, 41.964013455915619 ], [ 45.379290513118505, 41.963983109521109 ], [ 45.379262796649577, 41.963928755563096 ], [ 45.378226947124453, 41.964081323757604 ], [ 45.378177932968669, 41.963914951276642 ], [ 45.378066242060882, 41.963536857440765 ], [ 45.377954180883215, 41.96315714348237 ], [ 45.377777965957343, 41.962560308702322 ], [ 45.377662369481946, 41.962168852273074 ], [ 45.377654707863897, 41.962143523597511 ], [ 45.377647075090707, 41.962117969658792 ], [ 45.377574024216564, 41.961875749386472 ], [ 45.377540669040826, 41.961765256717904 ], [ 45.377505405817423, 41.961648375549309 ], [ 45.377478819141245, 41.961560107169255 ], [ 45.377347429803969, 41.96112461444072 ], [ 45.377270442195247, 41.96086925707634 ], [ 45.37724253688765, 41.960751676126208 ], [ 45.377224656799648, 41.960717509382931 ], [ 45.377163671167587, 41.960515328999733 ], [ 45.377150009913855, 41.960470115165542 ], [ 45.377128655723006, 41.960399302512265 ], [ 45.377078720982304, 41.960280487899716 ], [ 45.377064278869994, 41.960246084669137 ], [ 45.377020769499374, 41.96014251529791 ], [ 45.376964654315515, 41.960008949921821 ], [ 45.376705192074283, 41.959391130617902 ], [ 45.376698767892847, 41.959376020422212 ], [ 45.376694117268435, 41.959364957426899 ], [ 45.376687447513127, 41.959349127499358 ], [ 45.37666456014302, 41.959294441787897 ], [ 45.376558702927809, 41.959309920304186 ], [ 45.376363748454082, 41.959338660493266 ], [ 45.374794660294747, 41.959583416984024 ], [ 45.374201984568472, 41.959675912697939 ], [ 45.374139476362025, 41.959490127839452 ], [ 45.374119704251704, 41.959431288381388 ], [ 45.373997516920603, 41.959068670980095 ], [ 45.373984868319305, 41.959031109161941 ], [ 45.373828177499952, 41.958566332723557 ], [ 45.373645298139046, 41.957935287272029 ], [ 45.373502506104572, 41.957442409148776 ], [ 45.373493991879663, 41.957420505498028 ], [ 45.373482293850564, 41.957390641261512 ], [ 45.373468880504312, 41.957356324279864 ], [ 45.373454852546665, 41.957320072852063 ], [ 45.373450502454169, 41.957308693508281 ], [ 45.373448052365063, 41.957302396777706 ], [ 45.373435187039121, 41.957268933646887 ], [ 45.373425632757879, 41.957244556526788 ], [ 45.373351637276713, 41.957053854825922 ], [ 45.373433102274234, 41.957035846655799 ], [ 45.373599709837123, 41.956989055151105 ], [ 45.373682047298551, 41.95696550483563 ], [ 45.373695413135458, 41.956950375085206 ], [ 45.373713635312576, 41.956930005631193 ], [ 45.373646199203911, 41.95667452447676 ], [ 45.373559511120376, 41.95634561111185 ], [ 45.373554450887248, 41.956326263137093 ], [ 45.373534345598159, 41.956230767294834 ], [ 45.373492764615094, 41.956094360753198 ], [ 45.373346200875851, 41.955543536319048 ], [ 45.373214641453664, 41.955113262822145 ], [ 45.373196558447887, 41.955054012365565 ], [ 45.373193600612012, 41.955043394052893 ], [ 45.373187921177994, 41.955010943295576 ], [ 45.373182049464042, 41.954976556718393 ], [ 45.373172244316883, 41.954919440962506 ], [ 45.373166809901846, 41.954887619877326 ], [ 45.372873999285638, 41.955038623128239 ], [ 45.372778626781198, 41.955092252598007 ], [ 45.372521133648888, 41.955237285902456 ], [ 45.372510299408411, 41.955241644279276 ], [ 45.372479241453966, 41.955254174313453 ], [ 45.372441108428731, 41.955232816998517 ], [ 45.372415807348332, 41.955218623422745 ], [ 45.372393018742898, 41.9549416506974 ], [ 45.372374379781114, 41.954714201447246 ], [ 45.372339069202745, 41.954576513171297 ], [ 45.372260801547448, 41.954272610069609 ], [ 45.372181392545741, 41.954052383022763 ], [ 45.372161870056338, 41.953983995237103 ], [ 45.372097157086259, 41.953790560508274 ], [ 45.372060364283399, 41.95368827333747 ], [ 45.372018886169485, 41.953558350703197 ], [ 45.372007395771284, 41.953522451119809 ], [ 45.371949327568707, 41.953356262608182 ], [ 45.371922331915947, 41.953252795288797 ], [ 45.371848004060617, 41.953065606177084 ], [ 45.37183854288709, 41.953036274907916 ], [ 45.371912573557978, 41.953006312945512 ], [ 45.371857931535331, 41.952926059912649 ], [ 45.371752710415315, 41.952758695501615 ], [ 45.371532040154726, 41.952407697305148 ], [ 45.371526924532354, 41.952399427674578 ], [ 45.371520225754132, 41.952388641284458 ], [ 45.371497695941521, 41.952352777363835 ], [ 45.371370462176024, 41.952363006306193 ], [ 45.371061405294753, 41.952416064406343 ], [ 45.370906495120316, 41.952137446621698 ], [ 45.37084108068747, 41.952019759924063 ], [ 45.370674392244929, 41.951696686634619 ], [ 45.370664813133018, 41.951688521441973 ], [ 45.370600334349177, 41.951560361260434 ], [ 45.370503474298971, 41.951372185656503 ], [ 45.370504426104766, 41.951224021974788 ], [ 45.37050460690773, 41.951213573591311 ], [ 45.37050462481082, 41.951195830286906 ], [ 45.37050348475276, 41.951019797538891 ], [ 45.370506036092046, 41.951002001024889 ], [ 45.37004002821169, 41.950577801039962 ], [ 45.369529809610412, 41.950143563827694 ], [ 45.369529225970538, 41.950042510240152 ], [ 45.369393358316188, 41.949967155847752 ], [ 45.369316863302309, 41.949904219745221 ], [ 45.369357911402524, 41.949689322307357 ], [ 45.369509100658767, 41.949492984558198 ], [ 45.36971046188161, 41.949189124868312 ], [ 45.369734885780467, 41.949031158285479 ], [ 45.369733936747735, 41.948866923660248 ], [ 45.369893847792653, 41.948708475617678 ], [ 45.370232398011957, 41.94868865043334 ], [ 45.370623228451549, 41.948394355589976 ], [ 45.370743469808552, 41.947761695008523 ], [ 45.370409567525058, 41.947176749816776 ], [ 45.369805424608067, 41.946299640297632 ], [ 45.369182031722602, 41.945669328806623 ], [ 45.36868453603276, 41.945362491802719 ], [ 45.367980209645381, 41.945025467625179 ], [ 45.367648561878312, 41.944826040151419 ], [ 45.367214798584477, 41.944827428263757 ], [ 45.366739302220218, 41.944767296947226 ], [ 45.366614283769998, 41.944582607803405 ], [ 45.36620018080459, 41.944414287446683 ], [ 45.365847824333308, 41.944199519272431 ], [ 45.365287671161838, 41.943784921347209 ], [ 45.365018486008744, 41.943662385147398 ], [ 45.36468609130317, 41.943339604167114 ], [ 45.364416848852308, 41.943217066726909 ], [ 45.364191207561021, 41.943495370303999 ], [ 45.364171368229343, 41.94363422704587 ], [ 45.363819839098674, 41.943573645323248 ], [ 45.363571549731851, 41.943497334138023 ], [ 45.363220109575835, 41.943452196849179 ], [ 45.362972783278359, 41.943545478180233 ], [ 45.363201055836996, 41.943729844754927 ], [ 45.363510916057322, 41.943728864155808 ], [ 45.363925095152318, 41.94391259551881 ], [ 45.363926059843884, 41.944082234337309 ], [ 45.363741557175402, 41.944329558521851 ], [ 45.363495044285465, 41.944577123767125 ], [ 45.363330204945356, 41.944654743162914 ], [ 45.363204556797982, 41.944346705043102 ], [ 45.363037443007009, 41.94402335133254 ], [ 45.362851100943317, 41.943946842709387 ], [ 45.362686000324871, 41.943978212422849 ], [ 45.362688097978861, 41.944348337615381 ], [ 45.362813541760779, 41.944610127362154 ], [ 45.363167088477738, 41.945025390991596 ], [ 45.363478969542442, 41.945379089280912 ], [ 45.363768585947192, 41.945455269708312 ], [ 45.364059256012588, 41.945716534438731 ], [ 45.364080735826676, 41.945855260089843 ], [ 45.363646905062467, 41.945856634941812 ], [ 45.363275084566993, 41.945857811972658 ], [ 45.362943009767434, 41.945581274637505 ], [ 45.362611287432316, 41.945366431342777 ], [ 45.362094209561889, 41.945260117493788 ], [ 45.361534759134393, 41.945106063948693 ], [ 45.361375030169867, 41.945106566792674 ], [ 45.361136541856304, 41.945345905564643 ], [ 45.361019436681197, 41.945823450608472 ], [ 45.360902281781058, 41.946271093297469 ], [ 45.360882182409597, 41.946476919788289 ], [ 45.360257978013045, 41.946582498005569 ], [ 45.360038955475211, 41.946669925261503 ], [ 45.358340104273552, 41.944154744898285 ], [ 45.356488939282947, 41.942100801441711 ], [ 45.35402038257569, 41.937246688974327 ], [ 45.353699156265527, 41.93661495487865 ], [ 45.353180608868776, 41.936401695073904 ], [ 45.345402105217197, 41.933205804061146 ], [ 45.322841106489264, 41.943338665874961 ], [ 45.291292888188622, 41.946945717800922 ], [ 45.270994036955543, 41.956470205292732 ], [ 45.258657518715907, 41.964272830971282 ], [ 45.24402799348487, 41.96916370963671 ], [ 45.240286593193545, 41.969778956771336 ], [ 45.235734396105165, 41.9712460492754 ], [ 45.194750742782212, 41.982984112529451 ], [ 45.188573847095256, 41.986274140487374 ], [ 45.183538856376124, 41.990533781944656 ], [ 45.173957050479743, 41.999659006688887 ], [ 45.169730770550132, 42.002580628452215 ], [ 45.162420534825628, 42.009757964805537 ], [ 45.159825817078634, 42.014256010976958 ], [ 45.158537521940431, 42.020209841625586 ], [ 45.158227683674177, 42.02664818735844 ], [ 45.158068679885965, 42.028227517461801 ], [ 45.157422693274462, 42.030536335753695 ], [ 45.159386303228793, 42.033934785176989 ], [ 45.158582499671702, 42.038308814390319 ], [ 45.159247022518493, 42.043409625126785 ], [ 45.159584491639265, 42.048025004231974 ], [ 45.160733860306266, 42.051424548352387 ], [ 45.160739679210806, 42.053732461332508 ], [ 45.161890140028177, 42.057496398475791 ], [ 45.16206456320981, 42.061990518954737 ], [ 45.161100955572834, 42.067700931645284 ], [ 45.160619854354586, 42.070859804894738 ], [ 45.159164730170772, 42.075720595897884 ], [ 45.159010785948951, 42.079364878715595 ], [ 45.160159472702887, 42.082278536147847 ], [ 45.161467635404946, 42.083734329407307 ], [ 45.164733277313957, 42.085430252727051 ], [ 45.168651375924625, 42.08712512466353 ], [ 45.170772271882477, 42.087486394948108 ], [ 45.174196111674767, 42.087238311395168 ], [ 45.177453808118329, 42.085897163249911 ], [ 45.181853161615749, 42.08467558821112 ], [ 45.185602225244544, 42.084183710849238 ], [ 45.19065899866542, 42.08478276478187 ], [ 45.193927317308862, 42.087085195648626 ], [ 45.197036555726619, 42.090602492564521 ], [ 45.201134646967731, 42.097276157668773 ], [ 45.201960535979936, 42.100554357929688 ], [ 45.203275461730222, 42.103710215348023 ], [ 45.205728438573573, 42.105649338758973 ], [ 45.211943909003274, 42.1107396965444 ], [ 45.213745286176071, 42.11280131538269 ], [ 45.216369923439473, 42.117047782010289 ], [ 45.219160582035308, 42.122022677238348 ], [ 45.223576142162123, 42.12492938975695 ], [ 45.230603779852437, 42.128073647490751 ], [ 45.238936662838931, 42.130971826609006 ], [ 45.249705745059387, 42.130705960466223 ], [ 45.261616497207847, 42.130315018030664 ], [ 45.27173160545977, 42.129805638369696 ], [ 45.281193835328708, 42.129296968869319 ], [ 45.29407642958877, 42.127442657828524 ], [ 45.300110375551427, 42.126698227938803 ], [ 45.310054895390216, 42.124849769514519 ], [ 45.318702067667424, 42.124704609603093 ], [ 45.321474034552978, 42.124332473947845 ], [ 45.330455007013008, 42.125643107381933 ], [ 45.338618551936676, 42.126591048783659 ], [ 45.344496608877876, 42.127302358097594 ], [ 45.358548523234006, 42.130660405602768 ], [ 45.363945277427696, 42.13270836491715 ], [ 45.36983406915364, 42.135118886722871 ], [ 45.372943251395881, 42.1365664333224 ], [ 45.376204989948675, 42.136191383088487 ], [ 45.384184592754693, 42.133371188552722 ], [ 45.386095560553343, 42.132637368351467 ], [ 45.389107147668284, 42.128102940778078 ], [ 45.390343211057719, 42.126708597569426 ] ] ] ] } }
]
}
