{
"type": "FeatureCollection",
"name": "ახოები",
"crs": { "type": "name", "properties": { "name": "urn:ogc:def:crs:OGC:1.3:CRS84" } },
"features": [
{ "type": "Feature", "properties": { "OBJECTID": 24, "NAME_GEO": "ახოები", "NAME_ENG": "Akhoebi", "Location": "Kakheti", "MoreInfo": "https://www.sakpatenti.gov.ge/media/django-summernote/2025-11-19/766b6568-6568-472c-b262-1e2c98453994.pdf" }, "geometry": { "type": "MultiPolygon", "coordinates": [ [ [ [ 45.884592639316679, 41.67168327528811 ], [ 45.884560787267553, 41.671787281751293 ], [ 45.884544058703511, 41.671903511475485 ], [ 45.884538083171392, 41.671945260141861 ], [ 45.884483810634521, 41.672127079968668 ], [ 45.884477204675974, 41.672149108027227 ], [ 45.884480877978731, 41.672162950625477 ], [ 45.884492911244536, 41.672208298619701 ], [ 45.884394189823226, 41.672486655835669 ], [ 45.884320518851119, 41.672681910252315 ], [ 45.88431612574427, 41.672703245743513 ], [ 45.884311735100113, 41.672724761356655 ], [ 45.884280866353272, 41.67281290774099 ], [ 45.884276935144825, 41.672824106738211 ], [ 45.884232351285611, 41.67302490179776 ], [ 45.884227185699942, 41.673051242143679 ], [ 45.884221004975949, 41.673082409074297 ], [ 45.884194226247899, 41.673179756194905 ], [ 45.884179765829565, 41.673211617316205 ], [ 45.884123033592587, 41.673367470506548 ], [ 45.884093585229934, 41.673418992225812 ], [ 45.884079330729968, 41.67344396135212 ], [ 45.88407837539566, 41.673461937776118 ], [ 45.884077473959046, 41.673479463432699 ], [ 45.884001817034168, 41.67357362870154 ], [ 45.883949477845746, 41.673664281965571 ], [ 45.88393753082368, 41.673699861650412 ], [ 45.883937127651286, 41.673701125739015 ], [ 45.883932220895055, 41.673715664836465 ], [ 45.883927084984471, 41.673731016331104 ], [ 45.883882529028362, 41.673771530475761 ], [ 45.883845288399684, 41.673806719217744 ], [ 45.883761708898227, 41.67389261372751 ], [ 45.883683165358953, 41.67397342550332 ], [ 45.88357411521779, 41.674085546105509 ], [ 45.88354303822905, 41.674061961366846 ], [ 45.883534266226611, 41.674070585506243 ], [ 45.883525909105686, 41.674078801137988 ], [ 45.883499889071651, 41.674104356027932 ], [ 45.883381883520656, 41.674202944638807 ], [ 45.883257629471636, 41.674292664166366 ], [ 45.883232606951964, 41.674347259078303 ], [ 45.883198191053758, 41.674373824163325 ], [ 45.88316645018044, 41.674398342094342 ], [ 45.883067268294461, 41.674472286538702 ], [ 45.883039916464277, 41.674492717535948 ], [ 45.882967029292161, 41.674530431639205 ], [ 45.882902670501934, 41.674563666722399 ], [ 45.88281847820145, 41.674613672138165 ], [ 45.882724334876556, 41.674669563473657 ], [ 45.882630131326692, 41.674725455194363 ], [ 45.882623838399816, 41.674726494299463 ], [ 45.882612510761781, 41.674728337669414 ], [ 45.882422965535824, 41.674800813799607 ], [ 45.882391630042981, 41.674828661013073 ], [ 45.88237103775252, 41.674847058399713 ], [ 45.882098216942076, 41.674962011092092 ], [ 45.882041648128144, 41.674980729580788 ], [ 45.881966244036562, 41.675005762420042 ], [ 45.881731159184177, 41.675090971577461 ], [ 45.881707203875287, 41.675096244348502 ], [ 45.881682588496012, 41.675101567213687 ], [ 45.881587342497149, 41.675134002702023 ], [ 45.881518322892433, 41.675155923874442 ], [ 45.881451037664654, 41.675177291280079 ], [ 45.881425857248445, 41.675185230469438 ], [ 45.881337271446966, 41.675208337405216 ], [ 45.881202237147079, 41.675243509596982 ], [ 45.881092916639211, 41.675279024919163 ], [ 45.881010806975425, 41.675305729809899 ], [ 45.881002288231819, 41.67529332034448 ], [ 45.880884374230376, 41.675324172641119 ], [ 45.880798482853415, 41.675346673051095 ], [ 45.880794934674206, 41.675337558085374 ], [ 45.880542623908021, 41.675423977676445 ], [ 45.880520958630171, 41.675425404656941 ], [ 45.880499532986455, 41.675426784762152 ], [ 45.88036351252731, 41.675477815937725 ], [ 45.880329333786364, 41.675499874818762 ], [ 45.880285435535242, 41.675496338035941 ], [ 45.880108722304264, 41.675532233495744 ], [ 45.879946410743422, 41.675602335289 ], [ 45.879889261005481, 41.67562700182134 ], [ 45.879846682436479, 41.675645386941568 ], [ 45.879750178358975, 41.675687017733146 ], [ 45.879723186490871, 41.675698708342956 ], [ 45.879688345983141, 41.675703073239738 ], [ 45.879650867012622, 41.675707773567773 ], [ 45.879579597566185, 41.675749841559856 ], [ 45.879521497018558, 41.675784107697496 ], [ 45.879335600979452, 41.675838311526114 ], [ 45.879192460666935, 41.675913624763574 ], [ 45.879156794436163, 41.675932362065353 ], [ 45.879016258369631, 41.676040170621206 ], [ 45.878997141161278, 41.676061123129919 ], [ 45.878974415250774, 41.67608615640912 ], [ 45.878929605650029, 41.676143693895803 ], [ 45.878866379186995, 41.676225105787417 ], [ 45.878840927002457, 41.676257275459534 ], [ 45.878810478477448, 41.676297499608339 ], [ 45.878757228997493, 41.676370503623062 ], [ 45.878697916724519, 41.67643941072339 ], [ 45.878645027075535, 41.676477059254331 ], [ 45.878559595099752, 41.676537924520488 ], [ 45.878466343704282, 41.676598038858238 ], [ 45.878310489777633, 41.676683941387417 ], [ 45.87823799976875, 41.676737997251259 ], [ 45.878066387042807, 41.676826857094241 ], [ 45.877799859649883, 41.676950803577917 ], [ 45.877559213335353, 41.677069733048128 ], [ 45.877527841335407, 41.677081861904924 ], [ 45.877498441030774, 41.677093210099187 ], [ 45.877319759485978, 41.677165955141213 ], [ 45.877163214707181, 41.677241007888803 ], [ 45.877076770346299, 41.677280578100152 ], [ 45.877035696980172, 41.677299356007445 ], [ 45.876905773232281, 41.677379609477349 ], [ 45.876787621411871, 41.677468599900358 ], [ 45.876855541014123, 41.677573329099737 ], [ 45.876756714144747, 41.677532695685422 ], [ 45.876581768301655, 41.677628559199967 ], [ 45.87657120606886, 41.677616029890572 ], [ 45.876436835775444, 41.677709557108194 ], [ 45.876284191432127, 41.677802187694844 ], [ 45.876143480984872, 41.677884504097136 ], [ 45.876093356116755, 41.677918032164094 ], [ 45.87592312947838, 41.678025387722919 ], [ 45.875804096969716, 41.678111636691895 ], [ 45.875602078767123, 41.678257919322313 ], [ 45.875591802410092, 41.678275336187973 ], [ 45.875580883034552, 41.678294063973894 ], [ 45.875430270808948, 41.678399422915881 ], [ 45.875227155255921, 41.678571248228799 ], [ 45.875205053554687, 41.678593754028824 ], [ 45.875154272605798, 41.67865430782976 ], [ 45.875124698345402, 41.678675069107541 ], [ 45.875070923749178, 41.678736366230893 ], [ 45.875063407231536, 41.678771280745522 ], [ 45.875014246956511, 41.678787417388925 ], [ 45.874946182740409, 41.678867017490418 ], [ 45.874871858117608, 41.678945674433301 ], [ 45.874778377300231, 41.679069197140571 ], [ 45.87469831001571, 41.679189600318118 ], [ 45.874586012904672, 41.679334342569852 ], [ 45.874573629479158, 41.679378075959576 ], [ 45.874548054422327, 41.67940141869763 ], [ 45.87452135211506, 41.679425805818397 ], [ 45.874458495662324, 41.679490819612681 ], [ 45.874416565199915, 41.679575129381043 ], [ 45.874333392171984, 41.679679208134125 ], [ 45.874249804603153, 41.679814814647983 ], [ 45.874043542068598, 41.680077107855247 ], [ 45.870893838094588, 41.677973944112232 ], [ 45.87064256496604, 41.678125725306771 ], [ 45.87034800502672, 41.678319536425789 ], [ 45.86998840221149, 41.678411969430698 ], [ 45.86995626239846, 41.678429686405991 ], [ 45.869929011526821, 41.678444664249966 ], [ 45.869727833339198, 41.678560711557388 ], [ 45.869644798936228, 41.678608626933304 ], [ 45.869064626748425, 41.678943349270639 ], [ 45.86901479291015, 41.678972053279679 ], [ 45.86874249798776, 41.67912916832055 ], [ 45.867688000804279, 41.679594692838123 ], [ 45.86768489550392, 41.679596067340846 ], [ 45.867358697502212, 41.679202039308294 ], [ 45.867004059665646, 41.679347296895607 ], [ 45.867179618496188, 41.679582047127653 ], [ 45.867026206320077, 41.679663547508149 ], [ 45.867207711887282, 41.67990266627308 ], [ 45.867125655358677, 41.67999236515768 ], [ 45.867463989593496, 41.680399722691583 ], [ 45.867334299354937, 41.680480819240159 ], [ 45.867522175849032, 41.680755692404915 ], [ 45.867744895956861, 41.68095896633973 ], [ 45.867650874287953, 41.680962963793441 ], [ 45.867489488826394, 41.680969856544799 ], [ 45.867403073905358, 41.680945334104152 ], [ 45.867326548828132, 41.680923619216017 ], [ 45.867244896898704, 41.680900366731834 ], [ 45.867006937030816, 41.680447756570551 ], [ 45.866987412495071, 41.680429799696022 ], [ 45.86674211567675, 41.680204627266733 ], [ 45.866656819160433, 41.680178294414219 ], [ 45.866413961232958, 41.680103430544278 ], [ 45.866218203648771, 41.68013179223562 ], [ 45.866100725459489, 41.68018289194557 ], [ 45.86608830461077, 41.680188434816898 ], [ 45.866042295164597, 41.680179954633083 ], [ 45.86598195298545, 41.680168835281869 ], [ 45.865879695628095, 41.680149925364724 ], [ 45.865767288345999, 41.680234267577781 ], [ 45.865744688048331, 41.680251235979938 ], [ 45.865729700259955, 41.680262472591096 ], [ 45.865791407206395, 41.680420216562958 ], [ 45.865492863848949, 41.680547257947545 ], [ 45.865330135484676, 41.680606308595031 ], [ 45.865122319070728, 41.680393820638997 ], [ 45.865024201762118, 41.680392487578658 ], [ 45.864932089356536, 41.680390974135442 ], [ 45.864852495000427, 41.680449488473776 ], [ 45.864775875228119, 41.680487894652693 ], [ 45.864677085718768, 41.680575465935767 ], [ 45.864504975224932, 41.680687637528024 ], [ 45.864359393696759, 41.680775650585282 ], [ 45.864296889734803, 41.680800529772604 ], [ 45.864378895624853, 41.680908673132372 ], [ 45.864396200903158, 41.680931420878004 ], [ 45.864396873097405, 41.680932271491805 ], [ 45.864415707199541, 41.680957034321466 ], [ 45.86464477882808, 41.681258488369203 ], [ 45.864678617112688, 41.681300116553821 ], [ 45.864819044375473, 41.681473166150653 ], [ 45.864857765149509, 41.681524980538697 ], [ 45.864898008562676, 41.681573856163354 ], [ 45.86490661808137, 41.681584239545003 ], [ 45.864917855160954, 41.681597935758738 ], [ 45.864933182549208, 41.681616510028356 ], [ 45.864950343353129, 41.681637412329501 ], [ 45.864985945727483, 41.681680648411685 ], [ 45.864992907497538, 41.681689107673257 ], [ 45.865009273580746, 41.681708980136378 ], [ 45.865125301614142, 41.68184983265305 ], [ 45.865215987260797, 41.681959936636197 ], [ 45.865238750827672, 41.681990974675067 ], [ 45.865275038740357, 41.682040510436117 ], [ 45.865290215090624, 41.68206124748481 ], [ 45.865300617407634, 41.682075400297173 ], [ 45.86531163248241, 41.682090449199549 ], [ 45.865412785655515, 41.682228486122455 ], [ 45.865446931601966, 41.682275065630918 ], [ 45.865752706533321, 41.682592782908813 ], [ 45.865819213588118, 41.682669247081677 ], [ 45.865856675644253, 41.682712198662131 ], [ 45.865921901566814, 41.682787186263219 ], [ 45.865995058631619, 41.682871211178096 ], [ 45.866012692218455, 41.682891479258927 ], [ 45.866136943446442, 41.683009075607849 ], [ 45.866161516001121, 41.683049512185512 ], [ 45.866166861632031, 41.683058388871046 ], [ 45.866168213359352, 41.683060630444544 ], [ 45.866169933959327, 41.683063499731034 ], [ 45.866178595219274, 41.683077710618292 ], [ 45.866185046869518, 41.683088425411157 ], [ 45.866199483322745, 41.68311218527181 ], [ 45.866202554447312, 41.683117206069483 ], [ 45.866214470076962, 41.683136661546399 ], [ 45.866223717832931, 41.683145328676517 ], [ 45.866512536991316, 41.683416605249391 ], [ 45.866592209450829, 41.683430911155106 ], [ 45.86671349419521, 41.683452649244366 ], [ 45.866934743547652, 41.683492142630591 ], [ 45.867198645610891, 41.683576258895769 ], [ 45.86731545399919, 41.68361356727776 ], [ 45.867790265079918, 41.683825881772627 ], [ 45.868231563300228, 41.684128067564593 ], [ 45.868274327263762, 41.684154090079574 ], [ 45.868318181008341, 41.684180734837405 ], [ 45.869099755585822, 41.68470133352367 ], [ 45.869191921342981, 41.684634930110775 ], [ 45.869275477555846, 41.684683206358777 ], [ 45.869372682474022, 41.684754617463803 ], [ 45.869935446227664, 41.685144146704111 ], [ 45.86999340470917, 41.685191985697003 ], [ 45.869964084235171, 41.685231928709044 ], [ 45.869963437401076, 41.685232969415324 ], [ 45.869962730495438, 41.685234010576345 ], [ 45.869864386664588, 41.685376976176762 ], [ 45.869862734986654, 41.685379240438806 ], [ 45.869761493293517, 41.685525650558311 ], [ 45.86976084281428, 41.685526421079771 ], [ 45.869759960538829, 41.685527823848382 ], [ 45.869725366730108, 41.685577714452414 ], [ 45.86964817847057, 41.685676745538146 ], [ 45.86964735141121, 41.685677787606409 ], [ 45.869646525564676, 41.685678919735885 ], [ 45.869486894024334, 41.685888325340521 ], [ 45.869485945602797, 41.685889278255381 ], [ 45.869484935896466, 41.685890141563547 ], [ 45.86944563801449, 41.685925341160825 ], [ 45.869408420739219, 41.685963362221926 ], [ 45.869263257454733, 41.686073895859501 ], [ 45.86926194616867, 41.686074671376424 ], [ 45.869260572991763, 41.686075312255859 ], [ 45.869181539711789, 41.686113244212223 ], [ 45.869183974729552, 41.686115612661119 ], [ 45.869182780555825, 41.686116162115376 ], [ 45.869181645242229, 41.686116621054047 ], [ 45.869112725165841, 41.686160511190579 ], [ 45.869185960013638, 41.686205082587001 ], [ 45.869188564948452, 41.686206684152253 ], [ 45.869230120141061, 41.686232039913065 ], [ 45.869347935762512, 41.686361570666925 ], [ 45.8695543181665, 41.686518623221971 ], [ 45.869731142086884, 41.686675628892836 ], [ 45.869975869920829, 41.686860402361653 ], [ 45.870172431361006, 41.687019599751764 ], [ 45.870562248658075, 41.687306493913283 ], [ 45.870713080842528, 41.687433656465188 ], [ 45.870835473636454, 41.687536895463587 ], [ 45.870949606294985, 41.687633486687609 ], [ 45.871299551868461, 41.687916987586895 ], [ 45.871471868775586, 41.688082221099187 ], [ 45.871540294253371, 41.688184157228378 ], [ 45.871648937346905, 41.688301190310867 ], [ 45.871814231160677, 41.688422252018583 ], [ 45.872023291237518, 41.688536406256397 ], [ 45.872050381880392, 41.688558222889469 ], [ 45.872105777485679, 41.68860279265958 ], [ 45.8722060896107, 41.688610002595837 ], [ 45.872291388391901, 41.688684428814639 ], [ 45.87240895592474, 41.688790359805914 ], [ 45.872584281901176, 41.688879999750711 ], [ 45.872679840445578, 41.688926651142324 ], [ 45.87287706231983, 41.689071517623574 ], [ 45.873010377702236, 41.689173365280126 ], [ 45.873095524505693, 41.689231984701223 ], [ 45.873130158085488, 41.689256175667957 ], [ 45.873218054167801, 41.689318151746427 ], [ 45.873276727575764, 41.68936508290092 ], [ 45.873371807363867, 41.689376249635878 ], [ 45.873477894548948, 41.689414984221671 ], [ 45.873583821018372, 41.689441830646373 ], [ 45.873705869132706, 41.689492332974226 ], [ 45.873843938249294, 41.689554602634203 ], [ 45.873892485155849, 41.689572427683927 ], [ 45.873943566231311, 41.689591044074199 ], [ 45.873971099633884, 41.689601102702809 ], [ 45.874035621149154, 41.689627272814349 ], [ 45.874066554168188, 41.689639917603387 ], [ 45.87419368792159, 41.689666602161736 ], [ 45.874341835407371, 41.68970105289192 ], [ 45.874431788986001, 41.689724056962334 ], [ 45.874489104172795, 41.689741589864418 ], [ 45.874530732019359, 41.689754243214942 ], [ 45.874560024557624, 41.689778834672957 ], [ 45.874781769465571, 41.689879556903961 ], [ 45.874992600106879, 41.689972885968139 ], [ 45.875064892136329, 41.690013767866908 ], [ 45.875236752429409, 41.69009100041675 ], [ 45.875452588297499, 41.690176724603667 ], [ 45.875615763943657, 41.690247042291908 ], [ 45.875783771253396, 41.690328041293256 ], [ 45.875956463095946, 41.690408869234474 ], [ 45.876205767373101, 41.690503479021913 ], [ 45.876393060603313, 41.690584330078522 ], [ 45.876603880107254, 41.690672071891342 ], [ 45.87675751661741, 41.69073881286365 ], [ 45.8769588555434, 41.690822978503469 ], [ 45.877102638872934, 41.690872005316074 ], [ 45.877226976022293, 41.690896005740562 ], [ 45.877337383151001, 41.690956050428738 ], [ 45.877481407574059, 41.691022773738574 ], [ 45.877658981927702, 41.691100049080447 ], [ 45.87793727799361, 41.691223121059494 ], [ 45.878109829128228, 41.691293228451478 ], [ 45.878225064840329, 41.691345939689946 ], [ 45.878326003610127, 41.691398850154599 ], [ 45.878474743556311, 41.69147638963944 ], [ 45.878613915709103, 41.691539590834658 ], [ 45.878734105543494, 41.691603072116372 ], [ 45.87884458516109, 41.691659421907666 ], [ 45.878954724118778, 41.691690734657804 ], [ 45.879046099453227, 41.691747230370858 ], [ 45.879180759040445, 41.691831947154668 ], [ 45.879277135996745, 41.691902725591937 ], [ 45.879411651455634, 41.691976814911278 ], [ 45.879551118216554, 41.692061494468966 ], [ 45.879613582325504, 41.692103889824416 ], [ 45.879714497531054, 41.692146080875105 ], [ 45.879839070093553, 41.692191513384422 ], [ 45.87995405478047, 41.692229993693033 ], [ 45.880155599521011, 41.692328608394753 ], [ 45.88032354093226, 41.692395144932803 ], [ 45.880443419813403, 41.692444395689868 ], [ 45.880591990639537, 41.692500361876228 ], [ 45.880798267007343, 41.692584527942238 ], [ 45.88102836222442, 41.692679319461504 ], [ 45.881172297148943, 41.692738923244967 ], [ 45.88122073565421, 41.692757286432503 ], [ 45.881311330172451, 41.692791538959341 ], [ 45.881426474001749, 41.692837132116772 ], [ 45.881565604592481, 41.692896862323984 ], [ 45.881652470337066, 41.692974827260251 ], [ 45.88168936773404, 41.693045609611573 ], [ 45.88170639468035, 41.693078084407382 ], [ 45.881740775042182, 41.69314933640382 ], [ 45.881747686745442, 41.693153876954774 ], [ 45.881796622935198, 41.693186647319507 ], [ 45.881991539117685, 41.69326144101813 ], [ 45.882282409681309, 41.693371255625706 ], [ 45.882585831326345, 41.693476109306118 ], [ 45.882758546860487, 41.693548640301394 ], [ 45.883084418090682, 41.693660525826424 ], [ 45.88337529227546, 41.693770337624507 ], [ 45.883624505572584, 41.693856555379263 ], [ 45.883822680061996, 41.693940823310854 ], [ 45.884151990192294, 41.694062226789384 ], [ 45.884652607936488, 41.694262653342996 ], [ 45.88484082133747, 41.694389166169131 ], [ 45.886258318023252, 41.692991280281255 ], [ 45.886375978458275, 41.692834776463677 ], [ 45.886527597828255, 41.692631083053421 ], [ 45.886586686326176, 41.692556104881142 ], [ 45.886745632150678, 41.692354415460393 ], [ 45.88706534771044, 41.692026974511947 ], [ 45.887083713178598, 41.692008099033067 ], [ 45.887317918825296, 41.691838368419177 ], [ 45.887356064569893, 41.69181072314413 ], [ 45.887727913818097, 41.691482338245983 ], [ 45.887971350476683, 41.691288652852812 ], [ 45.888014958185707, 41.691243956284026 ], [ 45.888069640469993, 41.691235697610566 ], [ 45.888147298051202, 41.691220326839719 ], [ 45.888250278120701, 41.691141709303665 ], [ 45.888417755210043, 41.69104295775972 ], [ 45.888598380562549, 41.690939333282159 ], [ 45.888772327514161, 41.690830804503911 ], [ 45.88884983799506, 41.690796067486318 ], [ 45.888901059465702, 41.690737304861941 ], [ 45.888989224754397, 41.690699594979542 ], [ 45.888989479203779, 41.690699485827565 ], [ 45.889063598004348, 41.69068584233969 ], [ 45.889197004703277, 41.690658118746839 ], [ 45.889485184839927, 41.690528916503311 ], [ 45.889763656751214, 41.690396738022685 ], [ 45.889954804636695, 41.690314041532297 ], [ 45.890164215838197, 41.690227771580197 ], [ 45.890292706872295, 41.690175682052278 ], [ 45.890355342865909, 41.690143548794211 ], [ 45.890420458119962, 41.69010682162272 ], [ 45.890533959116894, 41.68996628006299 ], [ 45.890498155288469, 41.689901562794056 ], [ 45.890446949529391, 41.689819636233416 ], [ 45.89041570746415, 41.689793532748702 ], [ 45.890331603723219, 41.689776890873148 ], [ 45.890250624588191, 41.689742841165646 ], [ 45.890169409437995, 41.689704740066098 ], [ 45.89009137568776, 41.689679494318547 ], [ 45.890016312025402, 41.68966485380917 ], [ 45.889926595462143, 41.689624566620239 ], [ 45.889799242119665, 41.689582409093809 ], [ 45.8896483170601, 41.689486481804622 ], [ 45.889485320167914, 41.689377767700229 ], [ 45.889347503206899, 41.689265075548128 ], [ 45.889164221801586, 41.689079417784903 ], [ 45.888988648464782, 41.688816419775584 ], [ 45.88883100031309, 41.68859849813888 ], [ 45.888715271883456, 41.688309456840976 ], [ 45.888712526552382, 41.688136182791574 ], [ 45.888712514776742, 41.688135327214653 ], [ 45.888667624503846, 41.687981789223194 ], [ 45.888667372433787, 41.68798093550442 ], [ 45.888614649703456, 41.687878167643944 ], [ 45.888593840508712, 41.687627752919298 ], [ 45.888593768041744, 41.687626852776418 ], [ 45.888531330020299, 41.687446744548048 ], [ 45.888519838070714, 41.687266512607742 ], [ 45.888449207280793, 41.687106598384034 ], [ 45.888448897002952, 41.687105880220152 ], [ 45.888344841516812, 41.686996843853919 ], [ 45.888342984450588, 41.686901158480943 ], [ 45.888342972680363, 41.68690030290378 ], [ 45.888358094326925, 41.686759225938879 ], [ 45.888358260916, 41.686758233877434 ], [ 45.888321135291974, 41.686553205525527 ], [ 45.888321002138362, 41.686552260816256 ], [ 45.888238811121944, 41.686211349375263 ], [ 45.888088918816763, 41.68591018669261 ], [ 45.888088547857755, 41.685909423961348 ], [ 45.888017584662776, 41.685729516380711 ], [ 45.888015196257939, 41.685577676220774 ], [ 45.888014487235786, 41.685530484833592 ], [ 45.888014475470477, 41.685529629256138 ], [ 45.887951609621332, 41.685318134426872 ], [ 45.887951356333375, 41.685317190645151 ], [ 45.887889264884336, 41.685144510115727 ], [ 45.88788895400338, 41.685143746919536 ], [ 45.887868677356607, 41.684944893108721 ], [ 45.887868605522506, 41.684944037995237 ], [ 45.887779825584921, 41.684713468195206 ], [ 45.887779513469319, 41.684712614937808 ], [ 45.887700520709288, 41.68457775929911 ], [ 45.887654067524267, 41.684327632405072 ], [ 45.887653935004494, 41.684326732724912 ], [ 45.88761752057048, 41.684173173780792 ], [ 45.887617327981332, 41.68417227456451 ], [ 45.887442247445904, 41.68393494018445 ], [ 45.887423607813332, 41.683820109277335 ], [ 45.887423474679153, 41.683819164566366 ], [ 45.88746392199625, 41.683658571978782 ], [ 45.887464150518092, 41.683657714545404 ], [ 45.887529480702952, 41.683432394342312 ], [ 45.887529769292719, 41.683431536444878 ], [ 45.887535987238238, 41.683320071352547 ], [ 45.887536034311935, 41.683319125249881 ], [ 45.887493173014967, 41.683216595868707 ], [ 45.88749188332195, 41.683131489307229 ], [ 45.887491872183361, 41.68313067875971 ], [ 45.887531227206189, 41.68296496055352 ], [ 45.887535969624771, 41.682894759089606 ], [ 45.887540768390338, 41.682824286978338 ], [ 45.887538458759529, 41.68273490994472 ], [ 45.887533283561808, 41.68254192904309 ], [ 45.887533273660587, 41.68254120855633 ], [ 45.887515932296125, 41.682118642066079 ], [ 45.88751591992002, 41.682117741457567 ], [ 45.88753018872152, 41.681765906305841 ], [ 45.887514210470179, 41.68142065468777 ], [ 45.887514198713191, 41.68141979910957 ], [ 45.887508843467657, 41.681235556384649 ], [ 45.887506648357977, 41.681163246786895 ], [ 45.887506638457523, 41.681162526299957 ], [ 45.887498637858684, 41.680860086559377 ], [ 45.887498623627067, 41.680859050859347 ], [ 45.887503059176382, 41.68063974014396 ], [ 45.887503046182339, 41.680638794504773 ], [ 45.887508116845837, 41.680439474512859 ], [ 45.887508106326862, 41.680438708995375 ], [ 45.887508502858275, 41.680187769696651 ], [ 45.887508489245597, 41.68018677902694 ], [ 45.887525204341543, 41.680021730966928 ], [ 45.887525309623925, 41.680020649308567 ], [ 45.887534750165678, 41.67988141756851 ], [ 45.887534796619008, 41.679880426434885 ], [ 45.887555531501938, 41.679732505738002 ], [ 45.887555638639775, 41.679731559170918 ], [ 45.88756479691903, 41.679571793539566 ], [ 45.887597501286976, 41.679442470004631 ], [ 45.887648444623274, 41.679294000720517 ], [ 45.887648792640803, 41.679293097327985 ], [ 45.887658913057209, 41.679190248773338 ], [ 45.88766648402482, 41.679164159934992 ], [ 45.887672048613418, 41.679145067053433 ], [ 45.887677039772811, 41.679127960150737 ], [ 45.887677268895672, 41.67912714774689 ], [ 45.887707806131623, 41.679076202207042 ], [ 45.887729063399071, 41.679040640319265 ], [ 45.887736778622404, 41.67901193831819 ], [ 45.887741465095516, 41.67899451851931 ], [ 45.887781409025543, 41.678933052123007 ], [ 45.887822061285128, 41.678870679535734 ], [ 45.887949469496043, 41.678634431163886 ], [ 45.888080429943294, 41.67838135705172 ], [ 45.888134298465317, 41.678218588755961 ], [ 45.888212578371657, 41.677935162513052 ], [ 45.888279140748679, 41.677620932599169 ], [ 45.888352189293784, 41.677236757801275 ], [ 45.88842904143128, 41.676849671274447 ], [ 45.888467818313565, 41.6766729234172 ], [ 45.888494919123566, 41.676468343958064 ], [ 45.888485840878232, 41.676079084423662 ], [ 45.888457987410781, 41.675687357964939 ], [ 45.88845591058562, 41.675676115207082 ], [ 45.888393547985494, 41.67534333641629 ], [ 45.888348638684306, 41.675074102517826 ], [ 45.888343342034233, 41.674985964424806 ], [ 45.888336694311597, 41.674878201400674 ], [ 45.888312272118057, 41.674727161770967 ], [ 45.888277058809166, 41.674612594028886 ], [ 45.888263576684629, 41.674444626636202 ], [ 45.888237021144562, 41.674278201407049 ], [ 45.888228969464208, 41.674103256599032 ], [ 45.888230835841348, 41.673976873219637 ], [ 45.88820511126422, 41.673975720975449 ], [ 45.888187199538827, 41.673974868627958 ], [ 45.888182250482423, 41.673938203133659 ], [ 45.888176230263518, 41.673893529639614 ], [ 45.888224439790214, 41.673896129384765 ], [ 45.888165755061912, 41.67383938813218 ], [ 45.888135653178537, 41.673747028248563 ], [ 45.888123613512491, 41.673644621017957 ], [ 45.888083060043421, 41.673552251813121 ], [ 45.888010383234374, 41.673434550771695 ], [ 45.887934557189126, 41.67327562170388 ], [ 45.887891321922403, 41.673189127729678 ], [ 45.887813257300024, 41.673059578866912 ], [ 45.887703750125382, 41.672932344438351 ], [ 45.887621226355613, 41.672854170094823 ], [ 45.887517344040454, 41.672760308214997 ], [ 45.887453333789765, 41.672691808467448 ], [ 45.887334013879936, 41.672619727592696 ], [ 45.887228450266228, 41.672587081370459 ], [ 45.88712306405273, 41.672576095650356 ], [ 45.887038846008274, 41.672566928006496 ], [ 45.887030452609658, 41.672563705213214 ], [ 45.886970145952127, 41.672541788121364 ], [ 45.886866953893431, 41.672489352775514 ], [ 45.886695268385921, 41.672435554319335 ], [ 45.886610833056963, 41.672410535618816 ], [ 45.886500389638044, 41.672407424479118 ], [ 45.886405412401267, 41.672384558565348 ], [ 45.88631046687312, 41.6723596207054 ], [ 45.886154874209545, 41.672327314266553 ], [ 45.885973627624651, 41.672281424588427 ], [ 45.885734050866475, 41.672204369413585 ], [ 45.885666086344692, 41.672171477007964 ], [ 45.885489044554348, 41.672086103250216 ], [ 45.885335426226121, 41.672000548779394 ], [ 45.885189670868428, 41.67191894168014 ], [ 45.885054538046539, 41.671841035554984 ], [ 45.884940725253834, 41.671784807222124 ], [ 45.88481601616656, 41.671748703368522 ], [ 45.884655607679775, 41.671711072768652 ], [ 45.884592639316679, 41.67168327528811 ] ] ] ] } }
]
}
