{
"type": "FeatureCollection",
"name": "ვაზისუბანი",
"crs": { "type": "name", "properties": { "name": "urn:ogc:def:crs:OGC:1.3:CRS84" } },
"features": [
{ "type": "Feature", "properties": { "OBJECTID": 13, "NAME_GEO": "ვაზისუბანი", "NAME_ENG": "Vazisubani", "Location": "Kakheti", "MoreInfo": "https://www.sakpatenti.gov.ge/media/django-summernote/2025-11-19/21a50ae4-f74b-4502-bb00-c4bda1016f6d.pdf" }, "geometry": { "type": "MultiPolygon", "coordinates": [ [ [ [ 45.656174338580023, 41.821031098465532 ], [ 45.656191513284156, 41.821046851566223 ], [ 45.656318765737829, 41.821169598996562 ], [ 45.656435505718932, 41.821288813514549 ], [ 45.656542619060382, 41.821405407890673 ], [ 45.656649223227546, 41.821528933168366 ], [ 45.656740030846251, 41.821641707978458 ], [ 45.656829465523153, 41.821761613206867 ], [ 45.656905352944612, 41.821872552029518 ], [ 45.656977927128786, 41.821989284061331 ], [ 45.657037415838687, 41.822096297713465 ], [ 45.657092418525899, 41.822208760038087 ], [ 45.657135243722131, 41.822311170969321 ], [ 45.657172419588704, 41.822418789557496 ], [ 45.657198589291902, 41.822516458154745 ], [ 45.65721772490533, 41.822618515512843 ], [ 45.657227168103631, 41.822711226041704 ], [ 45.657228474735589, 41.8228095592833 ], [ 45.657225806135578, 41.822853454269421 ], [ 45.657220881152128, 41.822894774488951 ], [ 45.657204726890335, 41.822974172492849 ], [ 45.657180431726466, 41.823053127096344 ], [ 45.657157137867578, 41.823109896524628 ], [ 45.657127296642436, 41.823169213621817 ], [ 45.657090541318354, 41.82323183885994 ], [ 45.657045625726255, 41.82329990588471 ], [ 45.656985335232555, 41.823379834623545 ], [ 45.656904616010507, 41.823473749855239 ], [ 45.656831479625367, 41.823550992268004 ], [ 45.656735168248154, 41.823644627256222 ], [ 45.656621775187098, 41.823746336302705 ], [ 45.656428173524084, 41.823908057120171 ], [ 45.656305949244114, 41.824007385363551 ], [ 45.65616592115164, 41.824115673446435 ], [ 45.655716832160309, 41.824447646545984 ], [ 45.655569665491413, 41.824558574032594 ], [ 45.655443826041861, 41.824657181618733 ], [ 45.655332050955231, 41.824749186045125 ], [ 45.655172658038715, 41.824884543673164 ], [ 45.655072961853314, 41.824974013765271 ], [ 45.654942167053292, 41.825100404648879 ], [ 45.654840082914902, 41.825208956610794 ], [ 45.654740654467155, 41.825326808254268 ], [ 45.65469925499891, 41.825380597315508 ], [ 45.65466233319124, 41.825432317181026 ], [ 45.654623687773935, 41.825491447807565 ], [ 45.654586207784618, 41.825554228570766 ], [ 45.654549668227972, 41.825621032737786 ], [ 45.654513678962289, 41.825692571373587 ], [ 45.654487815025192, 41.825749510703154 ], [ 45.654461916128547, 41.825813544941603 ], [ 45.654390272946557, 41.826013841812205 ], [ 45.654361082502703, 41.826100788453289 ], [ 45.654332092159684, 41.826198406192262 ], [ 45.654249373378356, 41.826514277423534 ], [ 45.654218426143451, 41.826625051807007 ], [ 45.654185666278579, 41.826728709364048 ], [ 45.654151620991634, 41.826821796557482 ], [ 45.654086470037839, 41.826984235468522 ], [ 45.654061327733636, 41.827040227561611 ], [ 45.654036436692103, 41.827090267376477 ], [ 45.653981041874466, 41.827189657494927 ], [ 45.653927334472357, 41.827273002140878 ], [ 45.65389088534716, 41.827322346642461 ], [ 45.653848594649411, 41.827374425546338 ], [ 45.653799487780098, 41.827430504454973 ], [ 45.653738211595794, 41.827496701572578 ], [ 45.653664598804113, 41.827571256987724 ], [ 45.653582170604778, 41.827648145758268 ], [ 45.653489631705554, 41.827728600169209 ], [ 45.653383125374191, 41.827815980081752 ], [ 45.653303501337263, 41.82787831740756 ], [ 45.653222965291825, 41.827938497314143 ], [ 45.653141657104328, 41.827996418127377 ], [ 45.653059695104858, 41.828051991806262 ], [ 45.652941199041969, 41.828128536654432 ], [ 45.652835138364956, 41.828193069391105 ], [ 45.652734767752698, 41.828249687780428 ], [ 45.652638080131702, 41.828299491271672 ], [ 45.65249615446502, 41.82836652061966 ], [ 45.652439764269985, 41.828390282225271 ], [ 45.652387009048361, 41.828410192534847 ], [ 45.652329776945514, 41.828429321229713 ], [ 45.652269940334207, 41.828447173100841 ], [ 45.652207688907133, 41.828463691224442 ], [ 45.652143279690449, 41.82847880838716 ], [ 45.6520663937604, 41.828494083710503 ], [ 45.651984424237163, 41.828507175750275 ], [ 45.651896771215256, 41.828518183373212 ], [ 45.651802118958763, 41.828527273454227 ], [ 45.651665060934647, 41.828534843207933 ], [ 45.651494726242206, 41.828536952436416 ], [ 45.65137309998525, 41.828534379040455 ], [ 45.651238527120775, 41.828526827866149 ], [ 45.65109559312701, 41.828515102408268 ], [ 45.650844991727666, 41.828490977371622 ], [ 45.65067406853187, 41.828472303558144 ], [ 45.650485758693442, 41.828446849406355 ], [ 45.650294610844163, 41.828417371430568 ], [ 45.649776737166839, 41.828332819350777 ], [ 45.649619344498952, 41.828309644148 ], [ 45.649477524694653, 41.828291197551039 ], [ 45.649201927921389, 41.828257952992843 ], [ 45.649033107341459, 41.828241439110151 ], [ 45.648902805044713, 41.828231690409986 ], [ 45.648792442158694, 41.828225134459998 ], [ 45.648691544054493, 41.828221154057871 ], [ 45.648597718434992, 41.828219681675378 ], [ 45.648482406790677, 41.828220461548462 ], [ 45.648378191861944, 41.828223482625646 ], [ 45.648281323583731, 41.828228856171165 ], [ 45.648190404714683, 41.828236669348989 ], [ 45.648066250143081, 41.828251754785121 ], [ 45.647944197186433, 41.828271287534783 ], [ 45.647881971702645, 41.828283545620302 ], [ 45.647813322694702, 41.828299135515181 ], [ 45.64759268948989, 41.828355547650141 ], [ 45.647337406181791, 41.828421015607624 ], [ 45.647119324512126, 41.828479400270268 ], [ 45.646920617084326, 41.828535480427298 ], [ 45.646736794383145, 41.828590553228118 ], [ 45.646561870969592, 41.828646491639844 ], [ 45.64639681042226, 41.828703073214868 ], [ 45.646240199057537, 41.828760784214289 ], [ 45.646091176649435, 41.828819942950439 ], [ 45.645893231709103, 41.828898280228451 ], [ 45.645838054428125, 41.828924272684141 ], [ 45.645791742047521, 41.828950435040113 ], [ 45.645752671501292, 41.828976911534994 ], [ 45.645711898044567, 41.829008653099791 ], [ 45.645600981568272, 41.82910770457876 ], [ 45.645549888253768, 41.829155937127965 ], [ 45.645499349488261, 41.82920747296054 ], [ 45.645449038630822, 41.829262643564142 ], [ 45.64539842560194, 41.829322028357268 ], [ 45.645295643891309, 41.829453799928295 ], [ 45.645170448277511, 41.829629119432532 ], [ 45.645097442559411, 41.829736224877045 ], [ 45.645037592370294, 41.829829577660398 ], [ 45.644986328246553, 41.829916317089726 ], [ 45.644942579254405, 41.829998323519881 ], [ 45.644908732664739, 41.830069995693108 ], [ 45.644875164842936, 41.830149892265695 ], [ 45.644841426186964, 41.830238453495603 ], [ 45.644794065770988, 41.830371037506161 ], [ 45.644737129901941, 41.830543216305024 ], [ 45.644684314212739, 41.830727221383974 ], [ 45.644634727578989, 41.830926057036471 ], [ 45.644586290398145, 41.831148025758935 ], [ 45.644556745379234, 41.831300449981448 ], [ 45.644531020713806, 41.831451361217646 ], [ 45.644509128918052, 41.831600683742231 ], [ 45.64449108019874, 41.831748351750093 ], [ 45.644478754487722, 41.831871794291196 ], [ 45.644468860219064, 41.831995477179674 ], [ 45.644461410637895, 41.832119278749083 ], [ 45.644456410568935, 41.832243078280726 ], [ 45.644452790243861, 41.832423267469935 ], [ 45.644453637054283, 41.832584402781251 ], [ 45.644458996790675, 41.832733927234131 ], [ 45.644468983437918, 41.832874436868899 ], [ 45.644478659439919, 41.832958284243183 ], [ 45.644493333075097, 41.83305002241039 ], [ 45.64451364992901, 41.833154097137616 ], [ 45.644580208707666, 41.833466726646627 ], [ 45.644597443093566, 41.8335666340597 ], [ 45.64460898337213, 41.833656451508972 ], [ 45.644622633625431, 41.833797873657979 ], [ 45.644628330451567, 41.833897763848881 ], [ 45.64463090957706, 41.834028650647376 ], [ 45.644628634305697, 41.834124760360346 ], [ 45.644620910271698, 41.834211117395064 ], [ 45.644607308420767, 41.83428937331572 ], [ 45.644589992176137, 41.834360651745165 ], [ 45.644572569102714, 41.834414325052926 ], [ 45.644549317820037, 41.834467604137977 ], [ 45.644515674692613, 41.834531498475769 ], [ 45.644470211995646, 41.83460415524965 ], [ 45.644388963568723, 41.834716960919621 ], [ 45.644307657633426, 41.834826702717862 ], [ 45.644229982842006, 41.834925664491131 ], [ 45.644153608408438, 41.835016808165854 ], [ 45.644077509516428, 41.835101341007224 ], [ 45.644004194494691, 41.835177783535492 ], [ 45.64393609596668, 41.835244551321402 ], [ 45.643823714871466, 41.835345047603653 ], [ 45.643683570995883, 41.835459427623569 ], [ 45.64359937029932, 41.835523515833977 ], [ 45.643502728766322, 41.83559245902903 ], [ 45.643195951026328, 41.835798053987148 ], [ 45.643081814488326, 41.835872468288116 ], [ 45.642951930519608, 41.835953143929387 ], [ 45.642522115122198, 41.836208387948226 ], [ 45.642369515785923, 41.836301172724475 ], [ 45.642226155834791, 41.836392732042164 ], [ 45.642100168067572, 41.83647868186592 ], [ 45.641929696632999, 41.836599050402555 ], [ 45.641832293809024, 41.836670130164215 ], [ 45.641743978822646, 41.836738529964407 ], [ 45.641667694158137, 41.83680257342133 ], [ 45.641598086989518, 41.836866063433938 ], [ 45.641526647053531, 41.836935749552637 ], [ 45.641451967776348, 41.837012977147999 ], [ 45.641369564410233, 41.837102376464195 ], [ 45.641320577664501, 41.83715952651896 ], [ 45.641269540283901, 41.837225055374844 ], [ 45.64111883940167, 41.83743703367773 ], [ 45.641066348793721, 41.837507843168403 ], [ 45.641016295300574, 41.837570034779588 ], [ 45.640967363755379, 41.837624938061047 ], [ 45.64087679886071, 41.837721559227298 ], [ 45.640822397775167, 41.837776333542706 ], [ 45.640768364904162, 41.837825408938947 ], [ 45.640715875755923, 41.83786697298396 ], [ 45.640629211242015, 41.837925192164008 ], [ 45.640525041070745, 41.837985530041657 ], [ 45.640456482327878, 41.838021053511959 ], [ 45.640383579797067, 41.838055309576042 ], [ 45.640306425806372, 41.838088257180083 ], [ 45.640225140268093, 41.838119843407377 ], [ 45.640145777180287, 41.838148557383349 ], [ 45.640081864495485, 41.838169798678337 ], [ 45.640023157617357, 41.838186965949113 ], [ 45.639968232869158, 41.838200414800923 ], [ 45.639915643342782, 41.838209620094318 ], [ 45.639799578469848, 41.8382242579276 ], [ 45.639756109162811, 41.838232173901829 ], [ 45.639696032605485, 41.838248725359776 ], [ 45.639640463911896, 41.838270573835537 ], [ 45.639589274700505, 41.838297769588237 ], [ 45.639542315182311, 41.838330390016019 ], [ 45.63949948830146, 41.838368486102745 ], [ 45.639460535967139, 41.838412265546914 ], [ 45.639425259246288, 41.838461950127858 ], [ 45.639393394428517, 41.83851790879671 ], [ 45.639370470814846, 41.838566810348276 ], [ 45.639349280964609, 41.838620373201046 ], [ 45.639329592106868, 41.838679170587106 ], [ 45.639311002960078, 41.838744391844578 ], [ 45.639281860117912, 41.838868259652315 ], [ 45.639221101788415, 41.83916613846926 ], [ 45.639203333193727, 41.839240736680772 ], [ 45.639185259213939, 41.839306679196362 ], [ 45.639165395832634, 41.839368792042677 ], [ 45.639144082944917, 41.839425405257479 ], [ 45.639121021314018, 41.839477312208018 ], [ 45.639096023594, 41.839524930953282 ], [ 45.639354750353064, 41.839904787338249 ], [ 45.639887144285183, 41.841542010554569 ], [ 45.640290546984744, 41.843179949062154 ], [ 45.641082003898063, 41.844912201705689 ], [ 45.642771866663971, 41.846157017330313 ], [ 45.645231118328368, 41.846915079634819 ], [ 45.647769651108526, 41.847692888466511 ], [ 45.647982042278073, 41.84770952845286 ], [ 45.648180780111986, 41.847729455138513 ], [ 45.649093304746842, 41.847825101757095 ], [ 45.649395639193912, 41.847858532026144 ], [ 45.649737570496221, 41.847901025359427 ], [ 45.650041007507781, 41.847945012716757 ], [ 45.650200472985389, 41.847971232382221 ], [ 45.650352970650367, 41.847998708105237 ], [ 45.650499394749808, 41.848027601475401 ], [ 45.650640339129659, 41.848058028942795 ], [ 45.650776449724226, 41.848090135480533 ], [ 45.650907933069504, 41.848123974877012 ], [ 45.651035105597373, 41.848159628217424 ], [ 45.651158205299289, 41.848197162618703 ], [ 45.651243295276018, 41.848225221054378 ], [ 45.651329126307417, 41.848255550352462 ], [ 45.651503791417227, 41.848323304423424 ], [ 45.651684025533605, 41.848401120595831 ], [ 45.651873324178993, 41.848490505663094 ], [ 45.652037392360988, 41.848573328061903 ], [ 45.652218053919007, 41.848669017741756 ], [ 45.652820104955573, 41.849002136997548 ], [ 45.653049859065504, 41.849125958385578 ], [ 45.653282530934725, 41.849244380226658 ], [ 45.653391177194344, 41.849296462118524 ], [ 45.65349640713481, 41.8493446210516 ], [ 45.65374739123029, 41.849454075920185 ], [ 45.65401225941104, 41.849564581535667 ], [ 45.654293640665124, 41.849677240573747 ], [ 45.65459666976831, 41.849794111432828 ], [ 45.654872402927523, 41.849897284610897 ], [ 45.65518036548891, 41.850009863756853 ], [ 45.656265470882538, 41.850397766423576 ], [ 45.656694092786118, 41.850553387386171 ], [ 45.657130448264816, 41.850717133496609 ], [ 45.657518858431708, 41.850869719154637 ], [ 45.65780479507081, 41.850986800951397 ], [ 45.658121392385944, 41.851119968188556 ], [ 45.65915518642386, 41.851565582126256 ], [ 45.659534158515598, 41.851726748172673 ], [ 45.659906021284009, 41.851880409685187 ], [ 45.66024502000834, 41.852014993297736 ], [ 45.660392121340493, 41.852070808661061 ], [ 45.660547160565415, 41.852127210462008 ], [ 45.660711670999653, 41.852184758178886 ], [ 45.660888640225167, 41.852244499187329 ], [ 45.661229396752645, 41.852354968380226 ], [ 45.662110973866092, 41.852632968009125 ], [ 45.662364978116351, 41.8527165144055 ], [ 45.662591142742393, 41.852794236711304 ], [ 45.662841702941044, 41.852885377564519 ], [ 45.663072211071302, 41.85297528981733 ], [ 45.663287007029169, 41.85306567153404 ], [ 45.663488272393352, 41.853157448711997 ], [ 45.663631678546636, 41.853227269763252 ], [ 45.663776040684937, 41.853300852666578 ], [ 45.663921661587217, 41.853378349684718 ], [ 45.664068928928181, 41.853459967529666 ], [ 45.664218093499365, 41.85354583984688 ], [ 45.66436994179692, 41.853636411520057 ], [ 45.664525175731782, 41.853732101798037 ], [ 45.664684847733568, 41.853833556670537 ], [ 45.664956775526974, 41.854012606477667 ], [ 45.6652553262184, 41.854216606163732 ], [ 45.665540887586296, 41.854416818206808 ], [ 45.666240051628378, 41.854912870511974 ], [ 45.666611488362506, 41.855170212760108 ], [ 45.666843901821814, 41.855332297851838 ], [ 45.667096632845073, 41.855516373515051 ], [ 45.667347885705816, 41.855705182184366 ], [ 45.668014488049039, 41.856213507999747 ], [ 45.668216476076722, 41.856363731415144 ], [ 45.668400051741052, 41.856496623512506 ], [ 45.66861274662773, 41.856645067208298 ], [ 45.668815507512306, 41.856780050912242 ], [ 45.66901228064475, 41.856904196995309 ], [ 45.669205118981523, 41.857018792311159 ], [ 45.669368424522482, 41.857110425399021 ], [ 45.669542160533105, 41.857203355675402 ], [ 45.669728173530807, 41.857298578387386 ], [ 45.66993020997586, 41.857398010790774 ], [ 45.670304448527041, 41.857574510877534 ], [ 45.671159726242124, 41.8579663115598 ], [ 45.671361309446425, 41.858061275791819 ], [ 45.671542705242501, 41.858149050473486 ], [ 45.671894122461261, 41.858324811424765 ], [ 45.672279463215546, 41.858523628336158 ], [ 45.672674594723574, 41.858732154497268 ], [ 45.673759435354704, 41.859310799219756 ], [ 45.674092931468635, 41.859485195813974 ], [ 45.674394009814208, 41.859639267862732 ], [ 45.674743066323018, 41.859812660592603 ], [ 45.675072371284294, 41.859969985802671 ], [ 45.675388447463938, 41.860114355891589 ], [ 45.675694632240457, 41.860247285196138 ], [ 45.67595257051066, 41.860353765414416 ], [ 45.676218471599491, 41.860458684119898 ], [ 45.676492910236668, 41.860562270247904 ], [ 45.676776656975846, 41.860664812818783 ], [ 45.677070190900572, 41.860766495380297 ], [ 45.67737513377763, 41.860867890132539 ], [ 45.677692965570877, 41.860969488130003 ], [ 45.678025971228394, 41.861072020639646 ], [ 45.678303048468841, 41.861154674819765 ], [ 45.678593959924591, 41.861239211875976 ], [ 45.678901767002216, 41.861326524195142 ], [ 45.679232561780893, 41.861418341848051 ], [ 45.679843031314277, 41.861583813833391 ], [ 45.681280495992013, 41.86196720746721 ], [ 45.681983795850641, 41.862159833998213 ], [ 45.682315145096425, 41.862253461531175 ], [ 45.682626280589858, 41.862343632547756 ], [ 45.682921848063913, 41.86243169492797 ], [ 45.683204384511555, 41.862518405584083 ], [ 45.683601336698388, 41.862643583579292 ], [ 45.68400480732641, 41.862773708447158 ], [ 45.684415572710968, 41.862909028583452 ], [ 45.684834630556857, 41.863049874814806 ], [ 45.685262655713757, 41.863196468193422 ], [ 45.685701620689613, 41.863349478656929 ], [ 45.686153311983382, 41.863509529485114 ], [ 45.686620350766091, 41.863677547869074 ], [ 45.687482112479309, 41.86399343126439 ], [ 45.68843471030398, 41.864349689731299 ], [ 45.689389365459064, 41.864711855289215 ], [ 45.691922848585293, 41.865679356787361 ], [ 45.692680234024117, 41.865965349853347 ], [ 45.693361751161042, 41.866219578625739 ], [ 45.694139203762248, 41.86650483110845 ], [ 45.694868017477049, 41.866766545101747 ], [ 45.69556229556499, 41.867009781708028 ], [ 45.696229237453572, 41.867237055844463 ], [ 45.696633784876838, 41.867371553768777 ], [ 45.697030855584451, 41.867500913126989 ], [ 45.697421300742128, 41.867625410741262 ], [ 45.697805792542141, 41.867745263261973 ], [ 45.698185058693085, 41.86786069419751 ], [ 45.698559471441641, 41.867971815722171 ], [ 45.698929484015032, 41.868078762028944 ], [ 45.699295477099227, 41.868181644328395 ], [ 45.699658329249345, 41.868280703192632 ], [ 45.700017802214688, 41.868375866248208 ], [ 45.700374176278437, 41.868467207474978 ], [ 45.700727693043255, 41.868554789376226 ], [ 45.701078610994088, 41.868638675249663 ], [ 45.701427099210143, 41.868718906418643 ], [ 45.701773348461572, 41.868795524071764 ], [ 45.702117524198272, 41.868868567748621 ], [ 45.702383918649687, 41.868922919657585 ], [ 45.702656434847526, 41.868976604818052 ], [ 45.703222288732633, 41.869082455051888 ], [ 45.703820879501748, 41.869187211998202 ], [ 45.70446359234149, 41.869292871467209 ], [ 45.705034785339407, 41.869382055257297 ], [ 45.705671841960942, 41.869477611832195 ], [ 45.707844056521239, 41.869791008662013 ], [ 45.708676597488541, 41.869914104908865 ], [ 45.709108846414466, 41.869980340570358 ], [ 45.70951322395738, 41.870044260021174 ], [ 45.709896986015501, 41.870107009402879 ], [ 45.710263894201034, 41.870169208743462 ], [ 45.710613072278903, 41.870225950419723 ], [ 45.711005839974106, 41.870282899435139 ], [ 45.711380532859216, 41.870332764440782 ], [ 45.712254404519435, 41.870444279667566 ], [ 45.71267427425218, 41.870501510624749 ], [ 45.713047795075973, 41.870557797500354 ], [ 45.713384870322315, 41.87061492652326 ], [ 45.71360516073193, 41.870656416740069 ], [ 45.713815168775859, 41.870699624992547 ], [ 45.714016406607996, 41.870744862577396 ], [ 45.71420985396567, 41.870792350418967 ], [ 45.714396576712709, 41.870842360236082 ], [ 45.714576890410044, 41.87089498557004 ], [ 45.714751299202888, 41.870950373726743 ], [ 45.714920181612506, 41.871008644869015 ], [ 45.71506526914208, 41.871062644288621 ], [ 45.71542381233504, 41.871201312642754 ], [ 45.715720994115607, 41.871310488573712 ], [ 45.716034120269718, 41.871420806358223 ], [ 45.716366533667077, 41.871533451923703 ], [ 45.716724958740635, 41.871650704186074 ], [ 45.717035396176179, 41.871749482096654 ], [ 45.717382851649461, 41.871857783187593 ], [ 45.718851763152152, 41.872307956042874 ], [ 45.719181902289257, 41.872411552235306 ], [ 45.719481333529764, 41.87250758861903 ], [ 45.721853577405369, 41.873278585889587 ], [ 45.723481004201233, 41.873811566833091 ], [ 45.724957022932713, 41.874300879806555 ], [ 45.726298025270331, 41.874752408409961 ], [ 45.727179430534072, 41.875048275169043 ], [ 45.728833863358858, 41.875595096447476 ], [ 45.729497168662832, 41.875815968891672 ], [ 45.730179208034215, 41.87604674382434 ], [ 45.730789546056037, 41.876257965120416 ], [ 45.731144150105244, 41.876383315223933 ], [ 45.731484031339271, 41.876505611937681 ], [ 45.731811517871307, 41.876625693499228 ], [ 45.732128140526328, 41.87674412308693 ], [ 45.732435580382223, 41.876861533153296 ], [ 45.732734353074079, 41.876978125836871 ], [ 45.733025269617073, 41.877094218471441 ], [ 45.733308942574695, 41.877210056693094 ], [ 45.733446365750744, 41.877271310564986 ], [ 45.733616442177087, 41.877355698551426 ], [ 45.733910634347261, 41.87750636754528 ], [ 45.734005577917159, 41.877551899773948 ], [ 45.734090111448836, 41.877589530170901 ], [ 45.734173737943735, 41.877623084431917 ], [ 45.734251146757359, 41.877649973739885 ], [ 45.734323567135164, 41.877670620771411 ], [ 45.734391651922472, 41.877685207801392 ], [ 45.734447529416059, 41.87769303311461 ], [ 45.734607789345901, 41.877529036727736 ], [ 45.734721506370576, 41.877412667615474 ], [ 45.735432202805541, 41.876671899917945 ], [ 45.735716365968749, 41.876378243022906 ], [ 45.736011264731587, 41.876079063905458 ], [ 45.736239058503259, 41.875853914055753 ], [ 45.736280517946163, 41.875812934902811 ], [ 45.736563274101748, 41.875543712192744 ], [ 45.736758704087329, 41.875361869918358 ], [ 45.736899736456188, 41.875234762922766 ], [ 45.737138836863089, 41.875026006713391 ], [ 45.737341690821708, 41.874856546042672 ], [ 45.737392081339564, 41.874815793755253 ], [ 45.737487139345518, 41.874738917523345 ], [ 45.737592490859463, 41.87465636207363 ], [ 45.737701573303497, 41.874573615934914 ], [ 45.737758973707216, 41.874532050177379 ], [ 45.737931705101722, 41.87440696743721 ], [ 45.73817882026168, 41.874238014357964 ], [ 45.738179358357016, 41.87423764972722 ], [ 45.738180107123334, 41.874237161250043 ], [ 45.738447851923198, 41.874063377946364 ], [ 45.738695296218957, 41.873909949327803 ], [ 45.739066467548845, 41.873687483197244 ], [ 45.739256058021986, 41.87357515974935 ], [ 45.739469050872387, 41.873452002355123 ], [ 45.740192805972292, 41.873042943309223 ], [ 45.740465680695223, 41.872886553948028 ], [ 45.740735656439576, 41.872727183375595 ], [ 45.740975106911165, 41.872579935907211 ], [ 45.7413220352107, 41.87236019661789 ], [ 45.74155477827972, 41.872205670517765 ], [ 45.741799231258547, 41.872033040324979 ], [ 45.742045165248207, 41.871849897226674 ], [ 45.74216359412938, 41.871757961659881 ], [ 45.742288603284351, 41.871657995320028 ], [ 45.742578581797204, 41.871417655201022 ], [ 45.7427690017986, 41.871254540304626 ], [ 45.742964261736923, 41.871081980785377 ], [ 45.74316616867111, 41.870898385133771 ], [ 45.743378132896908, 41.870700653620027 ], [ 45.74356645840399, 41.870520205674431 ], [ 45.743762425972669, 41.870327048883823 ], [ 45.743969381101998, 41.870117906482463 ], [ 45.74419612665222, 41.869883889310024 ], [ 45.744351262692241, 41.869720360016203 ], [ 45.744519865769462, 41.869538718819243 ], [ 45.744986334117087, 41.869024668408912 ], [ 45.745267845938073, 41.868710962005409 ], [ 45.745550571357462, 41.868391491681862 ], [ 45.745834769565526, 41.868065964825945 ], [ 45.746120743662068, 41.867734031794519 ], [ 45.746408746841304, 41.867395404511882 ], [ 45.746699259197577, 41.867049516915806 ], [ 45.746992721546114, 41.866695846427014 ], [ 45.747289685075039, 41.866333727435872 ], [ 45.747616724413412, 41.865931094766566 ], [ 45.747880471728273, 41.865602457030747 ], [ 45.7481170981033, 41.865302735127898 ], [ 45.748332748919857, 41.86502404246626 ], [ 45.748581304356293, 41.864694247424268 ], [ 45.748850103232485, 41.86432789545178 ], [ 45.749136446097452, 41.863929555143727 ], [ 45.749596343715886, 41.863282090997885 ], [ 45.749981188294882, 41.862732407429782 ], [ 45.750766065460262, 41.861589054087638 ], [ 45.751106718353583, 41.861098896825453 ], [ 45.751685311860712, 41.860275782481416 ], [ 45.751879966016148, 41.860003000058001 ], [ 45.752057579810625, 41.85975786177471 ], [ 45.752403220250756, 41.859288546553579 ], [ 45.752683767409977, 41.858917134815748 ], [ 45.753040879471051, 41.858458204743229 ], [ 45.753200309366875, 41.858258668230135 ], [ 45.753352782211564, 41.858071789354007 ], [ 45.753537776578106, 41.857850468336892 ], [ 45.753735708466145, 41.857619251896836 ], [ 45.753949215912179, 41.857375046824124 ], [ 45.754184374486144, 41.857110899510033 ], [ 45.754357999440238, 41.856919472437788 ], [ 45.754552192201849, 41.856709386572881 ], [ 45.755111982418143, 41.856115291423215 ], [ 45.755428317002171, 41.855784495105624 ], [ 45.755781729001669, 41.855422491212565 ], [ 45.756165437096747, 41.855035521630867 ], [ 45.757273983837422, 41.853925908509034 ], [ 45.757617243325008, 41.853576932030762 ], [ 45.757921685756259, 41.853262101508214 ], [ 45.758625699612168, 41.852526644351748 ], [ 45.758853085024647, 41.85228430902761 ], [ 45.759055055570272, 41.852064545662934 ], [ 45.759307781486505, 41.851784412382315 ], [ 45.759527253571854, 41.851537024757469 ], [ 45.759727037879045, 41.851307083439096 ], [ 45.75991124887198, 41.851089821022136 ], [ 45.760104870244355, 41.850856148657201 ], [ 45.760282789192679, 41.850636747624321 ], [ 45.760448506178172, 41.85042730307341 ], [ 45.760603733917705, 41.850225639378039 ], [ 45.760844052753868, 41.849902716879384 ], [ 45.761059267964029, 41.84960059392877 ], [ 45.761272284774222, 41.849287060888678 ], [ 45.761465689364911, 41.8489876288441 ], [ 45.76165568617386, 41.84867718210711 ], [ 45.76174279629678, 41.848528522412479 ], [ 45.761825167652056, 41.848383360805478 ], [ 45.76198117508261, 41.848104945629444 ], [ 45.762026786232617, 41.84801533501286 ], [ 45.76206399564964, 41.847933780880602 ], [ 45.762100840301784, 41.847844032951194 ], [ 45.762128851762633, 41.847767596256112 ], [ 45.762160218170436, 41.847662052472003 ], [ 45.762198386534095, 41.847503007168704 ], [ 45.762229603127061, 41.847363045697996 ], [ 45.762256260014617, 41.847229457980376 ], [ 45.76227852097076, 41.847101425113223 ], [ 45.762296458035514, 41.846978518797336 ], [ 45.762310135270475, 41.846860247738178 ], [ 45.762319548639297, 41.846746574135643 ], [ 45.762324714287523, 41.846637333959691 ], [ 45.762325634578644, 41.846532420014306 ], [ 45.76232198977344, 41.846446498426062 ], [ 45.76231306427735, 41.846360992874537 ], [ 45.762298856414986, 41.846275861938217 ], [ 45.762279357187751, 41.84619105613735 ], [ 45.762254557703891, 41.846106534997539 ], [ 45.762224440373103, 41.846022235584293 ], [ 45.762188984045181, 41.845938099489445 ], [ 45.762148161451591, 41.845854060238501 ], [ 45.762102008141085, 41.845770168028004 ], [ 45.762050425383244, 41.845686221753773 ], [ 45.761993360381773, 41.845602135293284 ], [ 45.761930744501349, 41.845517807316519 ], [ 45.761862517752412, 41.845433154448827 ], [ 45.761788557832325, 41.845348018971315 ], [ 45.761708737793185, 41.845262257605611 ], [ 45.761622891697698, 41.845175689501957 ], [ 45.761548124665843, 41.84510420815581 ], [ 45.761469056400436, 41.845031915840828 ], [ 45.761385520094429, 41.844958660537884 ], [ 45.761297290584871, 41.844884244678852 ], [ 45.761105835754698, 41.844731149222724 ], [ 45.760891070639801, 41.844569729748784 ], [ 45.760691640958441, 41.844426772263937 ], [ 45.760463763020283, 41.844269015435898 ], [ 45.760236146190124, 41.844115210417129 ], [ 45.759645402526758, 41.843720433821993 ], [ 45.759325255582326, 41.843501059481753 ], [ 45.759160389049185, 41.843384296817746 ], [ 45.759009213536807, 41.843273951770598 ], [ 45.758868984225117, 41.843168016895376 ], [ 45.758738325220044, 41.843065450225204 ], [ 45.758593057290049, 41.842945963296714 ], [ 45.758458878138292, 41.842829195972264 ], [ 45.758334949195891, 41.84271442067206 ], [ 45.758220743042052, 41.842601145535781 ], [ 45.758115713443878, 41.842488814874137 ], [ 45.75801970763051, 41.842377245981446 ], [ 45.75793248499069, 41.842266161256596 ], [ 45.757853873064299, 41.842155342091061 ], [ 45.757755982054881, 41.842005599159783 ], [ 45.757660184271181, 41.841851106541782 ], [ 45.757566274720496, 41.841691537745412 ], [ 45.757473997716424, 41.841526454927909 ], [ 45.757383189838329, 41.841355583561374 ], [ 45.757293351248627, 41.84117800464508 ], [ 45.757204057704136, 41.840992876136887 ], [ 45.757114682135395, 41.840798906088018 ], [ 45.756973878654058, 41.84047613407931 ], [ 45.756825469176889, 41.840115225733939 ], [ 45.75668194161549, 41.839750416574937 ], [ 45.756308166546646, 41.838779916224709 ], [ 45.756193284722279, 41.838492025237478 ], [ 45.756086803572657, 41.838234935333176 ], [ 45.755956466628817, 41.837931409975589 ], [ 45.755611685977478, 41.837141792323067 ], [ 45.755512872077539, 41.836909403966963 ], [ 45.755426400263438, 41.836700059394943 ], [ 45.755330807416385, 41.836459098585813 ], [ 45.755245879113147, 41.836233115285445 ], [ 45.755169970227492, 41.836017723197664 ], [ 45.755102299219317, 41.835810687479089 ], [ 45.755086357402782, 41.835755498401575 ], [ 45.755072162961241, 41.835697219296684 ], [ 45.755048444229821, 41.835568941304018 ], [ 45.755030662518067, 41.8354283173312 ], [ 45.755004073459389, 41.835142291692051 ], [ 45.754990557004099, 41.835022299553934 ], [ 45.754971153862066, 41.834898117394197 ], [ 45.754947010017055, 41.834789268108999 ], [ 45.754928891436371, 41.83472631590044 ], [ 45.754908321245523, 41.834666985239707 ], [ 45.754885148652974, 41.834610844788322 ], [ 45.754859260847148, 41.83455762057757 ], [ 45.754830503817999, 41.834507017292751 ], [ 45.754798819963575, 41.834458949745326 ], [ 45.754764119778507, 41.834413282517772 ], [ 45.75472632621242, 41.834369915237154 ], [ 45.754664241435613, 41.834308223710352 ], [ 45.754588377318349, 41.834241867064499 ], [ 45.75450933908467, 41.834178412506894 ], [ 45.754324648831151, 41.834035945763155 ], [ 45.75423408414602, 41.833967031106823 ], [ 45.754138398568585, 41.833899325393638 ], [ 45.754037391729071, 41.83383268671745 ], [ 45.75393078691615, 41.833766933140993 ], [ 45.753818412971022, 41.833701948683064 ], [ 45.753699673238451, 41.833637380571041 ], [ 45.75357400774422, 41.833572922623674 ], [ 45.753440544146834, 41.833508127496408 ], [ 45.75320697140404, 41.833401947501521 ], [ 45.752940343873021, 41.833288941268684 ], [ 45.752680589452083, 41.833184185576251 ], [ 45.752050890483666, 41.832936085385967 ], [ 45.751733426296852, 41.832805537802805 ], [ 45.751577686001532, 41.832738033824015 ], [ 45.751433762605792, 41.832672784196461 ], [ 45.751299256366131, 41.832608698621129 ], [ 45.751172917409107, 41.832545179144681 ], [ 45.751044377919627, 41.832476567936958 ], [ 45.750923453203185, 41.832407619482332 ], [ 45.750809517653728, 41.832337977620597 ], [ 45.750702151543535, 41.832267383917305 ], [ 45.750600911794407, 41.832195539557063 ], [ 45.750505646487674, 41.832122327559055 ], [ 45.750416139314254, 41.832047582724705 ], [ 45.750332227298337, 41.831971169228026 ], [ 45.750229369116504, 41.831869044185353 ], [ 45.750119341861719, 41.831751529935595 ], [ 45.750018614614589, 41.831638353793458 ], [ 45.749796075540154, 41.8313823009956 ], [ 45.749695881103456, 41.831270618021094 ], [ 45.749544787378959, 41.831102519484197 ], [ 45.749379849705797, 41.830912294775743 ], [ 45.748858183098264, 41.830290311118652 ], [ 45.748671456487806, 41.830071394691359 ], [ 45.74849101646965, 41.829867078517466 ], [ 45.748322969001634, 41.829685373169916 ], [ 45.748213813554415, 41.829572501595152 ], [ 45.748106519066084, 41.82946583612221 ], [ 45.748000320393771, 41.829364617958639 ], [ 45.747894706056584, 41.829268360465541 ], [ 45.747789091901282, 41.829176540547216 ], [ 45.747683291878218, 41.82908900539779 ], [ 45.747577011743374, 41.829005514647832 ], [ 45.747470025390108, 41.828925887829264 ], [ 45.747355316096929, 41.828844775491866 ], [ 45.747235754215481, 41.828763990932657 ], [ 45.747111173453696, 41.828683419930407 ], [ 45.7469813518059, 41.828602920703652 ], [ 45.746846133977961, 41.828522392466859 ], [ 45.746705090678553, 41.828441575892384 ], [ 45.746557826703032, 41.828360242951973 ], [ 45.746403770042576, 41.828278080297586 ], [ 45.746248483144221, 41.828197895226083 ], [ 45.746085326535209, 41.828116112807223 ], [ 45.745913126499566, 41.828032141673731 ], [ 45.745729781890553, 41.827944958737625 ], [ 45.745331513975302, 41.827761496421957 ], [ 45.744777224410576, 41.82751353944294 ], [ 45.743835922662555, 41.82709349782408 ], [ 45.743542521451545, 41.826965816777971 ], [ 45.74327716482685, 41.826853436286584 ], [ 45.743005499312027, 41.826742321821811 ], [ 45.74274864958501, 41.826641694861948 ], [ 45.742502698529847, 41.82655002084141 ], [ 45.742265579204037, 41.826466535896294 ], [ 45.742021225749902, 41.826386079362941 ], [ 45.74178373020461, 41.826313813888355 ], [ 45.741552049615166, 41.826249425604871 ], [ 45.741325465070538, 41.826192713831638 ], [ 45.741103179506297, 41.8261434873925 ], [ 45.740884917677519, 41.826101694047004 ], [ 45.740670274010284, 41.826067257173314 ], [ 45.740458933543437, 41.826040125681907 ], [ 45.740288213355186, 41.826023488899388 ], [ 45.740112733587345, 41.826011285082963 ], [ 45.739932141094442, 41.8260034894653 ], [ 45.739745973187624, 41.826000080683663 ], [ 45.739553933455539, 41.826001046208503 ], [ 45.739355053639834, 41.826006381434809 ], [ 45.739148451280769, 41.826016108218141 ], [ 45.738932778384559, 41.82603029103133 ], [ 45.738747137563671, 41.826045394437614 ], [ 45.738552616697049, 41.826063721453124 ], [ 45.738347236970689, 41.826085455883103 ], [ 45.738127077434612, 41.826111011061748 ], [ 45.737718175607959, 41.82616300190103 ], [ 45.736744870364937, 41.826293979529453 ], [ 45.736487757717008, 41.826326267031938 ], [ 45.736256887967414, 41.826353105026712 ], [ 45.735937211877882, 41.826389994005766 ], [ 45.735611952009634, 41.82643039270129 ], [ 45.735280505875345, 41.826474377878228 ], [ 45.734942096654557, 41.826522050826853 ], [ 45.734596197645125, 41.826573482405614 ], [ 45.734241286782364, 41.826628893937624 ], [ 45.733875988827926, 41.826688500383064 ], [ 45.733498293981249, 41.826752627915923 ], [ 45.733139540000728, 41.826815658771231 ], [ 45.732765336805691, 41.826883354443481 ], [ 45.731951985795135, 41.82703613213117 ], [ 45.731140383942282, 41.827194070068352 ], [ 45.729388391712043, 41.827540799820724 ], [ 45.728751881198036, 41.827669207574012 ], [ 45.727223823763907, 41.827989466776152 ], [ 45.726527519433105, 41.828130867475871 ], [ 45.725459031751804, 41.828340957954829 ], [ 45.724699962986485, 41.828486370138641 ], [ 45.724010692471126, 41.828613022823795 ], [ 45.72337985491852, 41.828722671324918 ], [ 45.722847491467611, 41.828815902261432 ], [ 45.721747348639482, 41.829018721369046 ], [ 45.721274275870115, 41.829103235692422 ], [ 45.721016774992734, 41.829147056716614 ], [ 45.720776189276904, 41.829186106368041 ], [ 45.720547794721831, 41.829221152049193 ], [ 45.720329212229515, 41.829252554616204 ], [ 45.720077357404882, 41.829285789296428 ], [ 45.719834899454483, 41.829314435887298 ], [ 45.719600250912791, 41.829338680027412 ], [ 45.719372360536411, 41.829358630125988 ], [ 45.719150069744067, 41.829374380843639 ], [ 45.718933012698805, 41.82938595071505 ], [ 45.718720626178545, 41.829393368513287 ], [ 45.718512476877599, 41.829396650485002 ], [ 45.718290754973495, 41.829396101676821 ], [ 45.718064903393454, 41.829391862028643 ], [ 45.717834704152345, 41.829383926573534 ], [ 45.717599886253211, 41.829372287971481 ], [ 45.717360242491566, 41.829356935779245 ], [ 45.717115301751583, 41.829337843185201 ], [ 45.716864628974776, 41.829314976843186 ], [ 45.716607647987374, 41.829288283567053 ], [ 45.716347262737635, 41.829258127994905 ], [ 45.716079192157828, 41.829224076542594 ], [ 45.715802371467085, 41.829185995284767 ], [ 45.715515174903764, 41.82914365920648 ], [ 45.715217688531183, 41.829097111827394 ], [ 45.714904479349798, 41.829045529429941 ], [ 45.714571010101231, 41.82898817362863 ], [ 45.714205771673861, 41.828923065849658 ], [ 45.713669256249034, 41.828822955968732 ], [ 45.713179087778343, 41.828725032702664 ], [ 45.712946495756988, 41.828675917537737 ], [ 45.71272125248457, 41.828626489698628 ], [ 45.712502591393729, 41.828576581052062 ], [ 45.712289963137906, 41.828526064442826 ], [ 45.712081586576645, 41.828474498802215 ], [ 45.711878469779627, 41.828422112984669 ], [ 45.711680287868496, 41.828368822565153 ], [ 45.711486785996676, 41.828314559795025 ], [ 45.711297691136892, 41.828259246227567 ], [ 45.711112867974556, 41.828202842191409 ], [ 45.710932146135796, 41.828145295621212 ], [ 45.710755390267295, 41.828086563240198 ], [ 45.710453976766196, 41.8279809815253 ], [ 45.710149585863732, 41.827867849859686 ], [ 45.709842193481009, 41.827747157559564 ], [ 45.709531761072135, 41.827618892228735 ], [ 45.709218271808119, 41.827483044938852 ], [ 45.708901629052001, 41.827339576630408 ], [ 45.70858175064015, 41.827188449954569 ], [ 45.708258513224315, 41.827029605298115 ], [ 45.70801384701366, 41.826904653732136 ], [ 45.707769573451813, 41.826775030964207 ], [ 45.707525718025302, 41.826640750349739 ], [ 45.707282305025871, 41.826501826152381 ], [ 45.707039361142996, 41.826358271720565 ], [ 45.706796915523284, 41.82621010489121 ], [ 45.706554999740582, 41.826057345287921 ], [ 45.70631364415398, 41.825900011641366 ], [ 45.706072852443512, 41.825738105733365 ], [ 45.705832690162836, 41.825571671297823 ], [ 45.7055931961564, 41.825400732418174 ], [ 45.705354408132756, 41.825225319489881 ], [ 45.705116364963814, 41.82504545929887 ], [ 45.704879116475716, 41.824861189372349 ], [ 45.704642708861165, 41.824672545458853 ], [ 45.704407196828846, 41.824479571361252 ], [ 45.704281168760154, 41.824373028242157 ], [ 45.70415197167933, 41.824259992443949 ], [ 45.704018263491548, 41.824139298586523 ], [ 45.703877469618213, 41.824008621545353 ], [ 45.703620135956996, 41.823762414728222 ], [ 45.702999607941315, 41.823156492402781 ], [ 45.702826988883395, 41.822992286197788 ], [ 45.702668888633092, 41.822845898370517 ], [ 45.702538566557486, 41.822725018112912 ], [ 45.702395461840801, 41.822588258397971 ], [ 45.701937772264401, 41.82213868525487 ], [ 45.701772740815038, 41.821978875050547 ], [ 45.701612586812587, 41.821828328101837 ], [ 45.701464586569337, 41.821694656736852 ], [ 45.701369808641971, 41.821612319128533 ], [ 45.701277160306759, 41.821534551135528 ], [ 45.701185982883693, 41.821460800159436 ], [ 45.701095837818244, 41.821390713109217 ], [ 45.701006229666781, 41.82132390931833 ], [ 45.700917000673428, 41.821260278065559 ], [ 45.700827905687376, 41.821199644312969 ], [ 45.700738751813603, 41.821141876836705 ], [ 45.70057543902584, 41.82104334346355 ], [ 45.700398617911546, 41.820945573144243 ], [ 45.700206410749828, 41.820847516253025 ], [ 45.699994933277615, 41.820747187850621 ], [ 45.69982927597664, 41.820672770990164 ], [ 45.699645040003631, 41.82059315479912 ], [ 45.698806113127212, 41.820245604667782 ], [ 45.698608420803218, 41.820161145509687 ], [ 45.698433442461628, 41.820083534533588 ], [ 45.697123515588402, 41.819487289135765 ], [ 45.696478551726479, 41.819197255893634 ], [ 45.696150415346963, 41.81905218615907 ], [ 45.695841951941425, 41.818917872111697 ], [ 45.695547538294029, 41.818791864765231 ], [ 45.695264249318434, 41.818672916467257 ], [ 45.694829626100031, 41.818493292154997 ], [ 45.694414931618013, 41.818323975678851 ], [ 45.694015669095371, 41.818163133604173 ], [ 45.693629176604638, 41.818009694136293 ], [ 45.693252460005951, 41.817862477560517 ], [ 45.692884868687507, 41.817721236606374 ], [ 45.692525118505237, 41.817585479222359 ], [ 45.692172267562057, 41.817454850883273 ], [ 45.691823328943059, 41.817328269902788 ], [ 45.691479883858953, 41.817206334762837 ], [ 45.691141348424296, 41.817088837364579 ], [ 45.690807252447783, 41.816975616654389 ], [ 45.690477087085092, 41.816866499195164 ], [ 45.690150582837269, 41.816761399273624 ], [ 45.689827415810868, 41.816660210783908 ], [ 45.689507312924576, 41.816562849828301 ], [ 45.688915040576227, 41.816387806021197 ], [ 45.688405109442265, 41.816242644121367 ], [ 45.687935158963334, 41.816115320033077 ], [ 45.687494385766072, 41.816002977075954 ], [ 45.687290715075576, 41.815953919459915 ], [ 45.68708221120108, 41.815905815398757 ], [ 45.686868461353875, 41.815858569159438 ], [ 45.686648933309115, 41.815812062301298 ], [ 45.686423271068819, 41.815766217657988 ], [ 45.686190395864791, 41.81572081016067 ], [ 45.685698589756321, 41.815630460026192 ], [ 45.685226627845296, 41.815549581739155 ], [ 45.684698033401787, 41.815464030367288 ], [ 45.682802751335878, 41.815173053551284 ], [ 45.682426662729398, 41.815116931980562 ], [ 45.68200704418625, 41.81505962022937 ], [ 45.681595195157577, 41.815007028186734 ], [ 45.680546619010222, 41.814877438621139 ], [ 45.680245778427057, 41.814838431095303 ], [ 45.679975654898335, 41.814801662002736 ], [ 45.679675904179774, 41.814758286296744 ], [ 45.679396187615573, 41.81471475708954 ], [ 45.679131347256856, 41.814670269183672 ], [ 45.678878730802779, 41.814624373601916 ], [ 45.678757247319098, 41.814600198276182 ], [ 45.678631006732743, 41.8145726877543 ], [ 45.678498803532797, 41.8145415798352 ], [ 45.678358355410673, 41.814506341258358 ], [ 45.6780845906206, 41.814432769956447 ], [ 45.677566521865856, 41.814286221703441 ], [ 45.677355948856416, 41.814228164048764 ], [ 45.677136995865169, 41.814171177688216 ], [ 45.676939681134556, 41.814124158314556 ], [ 45.676824448229041, 41.814099099257739 ], [ 45.676713302602678, 41.814076873892127 ], [ 45.676605474496213, 41.814057329143232 ], [ 45.676500456051187, 41.814040372538301 ], [ 45.676397682894503, 41.814025918240205 ], [ 45.676296976609756, 41.814013945688927 ], [ 45.67619806353197, 41.814004421374037 ], [ 45.676100730352417, 41.813997326740541 ], [ 45.675971198007048, 41.813991453702364 ], [ 45.675835302755253, 41.813989246830644 ], [ 45.675691628422456, 41.813990678405638 ], [ 45.67553738447323, 41.813995774716844 ], [ 45.675401638013909, 41.814002687734245 ], [ 45.675250204372389, 41.81401239847856 ], [ 45.674742023758327, 41.814051203275838 ], [ 45.674550884906687, 41.814064408617035 ], [ 45.674361092683469, 41.814074579419568 ], [ 45.674190302622193, 41.81408004757013 ], [ 45.673818148050671, 41.814086076272446 ], [ 45.673454602115228, 41.814089380954066 ], [ 45.673098842616255, 41.814089967415214 ], [ 45.6727502507811, 41.814087837550801 ], [ 45.672408149963623, 41.814082985479303 ], [ 45.672072243974064, 41.814075405786099 ], [ 45.671742145087833, 41.814065089984609 ], [ 45.671417540201681, 41.814052027345269 ], [ 45.671097642762611, 41.814036179276833 ], [ 45.67078273822527, 41.814017553158493 ], [ 45.670472608572297, 41.813996135892744 ], [ 45.67016707191172, 41.813971915069061 ], [ 45.669865936682115, 41.813944874728008 ], [ 45.669569086018939, 41.813915003876389 ], [ 45.66927638618364, 41.813882289816178 ], [ 45.668987722699313, 41.813846719735395 ], [ 45.668929834825619, 41.813837092532232 ], [ 45.668863815421609, 41.813822026551357 ], [ 45.66878543084659, 41.813800543960696 ], [ 45.668546123114766, 41.813729664804306 ], [ 45.668472691838012, 41.813711771239177 ], [ 45.668409682050687, 41.81370036139333 ], [ 45.668373904528792, 41.813696239960798 ], [ 45.668340839770671, 41.813694458035634 ], [ 45.668310243262162, 41.813695005333848 ], [ 45.668281964533108, 41.813697884534193 ], [ 45.668255844873933, 41.813703116376836 ], [ 45.668231843509325, 41.813710716412182 ], [ 45.668209890827413, 41.813720705762329 ], [ 45.668189937710764, 41.813733108132091 ], [ 45.668167428183608, 41.81375230665725 ], [ 45.668144980587549, 41.813777697055734 ], [ 45.668079367249817, 41.813872816771763 ], [ 45.66805365429849, 41.813905609092252 ], [ 45.668010045511132, 41.813953337128247 ], [ 45.667961089993142, 41.814003395698116 ], [ 45.667839646233361, 41.814118020089616 ], [ 45.667720903697507, 41.814220932300415 ], [ 45.667581651560376, 41.814331998632184 ], [ 45.667441501731027, 41.814435734797932 ], [ 45.667281311559016, 41.814546106396904 ], [ 45.66712068714196, 41.814649723323917 ], [ 45.666942409779615, 41.814757546061465 ], [ 45.666742513427558, 41.814871895205606 ], [ 45.666571747648312, 41.814962067096168 ], [ 45.666435885293531, 41.815028123844272 ], [ 45.666301152876521, 41.815089386715051 ], [ 45.666167583981434, 41.815145840206043 ], [ 45.66603521342406, 41.815197471509947 ], [ 45.665896810862741, 41.815246679648922 ], [ 45.665748951312288, 41.815294429274473 ], [ 45.665590331634782, 41.815341145820703 ], [ 45.66541815027977, 41.815387657893659 ], [ 45.665259404305843, 41.815426636895538 ], [ 45.665091017065251, 41.815463684581943 ], [ 45.664911296043357, 41.815499179089436 ], [ 45.664716601795377, 41.815533841260901 ], [ 45.664500702371264, 41.815567664739291 ], [ 45.664367467344846, 41.815585608851016 ], [ 45.664257961235535, 41.815600356851455 ], [ 45.664035109022521, 41.815625860367071 ], [ 45.664001507257517, 41.81562940607278 ], [ 45.663741087399728, 41.815654287632725 ], [ 45.663568011671458, 41.815668254804443 ], [ 45.663519918754751, 41.815671701240888 ], [ 45.66334811569147, 41.815683231571811 ], [ 45.66314608465553, 41.815694489417723 ], [ 45.662860921085155, 41.815708064972178 ], [ 45.662751770521496, 41.815711458102243 ], [ 45.662751158746048, 41.815712261443799 ], [ 45.661593523854272, 41.817235016647061 ], [ 45.658877074155264, 41.818612392349223 ], [ 45.656248275873381, 41.820894756805053 ], [ 45.656174338580023, 41.821031098465532 ] ] ] ] } }
]
}
