{
"type": "FeatureCollection",
"name": "ზეგაანი",
"crs": { "type": "name", "properties": { "name": "urn:ogc:def:crs:OGC:1.3:CRS84" } },
"features": [
{ "type": "Feature", "properties": { "OBJECTID": 26, "NAME_GEO": "ზეგაანი", "NAME_ENG": "Zegaani", "Location": "Kakheti", "MoreInfo": "https://www.sakpatenti.gov.ge/media/django-summernote/2025-11-19/f37f2e20-d39d-4f5e-865f-29e6eb84c9fc.pdf" }, "geometry": { "type": "MultiPolygon", "coordinates": [ [ [ [ 45.71708116322641, 41.794820428088151 ], [ 45.719005349237015, 41.797021442313358 ], [ 45.723238989609115, 41.798177212174096 ], [ 45.7260654000738, 41.799293138148464 ], [ 45.728848130601058, 41.799936334364268 ], [ 45.729661149663258, 41.800052646415111 ], [ 45.730603205456333, 41.800095248266253 ], [ 45.73280384281022, 41.800889031771447 ], [ 45.735451979487941, 41.801060392820617 ], [ 45.735967313266507, 41.80034191499027 ], [ 45.736326886857334, 41.799844605120832 ], [ 45.736982471372357, 41.799053858276707 ], [ 45.737442600519849, 41.798478966326229 ], [ 45.737643242867776, 41.798280282886651 ], [ 45.738678425200206, 41.797371215180164 ], [ 45.739352774469985, 41.796723065380412 ], [ 45.739946860281336, 41.796154386718619 ], [ 45.740154939265224, 41.795897950909485 ], [ 45.737709100967699, 41.794947966957579 ], [ 45.737195580446979, 41.794756905315879 ], [ 45.735246685356934, 41.794937939913758 ], [ 45.733760237444415, 41.79507397942826 ], [ 45.733144675819148, 41.795067786770566 ], [ 45.731046946731809, 41.794979927734033 ], [ 45.730366954358345, 41.794660322331865 ], [ 45.729380563733955, 41.794160448030368 ], [ 45.728537817554006, 41.793801373516757 ], [ 45.727594836920296, 41.793549218229032 ], [ 45.726741096952999, 41.793412902267761 ], [ 45.725968631966325, 41.793286190127247 ], [ 45.72592071927474, 41.793235878567977 ], [ 45.726007096754572, 41.793098674446547 ], [ 45.726192814646588, 41.792878469612816 ], [ 45.726788613911573, 41.791960331728973 ], [ 45.726844040419174, 41.791897536125006 ], [ 45.727327177437289, 41.791200558618058 ], [ 45.72764732505901, 41.790803740157827 ], [ 45.728334488181488, 41.789969312774247 ], [ 45.728666429286406, 41.78942057534374 ], [ 45.729195165899945, 41.788931323356401 ], [ 45.729703148488348, 41.788401711040336 ], [ 45.729961659927909, 41.787939479238197 ], [ 45.731546687928237, 41.785780823108873 ], [ 45.732662506816979, 41.78496219760585 ], [ 45.73312722561716, 41.784498644068677 ], [ 45.733487818958899, 41.784096489877939 ], [ 45.734018614439528, 41.783498382370531 ], [ 45.734395466468051, 41.783040445990864 ], [ 45.733661460874956, 41.782718673586537 ], [ 45.733501749439817, 41.782648833249546 ], [ 45.734198157335264, 41.781858367338579 ], [ 45.733841924667693, 41.781692603906457 ], [ 45.733452995882189, 41.781505789962246 ], [ 45.733313612702375, 41.781439362883226 ], [ 45.733119866150567, 41.781349494370758 ], [ 45.732729022292894, 41.781172306875547 ], [ 45.732684667518441, 41.781137160114184 ], [ 45.732609770764228, 41.78109208432047 ], [ 45.732337777467585, 41.780959690943781 ], [ 45.731838175773213, 41.780732580108207 ], [ 45.731294253975008, 41.780472849606518 ], [ 45.730910555023897, 41.780328510010939 ], [ 45.726408075629791, 41.784338342312836 ], [ 45.725719462498255, 41.785041170624048 ], [ 45.725452572681817, 41.785361726616237 ], [ 45.724919924176795, 41.786104056560859 ], [ 45.724454621124288, 41.786702215126795 ], [ 45.722838210289545, 41.788546655603149 ], [ 45.722212557565314, 41.789202501476062 ], [ 45.721779612990062, 41.789674922427771 ], [ 45.72145147863521, 41.790085946301019 ], [ 45.720811108353139, 41.790879547550283 ], [ 45.718832409794615, 41.792957004568741 ], [ 45.71708116322641, 41.794820428088151 ] ] ] ] } }
]
}
