{
"type": "FeatureCollection",
"name": "თელიანი",
"crs": { "type": "name", "properties": { "name": "urn:ogc:def:crs:OGC:1.3:CRS84" } },
"features": [
{ "type": "Feature", "properties": { "OBJECTID": 10, "NAME_GEO": "თელიანი", "NAME_ENG": "Teliani", "Location": "Kakheti", "MoreInfo": "https://www.sakpatenti.gov.ge/media/django-summernote/2025-11-18/724928fa-44ac-4b9d-bbca-7f43272ddabe.pdf" }, "geometry": { "type": "MultiPolygon", "coordinates": [ [ [ [ 45.63290141559547, 41.957299390335947 ], [ 45.633707196091322, 41.958122060871688 ], [ 45.634447192117136, 41.958329818996113 ], [ 45.634492270028332, 41.958342475542068 ], [ 45.63564156985381, 41.958336118118474 ], [ 45.637813180828871, 41.958395564774221 ], [ 45.63985542725149, 41.95828887971799 ], [ 45.643461745116426, 41.958149573009521 ], [ 45.644291550910388, 41.958121089357014 ], [ 45.645344349038552, 41.958043685858698 ], [ 45.646203910074469, 41.957800548843856 ], [ 45.646836138111638, 41.95717740334161 ], [ 45.646635437325187, 41.956272985820988 ], [ 45.646183448279714, 41.955775096382069 ], [ 45.646085184984884, 41.955716414296269 ], [ 45.645155643405339, 41.955161291159818 ], [ 45.643901998007522, 41.954310441191772 ], [ 45.643379966356413, 41.953193347610082 ], [ 45.64304804898584, 41.95193220477352 ], [ 45.643481291556981, 41.950571454301183 ], [ 45.643766959095657, 41.95001204457887 ], [ 45.64376549835103, 41.949866869510892 ], [ 45.643838934193333, 41.949501899520968 ], [ 45.643902305963877, 41.949186940589534 ], [ 45.643914737845215, 41.94898746013034 ], [ 45.643929790429048, 41.948745927154782 ], [ 45.64402099355852, 41.948292641330418 ], [ 45.644048955390787, 41.947899284913937 ], [ 45.644187436547504, 41.947386158030206 ], [ 45.644344274450255, 41.947111229609412 ], [ 45.644628308225272, 41.946787927078283 ], [ 45.644993216361264, 41.946571405877677 ], [ 45.645326924478674, 41.946426548585237 ], [ 45.645915982245569, 41.946280254953955 ], [ 45.646568995607055, 41.946145513102188 ], [ 45.64727109001776, 41.946129642154382 ], [ 45.647644246158443, 41.946151538861997 ], [ 45.648418953756071, 41.946397212643888 ], [ 45.649699583311204, 41.946771256753351 ], [ 45.650561641428041, 41.946790206108027 ], [ 45.652793792027296, 41.946563063707224 ], [ 45.656901067155466, 41.945538767281477 ], [ 45.660139588714934, 41.94506741805781 ], [ 45.661428807007056, 41.945059998208599 ], [ 45.66263997030692, 41.944886202413592 ], [ 45.663531206545322, 41.944642752625867 ], [ 45.664957859251444, 41.943705119202335 ], [ 45.666576715243664, 41.942837842854708 ], [ 45.667904797862917, 41.941638612269209 ], [ 45.66853711048882, 41.94097519279714 ], [ 45.668891348114492, 41.940977536587091 ], [ 45.669591133600626, 41.940747070758107 ], [ 45.670252136086397, 41.939861493641196 ], [ 45.671314967336052, 41.938782040952447 ], [ 45.671880774073479, 41.938358118583153 ], [ 45.675301557984525, 41.936567681487894 ], [ 45.683926646959286, 41.934091336633855 ], [ 45.684577040178262, 41.933700258007015 ], [ 45.686035306127458, 41.932786003119311 ], [ 45.687524421958166, 41.932169385799661 ], [ 45.688096518039764, 41.931558324088527 ], [ 45.689106907723414, 41.930551392525608 ], [ 45.690944360005702, 41.92930117485092 ], [ 45.6924693467396, 41.928672400198643 ], [ 45.69341941487324, 41.927999417956471 ], [ 45.694300478094135, 41.926850239696243 ], [ 45.694855962157888, 41.925107267222693 ], [ 45.695160851989101, 41.924236858367706 ], [ 45.695127056373877, 41.924198180083408 ], [ 45.692397709997003, 41.922504991843752 ], [ 45.690674760568356, 41.921333384447358 ], [ 45.689286975954602, 41.920464768196446 ], [ 45.689080300404257, 41.920235648270705 ], [ 45.688796577114395, 41.919814362500794 ], [ 45.688640991443386, 41.919439967550581 ], [ 45.688468813781412, 41.919006096871215 ], [ 45.688355353924358, 41.91883996446829 ], [ 45.688201309464112, 41.918608542271471 ], [ 45.688039609420805, 41.918406953672871 ], [ 45.687876950735451, 41.918116005849896 ], [ 45.687062988891626, 41.917340435528565 ], [ 45.686715355862745, 41.916907611759562 ], [ 45.686537585409035, 41.916694201181066 ], [ 45.685916928564353, 41.916090236344331 ], [ 45.685481448997194, 41.915646018447426 ], [ 45.685126369370295, 41.915260894182119 ], [ 45.684812256647945, 41.914976803360688 ], [ 45.684122269586858, 41.914599630769203 ], [ 45.683096739547246, 41.914170832648871 ], [ 45.68263205676849, 41.913976995335645 ], [ 45.682231244252087, 41.913788734621171 ], [ 45.681966780060662, 41.913671153736374 ], [ 45.681734093151199, 41.913541468569235 ], [ 45.681509445404316, 41.913417692266883 ], [ 45.681116362349506, 41.913205551738052 ], [ 45.680843864461195, 41.913082057946632 ], [ 45.680723535086841, 41.913017238355032 ], [ 45.680250575507451, 41.91279365243296 ], [ 45.679833573737447, 41.912581648273253 ], [ 45.679488669230658, 41.912399004851515 ], [ 45.678903241092833, 41.91209863079461 ], [ 45.678133187501288, 41.911686149346814 ], [ 45.677835767018038, 41.91146747453918 ], [ 45.677463988483645, 41.91100497582643 ], [ 45.677069673234648, 41.910673676628022 ], [ 45.676843787033903, 41.91043074644903 ], [ 45.676769995718821, 41.91024053842154 ], [ 45.676552904421271, 41.910075005674734 ], [ 45.676447151383705, 41.909879027778324 ], [ 45.676326016163834, 41.909736759308771 ], [ 45.676237157491336, 41.909630045684075 ], [ 45.676131720495405, 41.909463853614596 ], [ 45.675865966833101, 41.909221157092247 ], [ 45.675632176456666, 41.908984228937712 ], [ 45.675422125888524, 41.908729287678703 ], [ 45.675228088284499, 41.908480209821867 ], [ 45.675082280144345, 41.908266594054091 ], [ 45.674824321412316, 41.908005975347166 ], [ 45.674332145790565, 41.907466725545255 ], [ 45.673946910279959, 41.907236641095331 ], [ 45.67369046232978, 41.907118993903957 ], [ 45.673506040847279, 41.907024753749134 ], [ 45.673384227739319, 41.906816952079474 ], [ 45.673270890198424, 41.906656761578098 ], [ 45.672789341443526, 41.906367661839724 ], [ 45.672435577527736, 41.906095684817991 ], [ 45.672033970639681, 41.905823985797738 ], [ 45.671920638245759, 41.90566379389854 ], [ 45.671815219055055, 41.905497597621789 ], [ 45.671606506345178, 41.905367751409678 ], [ 45.670556972833332, 41.904909192629916 ], [ 45.669898577046446, 41.904484088121912 ], [ 45.669390770344386, 41.903968737962956 ], [ 45.669038216971217, 41.903809937418863 ], [ 45.668373819976864, 41.903300400000411 ], [ 45.66773469408281, 41.902697495432868 ], [ 45.667340605642565, 41.902378075017012 ], [ 45.667301618974243, 41.902345726853738 ], [ 45.666826846325797, 41.902053392053411 ], [ 45.666157557763341, 41.901342363661016 ], [ 45.665215190708388, 41.900442270183426 ], [ 45.663991294559949, 41.899305493475175 ], [ 45.663186574223793, 41.898601188336791 ], [ 45.660824354160923, 41.896875184463312 ], [ 45.659019403267855, 41.895825101488832 ], [ 45.658315110711278, 41.895572964441314 ], [ 45.6576695470361, 41.895071169494202 ], [ 45.657452008624006, 41.894963842178093 ], [ 45.657356553498687, 41.89491527833944 ], [ 45.656458370995047, 41.894129935536384 ], [ 45.653503458154916, 41.892109284851223 ], [ 45.653110537474902, 41.891891088439969 ], [ 45.65265395714718, 41.891685167552907 ], [ 45.652348743062419, 41.891466470008034 ], [ 45.651987115402093, 41.891188515734704 ], [ 45.651769728734706, 41.890981233009292 ], [ 45.651568107236763, 41.890755988269454 ], [ 45.651438908716102, 41.890595864748221 ], [ 45.651341600239597, 41.890435561103416 ], [ 45.651196518200145, 41.890281486271071 ], [ 45.651027577707133, 41.890133503592779 ], [ 45.650858760147635, 41.889997435029315 ], [ 45.650738383400586, 41.889920667952815 ], [ 45.65033696853336, 41.889648891823164 ], [ 45.649936100549795, 41.889430729426842 ], [ 45.649542544528138, 41.889146990041525 ], [ 45.649212831957797, 41.888868846360886 ], [ 45.649019440353307, 41.888667380651512 ], [ 45.648673245322144, 41.888335710283485 ], [ 45.648464996758747, 41.88824156406239 ], [ 45.64804118959141, 41.888118845965813 ], [ 45.647570572735688, 41.888097670616482 ], [ 45.647382946758739, 41.888099650787176 ], [ 45.647211390031558, 41.888057992304105 ], [ 45.646922892950151, 41.887987935619734 ], [ 45.646731839500887, 41.887941541502194 ], [ 45.645938304898216, 41.887523016860136 ], [ 45.64534528883064, 41.887222511646428 ], [ 45.644898177277824, 41.88715949003339 ], [ 45.644602720670086, 41.887113487671215 ], [ 45.644115448354739, 41.887020899396134 ], [ 45.643859615405212, 41.886950842720182 ], [ 45.643474970888668, 41.886756396797601 ], [ 45.643274587072099, 41.886650282877483 ], [ 45.642898335773872, 41.886497491202896 ], [ 45.642562484896004, 41.886398091426756 ], [ 45.642202598679475, 41.886286910004472 ], [ 45.641994007104593, 41.886157008684634 ], [ 45.64176969275087, 41.886034425495957 ], [ 45.641745317918499, 41.886003500013025 ], [ 45.641656549876522, 41.88589675855534 ], [ 45.64154956533045, 41.885842932781912 ], [ 45.641504303437252, 41.885820160685661 ], [ 45.641328438408614, 41.885773481756139 ], [ 45.641184521517204, 41.885732582171087 ], [ 45.641080406220723, 41.885685502232441 ], [ 45.640952435024197, 41.885644513338001 ], [ 45.640816729449213, 41.885627397612971 ], [ 45.640681201300488, 41.885628153802841 ], [ 45.640442095169227, 41.885635445512726 ], [ 45.64013189389992, 41.885708666417479 ], [ 45.639836625582689, 41.885680523782163 ], [ 45.639444800374299, 41.885563553649597 ], [ 45.638316513061561, 41.88514683864188 ], [ 45.637963843230708, 41.884958154417248 ], [ 45.63761141120014, 41.884793298839071 ], [ 45.637403486264901, 41.884728918812598 ], [ 45.637059857996839, 41.884647419124477 ], [ 45.636756504967664, 41.884607398324555 ], [ 45.636284971300498, 41.884490859309935 ], [ 45.635989414755734, 41.884432920211964 ], [ 45.635621461341039, 41.884309846790138 ], [ 45.635324961907763, 41.884156589649102 ], [ 45.635083972614112, 41.883973235712595 ], [ 45.634974088085848, 41.883879566578948 ], [ 45.634752285357031, 41.883486543965603 ], [ 45.634245046717666, 41.882982948721697 ], [ 45.633771645554525, 41.882675764694362 ], [ 45.633370877100134, 41.882457543517447 ], [ 45.63319526236625, 41.882434681774015 ], [ 45.632915187412948, 41.882457709591186 ], [ 45.632635951276406, 41.882630791561894 ], [ 45.632622129572816, 41.882640334741765 ], [ 45.632335101409382, 41.882838508590176 ], [ 45.632290631054857, 41.88285305352921 ], [ 45.632116757036705, 41.883014938668133 ], [ 45.631432257541107, 41.88345242007108 ], [ 45.630678017603273, 41.883933174335162 ], [ 45.629465510414285, 41.884511759787578 ], [ 45.628671668885936, 41.884859267894541 ], [ 45.627813386796575, 41.885140396920022 ], [ 45.626967294228706, 41.885364259870876 ], [ 45.625802353987837, 41.885594620954492 ], [ 45.622867482220919, 41.886153912198537 ], [ 45.621439762587478, 41.886401240258358 ], [ 45.621287688935936, 41.886450957344074 ], [ 45.621084738085557, 41.88647813070385 ], [ 45.619575903565625, 41.886767481119904 ], [ 45.618647076949649, 41.887015559266032 ], [ 45.617572515127904, 41.887364502546639 ], [ 45.616071760587467, 41.887834875544769 ], [ 45.615124593600378, 41.888168813222002 ], [ 45.613153328182662, 41.888798948381307 ], [ 45.611569954643031, 41.889307832938847 ], [ 45.610260002910081, 41.889729451546657 ], [ 45.609465401305116, 41.890014871352953 ], [ 45.607188587602025, 41.890722783011043 ], [ 45.603704050066995, 41.891885018562888 ], [ 45.602705596391452, 41.892204825970744 ], [ 45.601942465125518, 41.892451899194874 ], [ 45.601268313438361, 41.892665139469919 ], [ 45.600829760265796, 41.892834248558316 ], [ 45.600518463391197, 41.89296932764946 ], [ 45.60006103818899, 41.893167128116062 ], [ 45.599648706218076, 41.893412353382892 ], [ 45.599122581007876, 41.893767790631621 ], [ 45.59840713748131, 41.894343452488933 ], [ 45.597724996277435, 41.895071451903348 ], [ 45.596587556852427, 41.896230762143226 ], [ 45.595108885721253, 41.897744520740574 ], [ 45.593851384666067, 41.899037876264615 ], [ 45.59256277431961, 41.900421934210506 ], [ 45.591703156593667, 41.901289029035325 ], [ 45.591512875712112, 41.901409161713808 ], [ 45.591278597618881, 41.901601011864798 ], [ 45.590688827823136, 41.901985334298118 ], [ 45.589312071832936, 41.902816942565309 ], [ 45.587548353053876, 41.903893584071611 ], [ 45.587073067877739, 41.904243940039372 ], [ 45.586705402713775, 41.904503187484629 ], [ 45.58635761622471, 41.904843356204935 ], [ 45.586016598454179, 41.905226384933833 ], [ 45.585606966060631, 41.905781340530929 ], [ 45.585029202769988, 41.90678993032332 ], [ 45.584345178319559, 41.908042127816316 ], [ 45.583514036938872, 41.909256941264907 ], [ 45.582945502188075, 41.909884185553224 ], [ 45.58239471089081, 41.910358822850966 ], [ 45.582072140566467, 41.910565844028817 ], [ 45.582007895457437, 41.910622919450596 ], [ 45.581303573552759, 41.9110554339575 ], [ 45.580230214432113, 41.911604197079278 ], [ 45.579806316469302, 41.911875517782747 ], [ 45.580358090790888, 41.912337527576817 ], [ 45.580487032165919, 41.91242086470546 ], [ 45.580510785131949, 41.912448105345149 ], [ 45.580794685069471, 41.91263558371876 ], [ 45.582502645770127, 41.913808920875148 ], [ 45.583247397608609, 41.914310344462024 ], [ 45.584159449770098, 41.914963427982137 ], [ 45.585142145294029, 41.915663804305289 ], [ 45.585144476222609, 41.915666837608981 ], [ 45.585053466345215, 41.915735747239374 ], [ 45.585353156027423, 41.9159383731673 ], [ 45.586067956615047, 41.916421655303409 ], [ 45.586568414600038, 41.916719363236204 ], [ 45.586883000027306, 41.916927463492172 ], [ 45.587370835361909, 41.917239530615994 ], [ 45.587500710207905, 41.917358141628526 ], [ 45.587627778651253, 41.917424092701303 ], [ 45.588078165585713, 41.917826904040773 ], [ 45.588977204720038, 41.91844188626466 ], [ 45.589877841202629, 41.919228431606726 ], [ 45.590713983989772, 41.919939045078252 ], [ 45.591048226158684, 41.92019945908153 ], [ 45.591442781201302, 41.920706155191368 ], [ 45.591610086171485, 41.920921009230099 ], [ 45.59201691150173, 41.921438414833084 ], [ 45.592987911231617, 41.922234104295178 ], [ 45.594392878804584, 41.923027540650914 ], [ 45.595171776278718, 41.923337293435907 ], [ 45.595236170240049, 41.923373601740522 ], [ 45.59547530107907, 41.923446112600736 ], [ 45.596141645223547, 41.923728619717259 ], [ 45.596558846125632, 41.923983821252946 ], [ 45.596787855909703, 41.924248491979419 ], [ 45.596829806242425, 41.924296973344497 ], [ 45.597131698076694, 41.924505111136575 ], [ 45.597497810455927, 41.924755808525155 ], [ 45.597690951202132, 41.924935914303013 ], [ 45.597896990767111, 41.925130250770735 ], [ 45.598224641168223, 41.92536208152849 ], [ 45.598533058355457, 41.925584479773796 ], [ 45.598751642912887, 41.925754918376697 ], [ 45.598918461475172, 41.925849370197156 ], [ 45.599154900187493, 41.925881498505468 ], [ 45.59935021045176, 41.925975029141753 ], [ 45.599520670181285, 41.926094062959251 ], [ 45.600104855762474, 41.926457998572644 ], [ 45.600357367150146, 41.926842730401212 ], [ 45.601690802964335, 41.928832733895227 ], [ 45.601768308000217, 41.928881202718308 ], [ 45.602287879413907, 41.929206122445528 ], [ 45.602400959262546, 41.929292184733505 ], [ 45.602424115141631, 41.929309808293901 ], [ 45.60305287355574, 41.92978833321142 ], [ 45.603818389521258, 41.930430916228474 ], [ 45.605149191468556, 41.931455090527102 ], [ 45.60558006134336, 41.93188074705072 ], [ 45.606095424861032, 41.932284029975527 ], [ 45.607259595417105, 41.933221559504183 ], [ 45.608320637593515, 41.93405000452271 ], [ 45.608357728045803, 41.934090915561036 ], [ 45.608391526333776, 41.934121119734442 ], [ 45.608468661140428, 41.934177903639288 ], [ 45.608590565398742, 41.934243982909457 ], [ 45.608680193478541, 41.934272104126769 ], [ 45.608770004122427, 41.934319287920623 ], [ 45.608847048851054, 41.934366540238912 ], [ 45.608922539565846, 41.93449439013542 ], [ 45.609066461746131, 41.934617977989461 ], [ 45.609574503609245, 41.935015631273885 ], [ 45.610185767340404, 41.935527119025082 ], [ 45.610700479367978, 41.935953328111594 ], [ 45.611318097587912, 41.93646001047756 ], [ 45.611646081096602, 41.936715630525491 ], [ 45.611922002253017, 41.936866674572869 ], [ 45.611945186031598, 41.936872395466672 ], [ 45.612063428383429, 41.9369707741795 ], [ 45.612913409509765, 41.937743107474446 ], [ 45.613136567125238, 41.937899891884669 ], [ 45.61327295639186, 41.937960426203034 ], [ 45.613433170711424, 41.938026295639418 ], [ 45.613548612642603, 41.938082871410337 ], [ 45.613863802045302, 41.938333787946604 ], [ 45.614459541530245, 41.938859839064776 ], [ 45.615569879041018, 41.939840260116434 ], [ 45.616793475871106, 41.940953716826691 ], [ 45.617448984824229, 41.941407734971484 ], [ 45.61846671588826, 41.942350702720795 ], [ 45.618595490482313, 41.942464394093214 ], [ 45.618731339317272, 41.942649538786263 ], [ 45.618943790433242, 41.942834269487889 ], [ 45.619155967331935, 41.9429904049939 ], [ 45.619323828212117, 41.943184908121331 ], [ 45.619646695294385, 41.943564450302389 ], [ 45.619930341464048, 41.943848882726684 ], [ 45.620148953098116, 41.944009747963399 ], [ 45.620438246979042, 41.944217891588337 ], [ 45.621088311273368, 41.944762473178422 ], [ 45.621255627479989, 41.944899782927685 ], [ 45.621365122337139, 41.944999278220415 ], [ 45.621609832198793, 41.945217191911198 ], [ 45.621892659539554, 41.945415834137378 ], [ 45.622060026730402, 41.945557909662227 ], [ 45.622198378140027, 41.945619537662665 ], [ 45.622451149662197, 41.945732133783871 ], [ 45.622880856823649, 41.945934743502676 ], [ 45.623221146516336, 41.946133070664537 ], [ 45.623471692807684, 41.94629375613917 ], [ 45.623613855264772, 41.946469327932675 ], [ 45.623762031082961, 41.946606738836905 ], [ 45.62421821267462, 41.946904521110831 ], [ 45.624558651211245, 41.947117141578566 ], [ 45.624681014221544, 41.947226095440847 ], [ 45.624869731487884, 41.947592054290276 ], [ 45.625257239004341, 41.948047485459938 ], [ 45.625940467375152, 41.948711009803773 ], [ 45.626443182766288, 41.949194404944706 ], [ 45.626965104860233, 41.949682458390072 ], [ 45.627525573744322, 41.950194130427455 ], [ 45.627673626352347, 41.9503172378285 ], [ 45.627757742339618, 41.950431162864597 ], [ 45.62775853729007, 41.950512181775217 ], [ 45.627714690249547, 41.950598210205527 ], [ 45.627569301514292, 41.950746752500045 ], [ 45.627339444466514, 41.950877415866145 ], [ 45.627213745724234, 41.950948869965977 ], [ 45.626661628391524, 41.951290274173083 ], [ 45.626503280747933, 41.951419821384704 ], [ 45.626434407063421, 41.951558412896269 ], [ 45.626422945416749, 41.951691924792165 ], [ 45.626426614052178, 41.951700870030308 ], [ 45.626461624745538, 41.951729841747728 ], [ 45.626559536814185, 41.951948545482516 ], [ 45.626637969660962, 41.952133993783143 ], [ 45.626646455105295, 41.952348419147036 ], [ 45.626534708538209, 41.95267312013754 ], [ 45.626524876155287, 41.952707982825835 ], [ 45.626460662141874, 41.952935656520765 ], [ 45.626449573690024, 41.95310729524477 ], [ 45.626495758904518, 41.953259556099347 ], [ 45.626748022348934, 41.95359180301314 ], [ 45.62763172798806, 41.954506821551171 ], [ 45.627925712020939, 41.954661152114433 ], [ 45.627991138492234, 41.954695498801577 ], [ 45.628650115204991, 41.954830107119101 ], [ 45.629303272206521, 41.955021936864583 ], [ 45.630052250219343, 41.955218002508076 ], [ 45.630494814195842, 41.955420513623373 ], [ 45.630825155779114, 41.955704464721585 ], [ 45.630990667820974, 41.955846733451089 ], [ 45.631183620837128, 41.95598865383257 ], [ 45.631459859395953, 41.956158712038302 ], [ 45.631565285407042, 41.956199138638901 ], [ 45.631876471026835, 41.956318465316038 ], [ 45.632225254614148, 41.956721659199474 ], [ 45.63290141559547, 41.957299390335947 ] ] ] ] } }
]
}
