{
"type": "FeatureCollection",
"name": "კოტეხი",
"crs": { "type": "name", "properties": { "name": "urn:ogc:def:crs:OGC:1.3:CRS84" } },
"features": [
{ "type": "Feature", "properties": { "OBJECTID": 18, "NAME_GEO": "კოტეხი", "NAME_ENG": "Kotekhi", "Location": "Kakheti", "MoreInfo": "https://www.sakpatenti.gov.ge/media/django-summernote/2025-11-19/401e5295-cd5a-449c-a642-d26c897be5a5.pdf" }, "geometry": { "type": "MultiPolygon", "coordinates": [ [ [ [ 45.766484544233158, 41.752502897985956 ], [ 45.766345276290416, 41.754171994934246 ], [ 45.765883516469962, 41.755485776847337 ], [ 45.765731480796454, 41.756082564575927 ], [ 45.764860573259362, 41.756445830263822 ], [ 45.7631926437912, 41.756695230721796 ], [ 45.760577010544189, 41.757546659793512 ], [ 45.757801483306487, 41.75833950572266 ], [ 45.757170588255114, 41.758820284606898 ], [ 45.757096627297777, 41.75929739132912 ], [ 45.757821108279586, 41.760007543831776 ], [ 45.763154725743483, 41.760210548071797 ], [ 45.778355793143128, 41.760466034235044 ], [ 45.785838466395504, 41.760712983829542 ], [ 45.787357475269609, 41.761298357343414 ], [ 45.789363397885609, 41.762654870676798 ], [ 45.793453598481236, 41.765248095156011 ], [ 45.800932881209881, 41.771570960132138 ], [ 45.808180114932824, 41.778312000357737 ], [ 45.81154900620249, 41.780373449455659 ], [ 45.81442850709734, 41.781485035750769 ], [ 45.819287262520291, 41.78174837288902 ], [ 45.826442691638661, 41.78110134908141 ], [ 45.831925852021882, 41.780406424834879 ], [ 45.837092864857169, 41.779892275175349 ], [ 45.838125947497112, 41.779765588690346 ], [ 45.844240651373127, 41.76655427674563 ], [ 45.846261730648791, 41.762905200077526 ], [ 45.84818262622391, 41.757707815791981 ], [ 45.850269401737656, 41.753045364680418 ], [ 45.852829223482537, 41.74808147537852 ], [ 45.84208652821853, 41.741785933277228 ], [ 45.838245360230857, 41.740026698098703 ], [ 45.831388183138237, 41.738765815543289 ], [ 45.82189825266898, 41.736868034617622 ], [ 45.81885702559029, 41.735400310111238 ], [ 45.816994555784653, 41.732792156879135 ], [ 45.815763171059238, 41.729762449992563 ], [ 45.81413579920811, 41.726854688902542 ], [ 45.81165561379855, 41.72568068276442 ], [ 45.810939177136738, 41.72562616356366 ], [ 45.80913486721883, 41.727604945167243 ], [ 45.80827402063624, 41.728720637310822 ], [ 45.807184634364482, 41.729371733064582 ], [ 45.805041017427541, 41.729672744593564 ], [ 45.803136849177662, 41.730043534809475 ], [ 45.802381848125755, 41.73072799511079 ], [ 45.801823476830876, 41.731875782258797 ], [ 45.800932836030455, 41.73316886989555 ], [ 45.800469412348114, 41.73428024216814 ], [ 45.799568515038601, 41.734751219338413 ], [ 45.796853814158339, 41.735199036699683 ], [ 45.793422833469698, 41.735615992274724 ], [ 45.789708112381334, 41.73624927472607 ], [ 45.787094828294627, 41.737196615940604 ], [ 45.786483174473886, 41.737915734432953 ], [ 45.786543107992159, 41.738916226771245 ], [ 45.787077222662703, 41.739663246980321 ], [ 45.787754956719873, 41.740445025105828 ], [ 45.788146798286014, 41.741264508324342 ], [ 45.788251428098306, 41.74201446706406 ], [ 45.787925218839298, 41.742660141206414 ], [ 45.785265666205994, 41.743750744170633 ], [ 45.782028093850059, 41.744416262292368 ], [ 45.778120113285866, 41.744907499721528 ], [ 45.775787939847952, 41.745459467122906 ], [ 45.774789099850807, 41.745752179281702 ], [ 45.774322129987162, 41.746613243186928 ], [ 45.774286426856271, 41.74761438523511 ], [ 45.774824342250028, 41.748683153016124 ], [ 45.775357973246777, 41.749394482968924 ], [ 45.775508048244276, 41.749965413385482 ], [ 45.775084919229172, 41.750504465895034 ], [ 45.773609541162564, 41.750871874239181 ], [ 45.769466711376097, 41.751721862537117 ], [ 45.767227552255349, 41.75209430159002 ], [ 45.766484544233158, 41.752502897985956 ] ] ] ] } }
]
}
