{
"type": "FeatureCollection",
"name": "კარდენახი",
"crs": { "type": "name", "properties": { "name": "urn:ogc:def:crs:OGC:1.3:CRS84" } },
"features": [
{ "type": "Feature", "properties": { "OBJECTID": 14, "NAME_GEO": "კარდენახი", "NAME_ENG": "Kardanakhi", "Location": "Kakheti", "MoreInfo": "https://www.sakpatenti.gov.ge/media/django-summernote/2025-11-19/9b47f966-32bc-437b-a25a-8bf171f116cd.pdf" }, "geometry": { "type": "MultiPolygon", "coordinates": [ [ [ [ 45.899034392335395, 41.697226715816107 ], [ 45.899074792351328, 41.69725173377271 ], [ 45.899116053222905, 41.6972749651935 ], [ 45.899158177313225, 41.697296407356951 ], [ 45.899201161039755, 41.697316062091581 ], [ 45.899245005576226, 41.697333927585881 ], [ 45.899289710919653, 41.697350003838885 ], [ 45.899323683367861, 41.697360657181299 ], [ 45.899498244856183, 41.697232738791961 ], [ 45.899984264921287, 41.696873602249973 ], [ 45.900443732166622, 41.69653088342924 ], [ 45.900881201442907, 41.696201182821987 ], [ 45.901398161344233, 41.695806628918817 ], [ 45.901891053443336, 41.69542470115816 ], [ 45.90236313828072, 41.695052872098763 ], [ 45.902816538125073, 41.694689468934364 ], [ 45.903253567119989, 41.694332626358168 ], [ 45.903674912193516, 41.693981768110604 ], [ 45.904081666557325, 41.693635985062166 ], [ 45.904474648771874, 41.693294581888516 ], [ 45.904893873221368, 41.692921552439465 ], [ 45.905297904380078, 41.692552440298414 ], [ 45.905687399839984, 41.692186641476262 ], [ 45.90606287822142, 41.691823670156175 ], [ 45.906424886309829, 41.691462994351305 ], [ 45.906773705161577, 41.69110432915069 ], [ 45.907109672668568, 41.690747330641003 ], [ 45.907134829944653, 41.69071966604676 ], [ 45.907233202124814, 41.690611487050518 ], [ 45.907433060129925, 41.690391705865693 ], [ 45.90774446157544, 41.690036784619593 ], [ 45.907895594761563, 41.689859662846018 ], [ 45.908043713674566, 41.6896827295161 ], [ 45.908188844380973, 41.689505956513727 ], [ 45.908331005788391, 41.689329319381777 ], [ 45.908470215602534, 41.689152793672264 ], [ 45.90852560482007, 41.689081083210318 ], [ 45.908537193923245, 41.689065245509511 ], [ 45.908759772269796, 41.688757245893768 ], [ 45.908978170595297, 41.688451129841432 ], [ 45.909190815815641, 41.688149097628475 ], [ 45.909396353254927, 41.687853069496626 ], [ 45.909593110751565, 41.687565455489455 ], [ 45.910062713075263, 41.686872131754001 ], [ 45.910381027785782, 41.686394343952038 ], [ 45.910665561019776, 41.68595577383217 ], [ 45.910917830369449, 41.685553186907548 ], [ 45.911039688100857, 41.685352571137905 ], [ 45.911155453475757, 41.685157423066855 ], [ 45.911265590130363, 41.684966959028053 ], [ 45.911370419520047, 41.684780623457108 ], [ 45.911470281525126, 41.68459780479786 ], [ 45.91156529559408, 41.68441827874166 ], [ 45.911655632646998, 41.684241722393807 ], [ 45.911741420177258, 41.684067886160008 ], [ 45.91182601915812, 41.683889554872067 ], [ 45.911905906887171, 41.683713718019483 ], [ 45.911981167291835, 41.68354018940132 ], [ 45.9120518691239, 41.683368814460927 ], [ 45.912118078590218, 41.68319942875334 ], [ 45.912179832827775, 41.683031936517104 ], [ 45.912203378855125, 41.682963887036401 ], [ 45.91223717117122, 41.682866227561476 ], [ 45.912290127188534, 41.682702208854202 ], [ 45.912338761688865, 41.682539674558285 ], [ 45.912383059688331, 41.682378667131289 ], [ 45.912423038275833, 41.682219117989163 ], [ 45.912458713401591, 41.682060963059861 ], [ 45.91249010219088, 41.681904136460126 ], [ 45.912517210072714, 41.681748594916634 ], [ 45.912540048367717, 41.68159428700244 ], [ 45.912540958698393, 41.681586776013596 ], [ 45.912558621327719, 41.681441171254015 ], [ 45.912579971498815, 41.681289208863618 ], [ 45.912614433255357, 41.681110205906691 ], [ 45.912655474996605, 41.680928376513059 ], [ 45.91277513238191, 41.680429626246294 ], [ 45.912807171236174, 41.680282431885502 ], [ 45.912832502750227, 41.680151597127718 ], [ 45.912855152436322, 41.680010980405058 ], [ 45.912870351265354, 41.679882649911939 ], [ 45.912878347045869, 41.679764498739004 ], [ 45.91287919977821, 41.679655498708762 ], [ 45.912876164615753, 41.679592401500322 ], [ 45.912870401161705, 41.679532377546998 ], [ 45.912861900738335, 41.679475322435756 ], [ 45.912850651419717, 41.679421156998856 ], [ 45.912836635221872, 41.679369798513697 ], [ 45.912819838400466, 41.679321209258873 ], [ 45.912800244680689, 41.679275342525933 ], [ 45.912777840304301, 41.679232159692546 ], [ 45.912752573686554, 41.679191581004119 ], [ 45.912724456061383, 41.679153636092842 ], [ 45.912693469054361, 41.679118299882894 ], [ 45.912659595606343, 41.679085555394103 ], [ 45.912622818632059, 41.679055383844826 ], [ 45.912583122361475, 41.679027774549127 ], [ 45.912540492225219, 41.67900271681124 ], [ 45.912494911263366, 41.678980200854866 ], [ 45.912435247819111, 41.678956543809441 ], [ 45.912367455947212, 41.67893580919705 ], [ 45.91229082482446, 41.678917772065795 ], [ 45.912203895840094, 41.678902087296954 ], [ 45.912121316468109, 41.678890428313665 ], [ 45.912026315607505, 41.678879627140709 ], [ 45.911666167445325, 41.67884749503375 ], [ 45.911518797040259, 41.678831638889584 ], [ 45.911442422162615, 41.678821263248508 ], [ 45.911372670123306, 41.678809902807721 ], [ 45.911308286133817, 41.678797352261107 ], [ 45.911248654515148, 41.678783487698809 ], [ 45.911166429781886, 41.678761345526262 ], [ 45.911083839243837, 41.678736518494155 ], [ 45.911000707923691, 41.678708951244325 ], [ 45.91091681136308, 41.678678572597647 ], [ 45.910832004694861, 41.678645332360375 ], [ 45.910745841027662, 41.678609062037481 ], [ 45.910657921549394, 41.678569594552968 ], [ 45.910567653821658, 41.678526663484782 ], [ 45.910412952693939, 41.678448027289157 ], [ 45.910243471080065, 41.678355853278553 ], [ 45.9100804744185, 41.678263025090679 ], [ 45.909672257816545, 41.678025612307167 ], [ 45.909449199320981, 41.677901558331364 ], [ 45.909331205102689, 41.677839710233108 ], [ 45.909219160620296, 41.677784100955847 ], [ 45.909111057457302, 41.677733734013366 ], [ 45.909005835062054, 41.677688120616857 ], [ 45.908799013101984, 41.677605613423864 ], [ 45.90856397124211, 41.677518881281401 ], [ 45.908338207191584, 41.677440088891629 ], [ 45.907812264910518, 41.677261325091671 ], [ 45.907562670853586, 41.677172897225773 ], [ 45.907343899619732, 41.677090130487144 ], [ 45.907148821529532, 41.677010087388986 ], [ 45.906932076185115, 41.676912977267534 ], [ 45.906716551783816, 41.676808140767342 ], [ 45.906501800810041, 41.67669535895061 ], [ 45.906287252100775, 41.676574333688507 ], [ 45.906072535412584, 41.676444872447647 ], [ 45.905856537559899, 41.676306319280741 ], [ 45.905638280358161, 41.67615804869277 ], [ 45.905416330264018, 41.675999088394462 ], [ 45.905229179283047, 41.675858998941173 ], [ 45.905036735117037, 41.675709595243504 ], [ 45.90483705342205, 41.675549373093553 ], [ 45.904626417674891, 41.675375355154664 ], [ 45.904439525342603, 41.675217361752644 ], [ 45.904233333433048, 41.67504001332901 ], [ 45.903522924492208, 41.674418958686552 ], [ 45.903242703279879, 41.674176638929595 ], [ 45.902953816849866, 41.673932624777215 ], [ 45.902689869658111, 41.673716960944013 ], [ 45.902538523120626, 41.673597113763336 ], [ 45.902391073922345, 41.673483347962353 ], [ 45.902246574801893, 41.673374936017822 ], [ 45.902104388313852, 41.67327139836555 ], [ 45.90196379844167, 41.673172220026373 ], [ 45.901824568653545, 41.67307724073558 ], [ 45.901686338705353, 41.67298621563085 ], [ 45.901548828452938, 41.672898957765597 ], [ 45.90139926315647, 41.672807469098871 ], [ 45.901244480721473, 41.672715963502299 ], [ 45.901084158966377, 41.672624250729932 ], [ 45.900917872859196, 41.672532087297164 ], [ 45.900745348713706, 41.672439314096763 ], [ 45.900565693248026, 41.672345447215953 ], [ 45.900378088442629, 41.67225005798916 ], [ 45.900181282117231, 41.672152509478714 ], [ 45.899835250666534, 41.671986173119777 ], [ 45.899445783881973, 41.671804963639879 ], [ 45.899064706878811, 41.67163170527698 ], [ 45.898110928357234, 41.671202707783117 ], [ 45.897604663365797, 41.670969833207522 ], [ 45.897344313497804, 41.670846589854762 ], [ 45.897102666438414, 41.670729248156952 ], [ 45.896875378925678, 41.670615697546744 ], [ 45.89666021653931, 41.670504817951439 ], [ 45.896420131665892, 41.670376509136908 ], [ 45.896192624088748, 41.670249687883555 ], [ 45.895976295423743, 41.670123573447839 ], [ 45.895770217923221, 41.66999762459433 ], [ 45.895573399120103, 41.669871223121561 ], [ 45.895385522461297, 41.669744154473314 ], [ 45.895206110125308, 41.669616095459183 ], [ 45.895034805358364, 41.669486790394537 ], [ 45.894985922899309, 41.669436517174333 ], [ 45.894879030673458, 41.669312957548883 ], [ 45.894830537054546, 41.669261598584477 ], [ 45.894803053167003, 41.669236242431026 ], [ 45.894776664076836, 41.669215081341591 ], [ 45.894750825600632, 41.669197680909804 ], [ 45.894725255277528, 41.669183855988265 ], [ 45.894706305878643, 41.669176422267185 ], [ 45.894692132176885, 41.669170861762623 ], [ 45.894657063676355, 41.669162336661785 ], [ 45.894619969007287, 41.66915826059649 ], [ 45.894580737459506, 41.669158620015232 ], [ 45.894539299222536, 41.669163405551451 ], [ 45.894495414311947, 41.669172637084685 ], [ 45.894448858693366, 41.669186358688911 ], [ 45.894399279444876, 41.669204675787817 ], [ 45.89431382124981, 41.669243311866367 ], [ 45.894215837243948, 41.669295559531228 ], [ 45.894121220748048, 41.669351058582571 ], [ 45.893930504075136, 41.669467465921365 ], [ 45.89389527553157, 41.669488968664218 ], [ 45.893784673675142, 41.669552136080107 ], [ 45.89368612077503, 41.669601879250848 ], [ 45.893641110602182, 41.669621673678975 ], [ 45.893598354108164, 41.669638351237815 ], [ 45.893426525942893, 41.669698493298313 ], [ 45.893233901491172, 41.66976152587273 ], [ 45.893036867864808, 41.669822808987803 ], [ 45.892503355624541, 41.669984718262981 ], [ 45.892343523148604, 41.670035332456663 ], [ 45.892201058890407, 41.670082503305807 ], [ 45.89176336330619, 41.670231628240067 ], [ 45.89147029840278, 41.670334630473903 ], [ 45.891206030316518, 41.670432199879045 ], [ 45.890968837495244, 41.670525358790634 ], [ 45.890688080034906, 41.670641905706347 ], [ 45.890434906520746, 41.670752256638792 ], [ 45.890201356088127, 41.670859887107831 ], [ 45.889984240706376, 41.670966283766049 ], [ 45.889751365154162, 41.671088313080091 ], [ 45.889511976427201, 41.671221940279722 ], [ 45.889263648192788, 41.671368507234391 ], [ 45.889001334839378, 41.671530985612677 ], [ 45.888810195405576, 41.671654735669129 ], [ 45.888612494229442, 41.671788304294289 ], [ 45.888405599403285, 41.671933459167818 ], [ 45.888183509153002, 41.672094404279697 ], [ 45.887883384788097, 41.672316664807163 ], [ 45.887782075684946, 41.672396040302118 ], [ 45.887693318092516, 41.672469588471934 ], [ 45.887632303407869, 41.672523806632014 ], [ 45.887571408656328, 41.672581952710793 ], [ 45.887510070536443, 41.672644560673227 ], [ 45.887447276068933, 41.672712661542043 ], [ 45.887326891289618, 41.672852917602526 ], [ 45.88710045775418, 41.673132710705978 ], [ 45.887004297241191, 41.673247750633152 ], [ 45.886899195824867, 41.673365134658084 ], [ 45.886798866157456, 41.67346688424967 ], [ 45.886669479493641, 41.673588416751144 ], [ 45.886533760090863, 41.673710561797229 ], [ 45.886391553654271, 41.673833459264173 ], [ 45.886242649960273, 41.673957288187978 ], [ 45.886086917234252, 41.674082166650365 ], [ 45.885923906307596, 41.674208458368177 ], [ 45.885753202271061, 41.674336485357884 ], [ 45.885574177200638, 41.674466718088397 ], [ 45.885309455096689, 41.674652259210035 ], [ 45.885044206632863, 41.674829655992582 ], [ 45.884778491447655, 41.674998870144201 ], [ 45.884512363236652, 41.675159867922794 ], [ 45.884245879288329, 41.675312614658324 ], [ 45.883979085003411, 41.675457084779893 ], [ 45.883712026985037, 41.675593252707586 ], [ 45.883444749471863, 41.675721095582269 ], [ 45.883265334528275, 41.675799973092815 ], [ 45.88286593885595, 41.675965208521212 ], [ 45.882705994623478, 41.676036268779178 ], [ 45.882590875145155, 41.676091964425545 ], [ 45.882467129659702, 41.676155847850588 ], [ 45.88232661746143, 41.676232137379117 ], [ 45.881903881845126, 41.67646748479838 ], [ 45.881766231292438, 41.676539730933349 ], [ 45.881640391882925, 41.676601543499125 ], [ 45.881482946236645, 41.676672882820021 ], [ 45.881305816835621, 41.676747321779757 ], [ 45.881114191237593, 41.676823276706919 ], [ 45.880563354484025, 41.677035389392522 ], [ 45.880394054068127, 41.677104473516472 ], [ 45.880244547755531, 41.677169337299638 ], [ 45.880079867976697, 41.677241384917522 ], [ 45.879600655452279, 41.677445090330238 ], [ 45.879453989318968, 41.677511132886913 ], [ 45.879325432110264, 41.677572701608042 ], [ 45.879186968960703, 41.677644593287724 ], [ 45.879062966137212, 41.677715810352908 ], [ 45.878951132547606, 41.677787673692791 ], [ 45.878850364277085, 41.677860900639473 ], [ 45.878754587402724, 41.677939671901107 ], [ 45.878659107741207, 41.678027149726354 ], [ 45.87856362615517, 41.678123603011102 ], [ 45.878467598632469, 41.678229581740517 ], [ 45.878372147295799, 41.678343586669776 ], [ 45.878273894699205, 41.678469402252503 ], [ 45.878171243328211, 41.678608917756961 ], [ 45.878051284104046, 41.678779662240203 ], [ 45.877998914620058, 41.678859103698407 ], [ 45.877951974460508, 41.678938203720762 ], [ 45.877910456585219, 41.679016973176132 ], [ 45.877874355142787, 41.679095422022804 ], [ 45.877843666696521, 41.679173561100562 ], [ 45.877818385443554, 41.679251403968628 ], [ 45.877798506745428, 41.679328961474425 ], [ 45.877784028402857, 41.679406247148073 ], [ 45.877774948093993, 41.679483265512886 ], [ 45.877771262528015, 41.679560038212109 ], [ 45.877772970718723, 41.6796365796651 ], [ 45.87778007290553, 41.679712906082408 ], [ 45.877792571669268, 41.679789029152438 ], [ 45.877810468499426, 41.679864968677549 ], [ 45.877833767226925, 41.679940739937919 ], [ 45.87786247413424, 41.68001636179703 ], [ 45.87789653491253, 41.680091726581061 ], [ 45.877936002031447, 41.68016698069929 ], [ 45.877980884188261, 41.680242143895171 ], [ 45.878031197312765, 41.680317237657526 ], [ 45.878086952529522, 41.680392283511075 ], [ 45.878148171848686, 41.680467308300841 ], [ 45.878214873652055, 41.680542337097286 ], [ 45.878287084767784, 41.680617397607676 ], [ 45.878364799196028, 41.68069248896672 ], [ 45.878448079069685, 41.680767672836872 ], [ 45.878536959700625, 41.680842982262135 ], [ 45.878631486085411, 41.68091845561576 ], [ 45.878731699531315, 41.680994124993262 ], [ 45.878837663190936, 41.68107003853482 ], [ 45.878949440205353, 41.681146243478906 ], [ 45.879067106968066, 41.681222789663614 ], [ 45.879263337180305, 41.68134343663781 ], [ 45.879474609258104, 41.681465302106382 ], [ 45.879701400447907, 41.681588662451972 ], [ 45.879944369338666, 41.68171387552362 ], [ 45.880203936108344, 41.681841172183248 ], [ 45.880481546493186, 41.681971273514179 ], [ 45.880778576772279, 41.682104827252083 ], [ 45.881097191068875, 41.682242806527782 ], [ 45.88136889075647, 41.682356939195898 ], [ 45.881658544678622, 41.682475681090629 ], [ 45.881969216024793, 41.682600292971507 ], [ 45.882307008463627, 41.68273322365841 ], [ 45.882945961199688, 41.682979585823873 ], [ 45.884551684442187, 41.683590455727646 ], [ 45.884994324707073, 41.683761843005868 ], [ 45.885388987192094, 41.683917490923989 ], [ 45.885804220143385, 41.68408519517228 ], [ 45.886186577985754, 41.684244253368831 ], [ 45.886542410713098, 41.684397310862778 ], [ 45.88687496704047, 41.68454577044615 ], [ 45.887214686479453, 41.684704053578955 ], [ 45.887531670189951, 41.684859148961145 ], [ 45.887827520791646, 41.685011840622643 ], [ 45.88796786085117, 41.685087459360858 ], [ 45.888103295789918, 41.685162676289025 ], [ 45.888234058095378, 41.685237622931794 ], [ 45.888360090861624, 41.685312269121113 ], [ 45.888481469215982, 41.685386662029046 ], [ 45.888598258538806, 41.685460838994437 ], [ 45.888710523108841, 41.685534844569396 ], [ 45.888818308936109, 41.685608705432486 ], [ 45.888921659727401, 41.685682455485008 ], [ 45.889020617889351, 41.685756121432043 ], [ 45.889433111037903, 41.68606698966795 ], [ 45.889899968456973, 41.686413075369032 ], [ 45.891399399020166, 41.687508219857463 ], [ 45.89190994587841, 41.68788360681414 ], [ 45.892363508919267, 41.688221613443972 ], [ 45.892772343976269, 41.688531616112854 ], [ 45.89303782240043, 41.68873639172277 ], [ 45.89329052408381, 41.688934363938827 ], [ 45.893532211504116, 41.689126914331432 ], [ 45.893764019380299, 41.689314950160693 ], [ 45.893987186011323, 41.689499480548896 ], [ 45.894202069996787, 41.689680810797014 ], [ 45.894409247562038, 41.689859428250962 ], [ 45.89460915035751, 41.690035705185622 ], [ 45.894828776811238, 41.690234349355414 ], [ 45.895039861373263, 41.690430773640891 ], [ 45.8952427788834, 41.690625326443524 ], [ 45.895437822752889, 41.690818289242003 ], [ 45.8956252987537, 41.691009967733962 ], [ 45.895805361676629, 41.691200524677974 ], [ 45.895978197994246, 41.691390154107715 ], [ 45.896143957762909, 41.691579023317253 ], [ 45.896302967103374, 41.691767517095862 ], [ 45.896455130857952, 41.691955537136778 ], [ 45.89660055164515, 41.69214320876506 ], [ 45.896739312648485, 41.69233064214378 ], [ 45.896871501972385, 41.692517955502218 ], [ 45.896997173516588, 41.692705226803646 ], [ 45.897116384899434, 41.692892542087129 ], [ 45.897229187645067, 41.693079981133117 ], [ 45.897284355915538, 41.693177735027355 ], [ 45.897338476856831, 41.693280444627824 ], [ 45.897391647954954, 41.693388292917696 ], [ 45.897443990440628, 41.693501528445694 ], [ 45.897495580924321, 41.69362030193227 ], [ 45.897546663764786, 41.693745160897784 ], [ 45.897597445511643, 41.693876612625793 ], [ 45.897648235242357, 41.6940154509225 ], [ 45.897732691400947, 41.694262315789416 ], [ 45.897821512859991, 41.69454166812065 ], [ 45.897903388086227, 41.694813257451536 ], [ 45.89808894502049, 41.695444888225225 ], [ 45.898182203543605, 41.695748119168449 ], [ 45.898277280592751, 41.696032823682614 ], [ 45.898322890115502, 41.696158515844253 ], [ 45.898367965942825, 41.69627520604157 ], [ 45.89842054315654, 41.696401641709471 ], [ 45.898473337824022, 41.696518128301904 ], [ 45.898526702015978, 41.696625441272545 ], [ 45.898580889130137, 41.696724087536104 ], [ 45.898636193560527, 41.696814583593799 ], [ 45.898692729412382, 41.696897098784639 ], [ 45.898750663464916, 41.696971874091567 ], [ 45.898810131529082, 41.697039084087272 ], [ 45.898881427222442, 41.69710877213727 ], [ 45.898926173837665, 41.697146211047162 ], [ 45.898956182052181, 41.697171317540601 ], [ 45.899034392335395, 41.697226715816107 ] ] ] ] } }
]
}
