{
"type": "FeatureCollection",
"name": "მაღრაანის ქისი",
"crs": { "type": "name", "properties": { "name": "urn:ogc:def:crs:OGC:1.3:CRS84" } },
"features": [
{ "type": "Feature", "properties": { "OBJECTID": 25, "NAME_GEO": "მაღრაანის ქისი", "NAME_ENG": "Kisi Magraani", "Location": "Kakheti", "MoreInfo": "https://www.sakpatenti.gov.ge/media/django-summernote/2025-11-19/0ecbee05-f105-41a2-9bbb-7495c5b9bd48.pdf" }, "geometry": { "type": "MultiPolygon", "coordinates": [ [ [ [ 45.339143813807532, 42.076371151697053 ], [ 45.338915016516573, 42.076320011225739 ], [ 45.338525095015932, 42.076232856627996 ], [ 45.337410656759722, 42.075983746708076 ], [ 45.337376094217809, 42.075976020741621 ], [ 45.335939633673512, 42.075313000032892 ], [ 45.334709207192695, 42.074897189728198 ], [ 45.333453010342296, 42.074443313707313 ], [ 45.332607323792708, 42.074197937655057 ], [ 45.33112027411439, 42.07363032183612 ], [ 45.330120195182076, 42.073213797332848 ], [ 45.329069349721593, 42.072873665303106 ], [ 45.327941460554662, 42.072476552284328 ], [ 45.327018572943381, 42.072136036606544 ], [ 45.326403807947422, 42.072004339519879 ], [ 45.325533276809516, 42.071892428145567 ], [ 45.324765968641309, 42.071951793585349 ], [ 45.324152858968567, 42.072144166557877 ], [ 45.323361024901871, 42.072413293823047 ], [ 45.323226610015979, 42.072494993409187 ], [ 45.322825343331623, 42.072738888684562 ], [ 45.320047855950499, 42.075034332780547 ], [ 45.319692878140586, 42.075683493640724 ], [ 45.319601427607488, 42.075926013305647 ], [ 45.318303914816838, 42.079366680028308 ], [ 45.317975186506757, 42.07980212206715 ], [ 45.317898729411823, 42.07990339973248 ], [ 45.315892206273183, 42.081873186288099 ], [ 45.312559746293537, 42.087244015981369 ], [ 45.311605263732943, 42.088318951729292 ], [ 45.310172607088845, 42.089752620563196 ], [ 45.309389012422621, 42.093090903900425 ], [ 45.308764157861667, 42.096190455347383 ], [ 45.309253932060066, 42.098214665285333 ], [ 45.317807984374838, 42.113204011878402 ], [ 45.318294007087552, 42.114394148357079 ], [ 45.329251175369237, 42.125216734052501 ], [ 45.344252406539105, 42.126958364600135 ], [ 45.35002354988525, 42.128608977704062 ], [ 45.359639188774501, 42.130723906554202 ], [ 45.368624858740482, 42.134508124657813 ], [ 45.372538232741903, 42.136354525349809 ], [ 45.37645897613757, 42.136008044575021 ], [ 45.380709766052107, 42.134484177683234 ], [ 45.384899501597886, 42.132569390210271 ], [ 45.387889672700943, 42.128067173389056 ], [ 45.391584751984631, 42.123899133135858 ], [ 45.392191823096525, 42.122985116025369 ], [ 45.393022823103422, 42.12173410525196 ], [ 45.395271884348283, 42.118346071015281 ], [ 45.398958017284563, 42.112793017816713 ], [ 45.401722099971607, 42.108627987838844 ], [ 45.402634161699289, 42.105853941688999 ], [ 45.403542211462046, 42.102387892509384 ], [ 45.405367305933765, 42.096840851459248 ], [ 45.405345356163508, 42.093377799392044 ], [ 45.404393381868211, 42.089918720711033 ], [ 45.402516391440912, 42.087154682676051 ], [ 45.399709395465322, 42.084394605709484 ], [ 45.396818250573375, 42.083687762176211 ], [ 45.394122335635984, 42.083028570058467 ], [ 45.382930033146856, 42.069954733105369 ], [ 45.383626472496552, 42.069425278041678 ], [ 45.383833871386962, 42.068849493727711 ], [ 45.385513197790544, 42.064186938875714 ], [ 45.378812430156664, 42.062894400194573 ], [ 45.379235790896956, 42.063957375982994 ], [ 45.379716414740081, 42.06574650952215 ], [ 45.380441162238981, 42.068088784144337 ], [ 45.380574588533548, 42.06922445631082 ], [ 45.38064329598047, 42.069809248998176 ], [ 45.380659712249162, 42.069905902240535 ], [ 45.380201658238676, 42.070046719322292 ], [ 45.380793328966199, 42.077485879644776 ], [ 45.378074357020495, 42.078870202423538 ], [ 45.376753251893433, 42.079542777944532 ], [ 45.373821765469337, 42.079320141038096 ], [ 45.371946056297503, 42.078397343241292 ], [ 45.371929101677893, 42.078311590327921 ], [ 45.371817577414845, 42.077747534392209 ], [ 45.369132593603673, 42.07701308703173 ], [ 45.367880685603666, 42.076134659048797 ], [ 45.365819206625936, 42.075398133504059 ], [ 45.365805065821746, 42.075319976679715 ], [ 45.365626057436309, 42.074330522233566 ], [ 45.365892461254226, 42.07337221755752 ], [ 45.365073564004028, 42.073355761319803 ], [ 45.364745960797087, 42.073313761658987 ], [ 45.364202948502367, 42.073244144532083 ], [ 45.363691098565255, 42.073226703607759 ], [ 45.36307700912927, 42.073228648027602 ], [ 45.362148312756062, 42.072857491466799 ], [ 45.354879333974026, 42.069952009869802 ], [ 45.357724262902195, 42.065948930845089 ], [ 45.352100715450845, 42.063458303960516 ], [ 45.352048369151582, 42.063434686350099 ], [ 45.35097600741021, 42.062950856888833 ], [ 45.346451135368454, 42.067562636161433 ], [ 45.347013636585586, 42.067839605512141 ], [ 45.347830288008559, 42.06899825142618 ], [ 45.349079491146036, 42.06945890610011 ], [ 45.349643293664336, 42.069968081325484 ], [ 45.352018908338948, 42.071214826668616 ], [ 45.352008373920341, 42.072269207441352 ], [ 45.351970199414815, 42.076090111185657 ], [ 45.351967652294384, 42.07634500740059 ], [ 45.351901584736787, 42.082957040268511 ], [ 45.351858332138086, 42.087285165935199 ], [ 45.350170518858704, 42.086500770660074 ], [ 45.347257545059151, 42.089714298517563 ], [ 45.341013765383202, 42.088153906208838 ], [ 45.341014694341531, 42.088070663458836 ], [ 45.341158748054831, 42.076620760586522 ], [ 45.339143813807532, 42.076371151697053 ] ] ] ] } }
]
}
