{
"type": "FeatureCollection",
"name": "მუკუზანი",
"crs": { "type": "name", "properties": { "name": "urn:ogc:def:crs:OGC:1.3:CRS84" } },
"features": [
{ "type": "Feature", "properties": { "OBJECTID": 2, "NAME_GEO": "მუკუზანი", "NAME_ENG": "Mukuzani", "Location": "Kakheti", "MoreInfo": "https://www.sakpatenti.gov.ge/media/django-summernote/2025-11-18/947c0dfc-40c2-4e2b-9a01-1a49ecc99c73.pdf" }, "geometry": { "type": "MultiPolygon", "coordinates": [ [ [ [ 45.715843458863077, 41.906550758491555 ], [ 45.717546318855781, 41.909418333243011 ], [ 45.718518680369428, 41.909130471859704 ], [ 45.719466206023746, 41.908280943922783 ], [ 45.720569555028241, 41.907673499623982 ], [ 45.721408473206644, 41.907382268322984 ], [ 45.721849954635367, 41.90732579209805 ], [ 45.722421778593478, 41.907107700577967 ], [ 45.722601093643277, 41.907085306502161 ], [ 45.723202074312709, 41.906798224255887 ], [ 45.724628786207084, 41.906017125524365 ], [ 45.725384472830555, 41.905140162539048 ], [ 45.72673391754968, 41.904302332810893 ], [ 45.727039968124338, 41.90412268169289 ], [ 45.727450520390668, 41.903703319908551 ], [ 45.729472813896002, 41.902010448134568 ], [ 45.730119222558088, 41.901351004855492 ], [ 45.730341738808406, 41.900898486205669 ], [ 45.730477743119458, 41.900621897675954 ], [ 45.730705821674746, 41.899643400334597 ], [ 45.730728751183015, 41.898856851136379 ], [ 45.730690201534124, 41.898273252092821 ], [ 45.730802998691608, 41.897852789232772 ], [ 45.730827884101572, 41.897760022573131 ], [ 45.731227758392727, 41.897268103377051 ], [ 45.731228137625713, 41.897267636213918 ], [ 45.731441255432095, 41.897005458786104 ], [ 45.73234328593427, 41.896392035041281 ], [ 45.733181376271162, 41.895767096503867 ], [ 45.73400650541231, 41.895404368943076 ], [ 45.734690020227966, 41.895209354707291 ], [ 45.735214748945353, 41.895074929194472 ], [ 45.735785810732061, 41.894809136368742 ], [ 45.736421200576949, 41.89459059011039 ], [ 45.736897670400197, 41.894420720382385 ], [ 45.738028069741638, 41.894258563687636 ], [ 45.739045879143809, 41.894013713506929 ], [ 45.739777749691058, 41.893866017895334 ], [ 45.740397445718649, 41.893671380800519 ], [ 45.740906616885809, 41.893572775584893 ], [ 45.741496481044706, 41.89355705322145 ], [ 45.74226271749918, 41.893623594048535 ], [ 45.74341248711125, 41.89375913855379 ], [ 45.744291041402946, 41.893884514707246 ], [ 45.745088345245421, 41.893879344210859 ], [ 45.745678626653067, 41.893899343645025 ], [ 45.746523351687777, 41.893858109248718 ], [ 45.747047627258887, 41.893687886638297 ], [ 45.748827317821636, 41.893140111476285 ], [ 45.750905479947804, 41.892209070056772 ], [ 45.75329703092634, 41.890811242074633 ], [ 45.755150646984234, 41.889939097365264 ], [ 45.755835771735526, 41.88973410679565 ], [ 45.758978494512057, 41.888498026828884 ], [ 45.760990033792048, 41.887352769530587 ], [ 45.762798338591743, 41.886554367733282 ], [ 45.763910031462871, 41.88617760626407 ], [ 45.764684613055898, 41.885612435954599 ], [ 45.765488793730412, 41.884856419700007 ], [ 45.765995803626367, 41.884177931762629 ], [ 45.766508902789994, 41.883491280384398 ], [ 45.766909380799795, 41.882809164357298 ], [ 45.767133953650543, 41.882426652186851 ], [ 45.767224767340998, 41.882020927569179 ], [ 45.767088244639638, 41.881271180690675 ], [ 45.767084967418008, 41.881264713207216 ], [ 45.766859630893528, 41.88081992932571 ], [ 45.766760556096187, 41.880534625147973 ], [ 45.766708598372496, 41.880189431045636 ], [ 45.766733503952004, 41.879605418172076 ], [ 45.766792003732554, 41.879164164282628 ], [ 45.766834274669868, 41.878699187689065 ], [ 45.766878825446824, 41.878424840316612 ], [ 45.766971201387634, 41.878150173517248 ], [ 45.767111403069123, 41.877875186272 ], [ 45.767300853932198, 41.877719023070043 ], [ 45.767602040710663, 41.877574026907055 ], [ 45.768141925384832, 41.877391688420694 ], [ 45.768562827087308, 41.877343873584167 ], [ 45.768810627412371, 41.877315722400311 ], [ 45.770131798867666, 41.877140057426182 ], [ 45.770704129411151, 41.87700514953589 ], [ 45.771086016344412, 41.876943009821922 ], [ 45.7716571964406, 41.876712784446411 ], [ 45.772642342390014, 41.876416199319337 ], [ 45.77291213979035, 41.87633497290485 ], [ 45.773708214224968, 41.876246205087725 ], [ 45.774487193055364, 41.876062226584004 ], [ 45.775076885390298, 41.876046332197298 ], [ 45.775651356452158, 41.876090114681382 ], [ 45.77645088496304, 41.876287270408461 ], [ 45.777332292208889, 41.876662595805207 ], [ 45.778469499448263, 41.877095755948552 ], [ 45.779093254933379, 41.877258338532094 ], [ 45.779843968240513, 41.877372395435572 ], [ 45.780404607689633, 41.877442962103466 ], [ 45.78056251092427, 41.877462835985376 ], [ 45.78132713893357, 41.877409975154741 ], [ 45.781773074220673, 41.877371195141365 ], [ 45.782473933709447, 41.877318760765213 ], [ 45.783174790782716, 41.877266322129095 ], [ 45.783636521035952, 41.877215511209059 ], [ 45.784337377128558, 41.877163065485995 ], [ 45.784718812631702, 41.877065138377986 ], [ 45.785052859960857, 41.877003279121553 ], [ 45.785640514524893, 41.876820531863629 ], [ 45.786164692179085, 41.876662047170704 ], [ 45.786288292714353, 41.876579712231269 ], [ 45.786417713203512, 41.876493501320937 ], [ 45.786573038442967, 41.876158810642956 ], [ 45.786600391861988, 41.875789251192444 ], [ 45.786609904625031, 41.875264916388097 ], [ 45.78660318418121, 41.874716861712223 ], [ 45.786485315478984, 41.874205314311261 ], [ 45.786412107232408, 41.873129261357086 ], [ 45.786407529933619, 41.873061984183416 ], [ 45.786297599031492, 41.872664102511429 ], [ 45.786190664402284, 41.872277063263596 ], [ 45.786186284287226, 41.871919636867702 ], [ 45.786245956790935, 41.871585601168135 ], [ 45.786336781093851, 41.871191776801794 ], [ 45.786346023791815, 41.871166320710969 ], [ 45.786353209046283, 41.871146530459384 ], [ 45.786475568986994, 41.870809538944044 ], [ 45.786567997567396, 41.870546769984436 ], [ 45.786708535841733, 41.870307503315978 ], [ 45.786849220387019, 41.870080149631178 ], [ 45.787006574373443, 41.869912257768739 ], [ 45.787243480945001, 41.869731905316257 ], [ 45.787623697785918, 41.8695386545308 ], [ 45.788068404731852, 41.869404536199454 ], [ 45.788688592547707, 41.869281126223278 ], [ 45.789341830784451, 41.869252808081598 ], [ 45.790715882250922, 41.869505490743165 ], [ 45.791242337172498, 41.869537610880684 ], [ 45.791832846328262, 41.869593117102859 ], [ 45.792312072071461, 41.869673218228648 ], [ 45.792480634207422, 41.86970532711014 ], [ 45.792855353285368, 41.869776706170732 ], [ 45.793379764440836, 41.869750672051914 ], [ 45.793764664216653, 41.869830001045962 ], [ 45.795372378199623, 41.869640148965956 ], [ 45.795754344004294, 41.869589841764117 ], [ 45.796373630890024, 41.869394905259348 ], [ 45.7969763836985, 41.869152418996563 ], [ 45.797876651016864, 41.86847891427837 ], [ 45.798807294486451, 41.867686038699397 ], [ 45.799549169327371, 41.8670970296577 ], [ 45.800777707081828, 41.865908860928137 ], [ 45.803087366226379, 41.863914947286595 ], [ 45.803143191903217, 41.863866750689127 ], [ 45.803930857833784, 41.863122494181717 ], [ 45.804761766647978, 41.862120758447332 ], [ 45.805960930264582, 41.861147213535219 ], [ 45.806531992508276, 41.860928730418856 ], [ 45.807210269150261, 41.860363948232617 ], [ 45.80785890787007, 41.859978099401268 ], [ 45.808126518768731, 41.859716742775873 ], [ 45.808362752190746, 41.859486028609219 ], [ 45.80896086007597, 41.858886054100111 ], [ 45.809291032967721, 41.85852627006529 ], [ 45.809681042625613, 41.857856266544879 ], [ 45.809685098238504, 41.857847123079708 ], [ 45.809882510047998, 41.85740206649205 ], [ 45.810795743466898, 41.856440737189189 ], [ 45.810999266538744, 41.856226490379633 ], [ 45.811469378021464, 41.85559166107663 ], [ 45.811702697794452, 41.855137232629581 ], [ 45.811936164987145, 41.854694716825882 ], [ 45.812116668148015, 41.854185887830475 ], [ 45.812228549316522, 41.853870496447144 ], [ 45.812426668274782, 41.853154179716782 ], [ 45.812609450869182, 41.852485631453618 ], [ 45.813607582609507, 41.850762765925097 ], [ 45.814189324175906, 41.850139049259433 ], [ 45.815041491658896, 41.849477664633625 ], [ 45.815705151269533, 41.849032088042122 ], [ 45.816400368507104, 41.848562453077854 ], [ 45.817682872891588, 41.84790990407226 ], [ 45.817825891025919, 41.847864148067998 ], [ 45.818825588128625, 41.847544304379639 ], [ 45.82009652623902, 41.847237355127092 ], [ 45.821543792899526, 41.847012536372887 ], [ 45.824400310143531, 41.846086506641036 ], [ 45.824859944685393, 41.845892562138395 ], [ 45.825827618794044, 41.845551980887038 ], [ 45.826522722521062, 41.845082284476888 ], [ 45.827106588810018, 41.844637216077473 ], [ 45.828686872747475, 41.843613026439442 ], [ 45.829261627619431, 41.84293923620794 ], [ 45.82936184727162, 41.842821745581013 ], [ 45.831080357023062, 41.841403319678349 ], [ 45.832234335031622, 41.840691962267314 ], [ 45.833339099821096, 41.839873712486067 ], [ 45.834351183407257, 41.839282515192068 ], [ 45.835350105669256, 41.838905880338878 ], [ 45.836331998448784, 41.838445954093665 ], [ 45.837567854058804, 41.837912675236019 ], [ 45.838578934259928, 41.83724995723 ], [ 45.839211997351768, 41.836923620736023 ], [ 45.839624773177718, 41.836598340095691 ], [ 45.839995292881127, 41.836147799370607 ], [ 45.840561176710942, 41.835800866247752 ], [ 45.842328981494383, 41.83452965999679 ], [ 45.843340053046113, 41.833874048653243 ], [ 45.844252405697034, 41.833466992014266 ], [ 45.84511276508335, 41.832984052648222 ], [ 45.846460912386938, 41.832764416644032 ], [ 45.84753119031619, 41.832737459319155 ], [ 45.848375591905913, 41.832979063341384 ], [ 45.849274506479851, 41.833487160733824 ], [ 45.850121195893571, 41.833900315725394 ], [ 45.851732070378326, 41.834269670604101 ], [ 45.852547730045728, 41.834263619087452 ], [ 45.854716098921948, 41.834380954712429 ], [ 45.85548230427694, 41.834489636917162 ], [ 45.856350977207029, 41.83463567951695 ], [ 45.85726757981832, 41.834552583809348 ], [ 45.858104657471543, 41.834241301854469 ], [ 45.858909864430814, 41.833453640260849 ], [ 45.859589139400178, 41.832781302073329 ], [ 45.860114193788931, 41.832014792951711 ], [ 45.86066472419828, 41.831248089555075 ], [ 45.860871101862578, 41.831113913901227 ], [ 45.862117687670832, 41.831089522450547 ], [ 45.866219663356723, 41.831058659911662 ], [ 45.868052417537172, 41.831104399732702 ], [ 45.869050458740887, 41.831275582032497 ], [ 45.870484162072941, 41.831264725199063 ], [ 45.872197043175163, 41.831281519046506 ], [ 45.874265107760579, 41.831057278395441 ], [ 45.878355666311251, 41.830191999443066 ], [ 45.879703168119434, 41.829705074857024 ], [ 45.881291224471298, 41.82933544194541 ], [ 45.882524532505435, 41.829236607577293 ], [ 45.884672549319284, 41.829041353513688 ], [ 45.887417903456075, 41.828841446592186 ], [ 45.888333841462511, 41.828834366212085 ], [ 45.889410308326887, 41.8289154002928 ], [ 45.890166540596077, 41.828879753634723 ], [ 45.890918228912334, 41.828516466615447 ], [ 45.891510616968397, 41.828154411241457 ], [ 45.891911649114199, 41.827911846201488 ], [ 45.893017677128725, 41.827695880199734 ], [ 45.893929038012658, 41.827361120147771 ], [ 45.895519443272541, 41.827170002678926 ], [ 45.896395531968615, 41.827163168731616 ], [ 45.89790628013975, 41.826972638966268 ], [ 45.899053202194651, 41.82639769060232 ], [ 45.899835455933022, 41.825378765453117 ], [ 45.900261387060581, 41.82451156858572 ], [ 45.900291192863435, 41.823796416885131 ], [ 45.900122316887661, 41.823112611425152 ], [ 45.899639476779136, 41.822758935145231 ], [ 45.898913976739514, 41.822139061768617 ], [ 45.897914880906399, 41.821597489955664 ], [ 45.897830539311023, 41.821551771319008 ], [ 45.897792274558057, 41.821504469350543 ], [ 45.897303746459038, 41.820900545912252 ], [ 45.896896418286346, 41.820248386119395 ], [ 45.896767821446446, 41.819594048076489 ], [ 45.896766558422883, 41.819503525812536 ], [ 45.896758678827091, 41.818938777264087 ], [ 45.896949451586948, 41.818341522905875 ], [ 45.8974977368308, 41.817681897776495 ], [ 45.898285739138728, 41.817079972104366 ], [ 45.899554013762447, 41.816653011390045 ], [ 45.900188145277838, 41.816439525376452 ], [ 45.900899397530992, 41.816046701251047 ], [ 45.901251053767439, 41.815567329876039 ], [ 45.901243537100363, 41.815031200400163 ], [ 45.900955650301945, 41.814378116237961 ], [ 45.900506011739921, 41.813547569634338 ], [ 45.900337579462317, 41.812893548079806 ], [ 45.900198954260865, 41.811524373025698 ], [ 45.900149133094352, 41.810809843796491 ], [ 45.90013787381401, 41.810005647300585 ], [ 45.900237707607062, 41.808604814365054 ], [ 45.900545347051249, 41.807827907123659 ], [ 45.901367582070691, 41.80683844279541 ], [ 45.902589555407822, 41.805964986437139 ], [ 45.902758643696863, 41.805828605416892 ], [ 45.902876396488139, 41.805596291326751 ], [ 45.902907422750999, 41.804970492170526 ], [ 45.90277754371823, 41.804226804237089 ], [ 45.902407986761467, 41.803425423400796 ], [ 45.902196356845216, 41.803240882639365 ], [ 45.902074824498122, 41.802989004889817 ], [ 45.90159179280311, 41.802611505600545 ], [ 45.901031657069396, 41.802413340153066 ], [ 45.900632086578071, 41.802309235387845 ], [ 45.900329055304454, 41.802275865404532 ], [ 45.900287614563652, 41.802278723831023 ], [ 45.899549508147082, 41.802329634295987 ], [ 45.899233052406622, 41.802475095835476 ], [ 45.898884083975481, 41.802573149364974 ], [ 45.898550870602506, 41.802659164328844 ], [ 45.898249834336255, 41.802768756143912 ], [ 45.897964388182729, 41.802854395868792 ], [ 45.897678108523905, 41.802880463770201 ], [ 45.897311217956933, 41.80283566879227 ], [ 45.896815615344671, 41.802696555374631 ], [ 45.895968053649824, 41.802441032121685 ], [ 45.894736695445985, 41.802069339199399 ], [ 45.894611789040013, 41.80204563776762 ], [ 45.893907059630742, 41.801956644874544 ], [ 45.893196904530775, 41.802064134759092 ], [ 45.893160183601331, 41.802069691998057 ], [ 45.893048867686559, 41.802134307092501 ], [ 45.892307134774718, 41.802564850759858 ], [ 45.891932588775092, 41.803115865440894 ], [ 45.891696717816963, 41.803332173288013 ], [ 45.891203104350815, 41.803336004009772 ], [ 45.890644808421655, 41.803268842244371 ], [ 45.890278083871316, 41.803235938676231 ], [ 45.889927613382753, 41.803226739247791 ], [ 45.889595493294642, 41.803191714493266 ], [ 45.888892619193392, 41.803234753007338 ], [ 45.887905228416386, 41.803230474321502 ], [ 45.887473990995709, 41.803138483699875 ], [ 45.887106119422306, 41.803022171776753 ], [ 45.886609551164277, 41.80281152982004 ], [ 45.88593767072431, 41.802590321869758 ], [ 45.88574512002679, 41.802484568430437 ], [ 45.885519083146903, 41.802259920201323 ], [ 45.885493109351032, 41.802224107410659 ], [ 45.885462566118747, 41.802181993513038 ], [ 45.885372989510998, 41.802058484813728 ], [ 45.885257922917006, 41.801797234262004 ], [ 45.885189968434773, 41.801487958953068 ], [ 45.885164121075114, 41.801229617158803 ], [ 45.885153040519413, 41.801118867741593 ], [ 45.885052751081261, 41.800774095047778 ], [ 45.88503832029803, 41.800689806555859 ], [ 45.885034748958411, 41.800430277991062 ], [ 45.885058847836511, 41.800330003584001 ], [ 45.885045126723753, 41.800258616449142 ], [ 45.884935805499133, 41.800183201202678 ], [ 45.884781444206553, 41.80007476866335 ], [ 45.884659779542524, 41.800028044106064 ], [ 45.884499639671468, 41.79996255176151 ], [ 45.884313958734317, 41.799892489388057 ], [ 45.884115540870681, 41.799822523843915 ], [ 45.883942861242538, 41.799771425623717 ], [ 45.883776877346541, 41.799744105982192 ], [ 45.883540640256278, 41.799703028088693 ], [ 45.883419502036759, 41.79969442690912 ], [ 45.883234673795542, 41.799686316228382 ], [ 45.883018001769088, 41.799678450039167 ], [ 45.88266056077422, 41.799624003576426 ], [ 45.882301426076104, 41.799649177959111 ], [ 45.882268219204427, 41.799648422439979 ], [ 45.881565117106938, 41.799632415668334 ], [ 45.8797854676273, 41.799445881190124 ], [ 45.879501196462108, 41.799412821392011 ], [ 45.878362807713557, 41.79928042120266 ], [ 45.877621856948657, 41.799193826288821 ], [ 45.877558970332657, 41.799186476161012 ], [ 45.8768945994373, 41.799043799301025 ], [ 45.876492313335973, 41.798903586531424 ], [ 45.876158616022416, 41.798787277638382 ], [ 45.874923735813219, 41.79837726889356 ], [ 45.874423928540658, 41.798157065737946 ], [ 45.873761671365891, 41.797699789777077 ], [ 45.872906292993193, 41.797091459817921 ], [ 45.871657154705595, 41.796095288535462 ], [ 45.871369250535139, 41.79586771653986 ], [ 45.871100907759349, 41.795632991731068 ], [ 45.870685058011745, 41.795330545793171 ], [ 45.869435987169524, 41.79433434940956 ], [ 45.868785897358507, 41.79382928964484 ], [ 45.8687345683324, 41.793789006390185 ], [ 45.86841897926395, 41.79354132933296 ], [ 45.868110408704432, 41.793329184519294 ], [ 45.867776624039301, 41.793136295093824 ], [ 45.867526269873863, 41.792990435439712 ], [ 45.867270063405989, 41.792882748227392 ], [ 45.866966478192396, 41.79277200441517 ], [ 45.866591630201619, 41.792635262252361 ], [ 45.86522037705371, 41.792016467246491 ], [ 45.864591810676984, 41.791722614572599 ], [ 45.863765534373883, 41.791336324181813 ], [ 45.863215991986351, 41.791115600018117 ], [ 45.862670588046292, 41.790896533623489 ], [ 45.861541264490697, 41.790266344427216 ], [ 45.861322839798163, 41.790124998104481 ], [ 45.86109174318851, 41.789988511890279 ], [ 45.860905543378401, 41.789875520058466 ], [ 45.86068107185136, 41.789758048227775 ], [ 45.860559125198819, 41.789687469687607 ], [ 45.860411644329275, 41.789612315826396 ], [ 45.860232451040119, 41.789546932138244 ], [ 45.85998282848103, 41.78945347768186 ], [ 45.859087760797003, 41.789193270247075 ], [ 45.856741871439418, 41.788543528183688 ], [ 45.85532964533575, 41.788182291673309 ], [ 45.853622496107214, 41.787670713296031 ], [ 45.852279530724843, 41.78724696428754 ], [ 45.850581701211745, 41.786473133052581 ], [ 45.848161593063622, 41.785295255441973 ], [ 45.848059485816506, 41.785255851136355 ], [ 45.847684643950501, 41.785059933743192 ], [ 45.846890248086126, 41.784698798834157 ], [ 45.846703962879417, 41.784576251532947 ], [ 45.846473731845286, 41.784501689531787 ], [ 45.846320224699227, 41.784450393203535 ], [ 45.846211540622946, 41.784417830498342 ], [ 45.846096551522535, 41.784390080576443 ], [ 45.845898911305646, 41.784372471161859 ], [ 45.845790664818992, 41.784373268176481 ], [ 45.845767895677533, 41.78437147140793 ], [ 45.845624923914542, 41.784360189876345 ], [ 45.845458745995046, 41.784313751211343 ], [ 45.845362546534382, 41.78426203182341 ], [ 45.845183070179282, 41.784172795276646 ], [ 45.845041986253989, 41.784097574487404 ], [ 45.845011655710799, 41.784079604564859 ], [ 45.844875119983577, 41.783998712697205 ], [ 45.843920694328325, 41.783572007262308 ], [ 45.841673545053254, 41.782654326598411 ], [ 45.841193447597256, 41.782462430291218 ], [ 45.841103682979131, 41.782415425740005 ], [ 45.840963168091392, 41.782383091094808 ], [ 45.840886512572858, 41.782364588215017 ], [ 45.840810043873525, 41.782360381469061 ], [ 45.840701615068802, 41.782346876562826 ], [ 45.840561349505428, 41.782333604505098 ], [ 45.840414716397007, 41.782320378858707 ], [ 45.840338310007397, 41.782320937794054 ], [ 45.840198355650216, 41.782331493471858 ], [ 45.840130001522937, 41.78234481649946 ], [ 45.84009672888196, 41.782351301604045 ], [ 45.839982243630928, 41.782361670763819 ], [ 45.839880367966551, 41.782362415619694 ], [ 45.839631363072208, 41.782311808455681 ], [ 45.839197398378978, 41.782238720678997 ], [ 45.838857365626112, 41.782152715831707 ], [ 45.837708566398454, 41.782009606224477 ], [ 45.836526190795063, 41.781548622057002 ], [ 45.835636506898936, 41.781158928462865 ], [ 45.833741841341293, 41.780400575990853 ], [ 45.832934969864127, 41.780048966569829 ], [ 45.832640670061743, 41.779941478753642 ], [ 45.832499918107658, 41.779890070524317 ], [ 45.832448981533041, 41.779890439632787 ], [ 45.832378945245381, 41.77989094710918 ], [ 45.832321642498741, 41.779891362287749 ], [ 45.8322516050046, 41.779891869695234 ], [ 45.832187934881986, 41.77989233093534 ], [ 45.832137184349911, 41.779906997020646 ], [ 45.83207388387293, 41.779936052445493 ], [ 45.832005464204833, 41.779951222035827 ], [ 45.831984993017628, 41.779955761160039 ], [ 45.831896162493265, 41.779980234922697 ], [ 45.831800965730203, 41.780004755612772 ], [ 45.831673872776648, 41.78002474068537 ], [ 45.831578551501352, 41.780039729183713 ], [ 45.831457579532703, 41.780040604792241 ], [ 45.831260017842872, 41.780027736028941 ], [ 45.83096633493934, 41.779967900396478 ], [ 45.829796076175427, 41.779580767835967 ], [ 45.829641181435839, 41.77949250921435 ], [ 45.82919309971205, 41.779237191096534 ], [ 45.828262965773796, 41.778705324719205 ], [ 45.82825327173525, 41.778704836181909 ], [ 45.828228776273896, 41.778689599260446 ], [ 45.828211504094156, 41.77867818683265 ], [ 45.827928577117966, 41.77845036176641 ], [ 45.827684431564315, 41.778280539399162 ], [ 45.827587703760187, 41.778185912526766 ], [ 45.827427369089335, 41.778096510169959 ], [ 45.827248363228357, 41.778040605433176 ], [ 45.827242855659733, 41.778038160986661 ], [ 45.827037033050658, 41.777946804172956 ], [ 45.826813216388999, 41.777872156414439 ], [ 45.826621171300708, 41.777792513155617 ], [ 45.826276325512005, 41.777713969581754 ], [ 45.825823611686268, 41.777664796467739 ], [ 45.825517700285623, 41.777643164610645 ], [ 45.824995686558637, 41.777651680971395 ], [ 45.824149942771292, 41.777738775736928 ], [ 45.823380841834464, 41.777844379917219 ], [ 45.823043949905475, 41.777889689412412 ], [ 45.822923467950112, 41.777928682372931 ], [ 45.822865801267071, 41.777900498495264 ], [ 45.822781936066534, 41.777815308338511 ], [ 45.822761678305298, 41.777724896134202 ], [ 45.822753849145037, 41.777610563527581 ], [ 45.82275226535252, 41.777486655076579 ], [ 45.822801677179996, 41.77736714695294 ], [ 45.822832048371289, 41.777252541642376 ], [ 45.822862236678752, 41.777123638257599 ], [ 45.82287932634032, 41.776966232639552 ], [ 45.822909698418485, 41.776851627294825 ], [ 45.822959595707559, 41.776770244578728 ], [ 45.822989906620883, 41.776650873189162 ], [ 45.822994627344592, 41.776522153099201 ], [ 45.822985751062937, 41.776504094777366 ], [ 45.822929255676826, 41.776389168657495 ], [ 45.822819559958873, 41.77627556657901 ], [ 45.822696949057772, 41.776147757505406 ], [ 45.822542749624013, 41.776039240306929 ], [ 45.82209349459221, 41.77576125205789 ], [ 45.821081554818157, 41.775296638310877 ], [ 45.819852136635767, 41.774752542482979 ], [ 45.818567137980764, 41.77434228314354 ], [ 45.81840956264034, 41.774309562298541 ], [ 45.818188403635055, 41.774218911249037 ], [ 45.817396486806558, 41.773982419091098 ], [ 45.817109476150776, 41.773871276270832 ], [ 45.814929780621107, 41.773195664022012 ], [ 45.813772349993066, 41.772798744332768 ], [ 45.813141234369368, 41.772632120276121 ], [ 45.812668229292093, 41.772475755554218 ], [ 45.811247927275708, 41.77204447790799 ], [ 45.811088983160644, 41.771980490022521 ], [ 45.810991956954062, 41.771941429239028 ], [ 45.810989442325202, 41.771940665189312 ], [ 45.810755626210678, 41.771881136872445 ], [ 45.810577191801535, 41.771868097478411 ], [ 45.810128234893952, 41.771834173741105 ], [ 45.810003811635582, 41.771838778130828 ], [ 45.80958988722351, 41.771832163768401 ], [ 45.809239864988498, 41.771844161864415 ], [ 45.808647626346236, 41.771834033538298 ], [ 45.808301611478591, 41.771841703364956 ], [ 45.808017488431432, 41.771848000142427 ], [ 45.807794850679258, 41.771863864296563 ], [ 45.807597676884612, 41.771879549019594 ], [ 45.807470770107727, 41.771913804508067 ], [ 45.807375575588857, 41.771938304067469 ], [ 45.807299300401198, 41.771948372110145 ], [ 45.807197380633951, 41.771944322696335 ], [ 45.807107895398062, 41.771916354414167 ], [ 45.807030246178265, 41.771816809553918 ], [ 45.806965269480358, 41.771712410062399 ], [ 45.806919092925938, 41.771584047964247 ], [ 45.806860542959498, 41.771484369733571 ], [ 45.806769206010649, 41.771308662784485 ], [ 45.806717560520781, 41.771251831472107 ], [ 45.806610049990084, 41.771168199570013 ], [ 45.806582199455299, 41.771119328977342 ], [ 45.80616481874759, 41.770836287754015 ], [ 45.805945805078203, 41.770632878987506 ], [ 45.805939819833327, 41.770628971437866 ], [ 45.805919982356556, 41.770604463144593 ], [ 45.805879868863251, 41.770559817082415 ], [ 45.805699492668488, 41.770427291522793 ], [ 45.805566626744792, 41.770349567551769 ], [ 45.805373616547854, 41.770188870826267 ], [ 45.805238677717092, 41.77008972721687 ], [ 45.805141577944759, 41.769961721272537 ], [ 45.80508826641622, 41.769771447933842 ], [ 45.805048282672963, 41.769628742234282 ], [ 45.80501472389625, 41.769490758864215 ], [ 45.805000443130844, 41.769366938000999 ], [ 45.804960102374984, 41.769195638662353 ], [ 45.8047717360975, 41.768896688906324 ], [ 45.804681289230352, 41.768781818480861 ], [ 45.80455711400721, 41.768704638606799 ], [ 45.804481339367136, 41.768584154827224 ], [ 45.80418636485301, 41.768414637961044 ], [ 45.803686280015263, 41.768185486567567 ], [ 45.803674118075463, 41.768179913491622 ], [ 45.803059784677814, 41.767926836284531 ], [ 45.802497036695847, 41.76772582210269 ], [ 45.80244629899741, 41.76769312466287 ], [ 45.802131215546915, 41.767490068710607 ], [ 45.801862249807854, 41.767363258846572 ], [ 45.801580552792807, 41.767236538077334 ], [ 45.801285947853344, 41.767095608133843 ], [ 45.800902163720082, 41.766950532682479 ], [ 45.800543963109426, 41.766814809714653 ], [ 45.800217593379742, 41.766678863918081 ], [ 45.800006280148978, 41.766580246016595 ], [ 45.799744161959147, 41.766491513433643 ], [ 45.799500726164844, 41.766369287653056 ], [ 45.799437709403428, 41.766334882842145 ], [ 45.799250747747472, 41.766232807458195 ], [ 45.799057589440167, 41.766057802476446 ], [ 45.798600957819822, 41.765684449757678 ], [ 45.798157712012348, 41.765363428873137 ], [ 45.797932377517519, 41.765160048470484 ], [ 45.797739756155977, 41.765027933038652 ], [ 45.797540770841721, 41.764895861457546 ], [ 45.797418644832803, 41.764801386055609 ], [ 45.797328347602821, 41.764706688731977 ], [ 45.797256791992417, 41.76458326515273 ], [ 45.797185060865289, 41.764445543328257 ], [ 45.797202281499708, 41.764341496375707 ], [ 45.797220598968345, 41.764230819005704 ], [ 45.797157882324974, 41.763792764865357 ], [ 45.797100824544877, 41.763297478225567 ], [ 45.797074973775828, 41.763171275792182 ], [ 45.79707624551132, 41.763056301479622 ], [ 45.797090801634923, 41.763002044458979 ], [ 45.797128988845778, 41.762487031928785 ], [ 45.797127691130662, 41.762382184821149 ], [ 45.79712615747318, 41.762258274354885 ], [ 45.797131637154664, 41.76218674373429 ], [ 45.797130221480053, 41.762072365392875 ], [ 45.797109415120097, 41.761934290116159 ], [ 45.797043461997198, 41.761748866909102 ], [ 45.796959594266525, 41.761658891106777 ], [ 45.796870669325841, 41.761594767819489 ], [ 45.796619171234894, 41.761413410685286 ], [ 45.795847602127822, 41.760947899289661 ], [ 45.795650722309453, 41.760829114786041 ], [ 45.795585894262949, 41.760734239628 ], [ 45.795501734382185, 41.760620434188297 ], [ 45.795399950840363, 41.760625905371967 ], [ 45.795266334123639, 41.760752833897499 ], [ 45.79509164806263, 41.760918776353776 ], [ 45.793434400052135, 41.762293362233734 ], [ 45.791865786818313, 41.763633949618004 ], [ 45.791225872653996, 41.764129288939195 ], [ 45.791184525562414, 41.764143857792419 ], [ 45.791070181096899, 41.764163710165619 ], [ 45.790913002134289, 41.764160590585433 ], [ 45.790859884874003, 41.764146092989343 ], [ 45.790731931978748, 41.764094546111437 ], [ 45.790616241753341, 41.764004784721116 ], [ 45.790366291123668, 41.763868284895501 ], [ 45.790186128302047, 41.763712240459981 ], [ 45.790018698003891, 41.763556108183067 ], [ 45.789825220794462, 41.763352492689584 ], [ 45.78961101375338, 41.76301556527077 ], [ 45.789392604608778, 41.762855015940069 ], [ 45.789008872076934, 41.762709900199951 ], [ 45.788577984869669, 41.762599064820506 ], [ 45.787917391948184, 41.762335138849039 ], [ 45.787748180837816, 41.762267532968444 ], [ 45.787557235137925, 41.762171749889013 ], [ 45.786705876147515, 41.761786755187266 ], [ 45.78607981443043, 41.761689935678362 ], [ 45.785200709440197, 41.761553977015232 ], [ 45.784734021932529, 41.761593349198399 ], [ 45.784278619426324, 41.761631767876793 ], [ 45.783866153953262, 41.761739438941959 ], [ 45.783533228249034, 41.761799137326157 ], [ 45.783313534921746, 41.761838531224008 ], [ 45.782740775745488, 41.761851966904928 ], [ 45.78203301467201, 41.761756697002902 ], [ 45.781439714470991, 41.761651112216519 ], [ 45.781107852940622, 41.761581876305705 ], [ 45.780865916352482, 41.761578754445274 ], [ 45.780668824515622, 41.761599158847318 ], [ 45.780509693002557, 41.761600240027185 ], [ 45.780254678644177, 41.761568608666472 ], [ 45.780160480268179, 41.761546439168178 ], [ 45.780110929062019, 41.761534777481621 ], [ 45.780018470451061, 41.761513018479242 ], [ 45.779788456389028, 41.761443087234959 ], [ 45.7797525727484, 41.761430266204414 ], [ 45.77951353975493, 41.761344862236626 ], [ 45.779027188490168, 41.761133683096787 ], [ 45.778255702745483, 41.760505008929535 ], [ 45.77761366455973, 41.760051802298648 ], [ 45.777172612748579, 41.759373221660908 ], [ 45.776590164094152, 41.758581206777713 ], [ 45.776375638869403, 41.758210893748192 ], [ 45.776229528441945, 41.757967686274043 ], [ 45.776123846840697, 41.757917091219831 ], [ 45.776034220862577, 41.75787480101657 ], [ 45.775880258146138, 41.757775751079713 ], [ 45.775790059737631, 41.757685802450801 ], [ 45.775623252556166, 41.757577305934205 ], [ 45.775411720729878, 41.757454813391355 ], [ 45.775199901725642, 41.757308490890715 ], [ 45.775077134537582, 41.757156800790654 ], [ 45.774897027415967, 41.757000731722556 ], [ 45.774678560513124, 41.756830621577443 ], [ 45.774530222601783, 41.756669571227334 ], [ 45.774452584857698, 41.756565238305321 ], [ 45.77441915602035, 41.756432010264263 ], [ 45.774392322831552, 41.756317802779719 ], [ 45.774333205824441, 41.75616568282166 ], [ 45.774236667378645, 41.756118426313499 ], [ 45.77417953620143, 41.756090460096971 ], [ 45.773987449658648, 41.755996430045457 ], [ 45.773965547215937, 41.75593982385373 ], [ 45.774797319525867, 41.755061564135261 ], [ 45.775166007861721, 41.754491900029159 ], [ 45.775338365111921, 41.754004585484935 ], [ 45.775510662433497, 41.753512504566856 ], [ 45.775756460709857, 41.75278161821003 ], [ 45.776169104294844, 41.752163992664819 ], [ 45.77650009212315, 41.751721014872714 ], [ 45.776595042597798, 41.751593936972341 ], [ 45.776879641920999, 41.751305097026616 ], [ 45.777223823900108, 41.750955781376227 ], [ 45.777229583348124, 41.75094794868911 ], [ 45.777582787011063, 41.750638783413393 ], [ 45.77770892061428, 41.750542606288512 ], [ 45.777783909725187, 41.750427709317144 ], [ 45.777889856968599, 41.750241110813562 ], [ 45.777913931701647, 41.750126559355529 ], [ 45.777905784657534, 41.749978862453617 ], [ 45.777879177100445, 41.749883718279285 ], [ 45.777833132187986, 41.749760109472732 ], [ 45.777780954301079, 41.74965560630654 ], [ 45.777710143396376, 41.749589358430768 ], [ 45.777530093941493, 41.749537884468189 ], [ 45.777520157377417, 41.749535043362116 ], [ 45.777384426206346, 41.749496239281726 ], [ 45.777275489095516, 41.749435015578918 ], [ 45.777173146573233, 41.749392812211227 ], [ 45.776930163977575, 41.749299131204488 ], [ 45.776790039900625, 41.749290546576262 ], [ 45.776586102789786, 41.749268093651708 ], [ 45.776401545047136, 41.749269340944871 ], [ 45.776140964542535, 41.749299698636847 ], [ 45.775792088577909, 41.749397379172834 ], [ 45.775570838865221, 41.749522794330709 ], [ 45.775272472739722, 41.749586767816027 ], [ 45.773952111890829, 41.749805382386782 ], [ 45.772655548318305, 41.74995709544546 ], [ 45.771330441841165, 41.749851609611476 ], [ 45.77066880281528, 41.749875114569413 ], [ 45.76957485869751, 41.749939641337143 ], [ 45.768430453210051, 41.750042625290654 ], [ 45.766830502592775, 41.750366957237311 ], [ 45.766436762840911, 41.750446769667739 ], [ 45.761691337229017, 41.750668975097874 ], [ 45.761357408369925, 41.750700354748325 ], [ 45.757762290721857, 41.7510381218177 ], [ 45.752692080104573, 41.751795911444788 ], [ 45.75183164776378, 41.752240034913164 ], [ 45.749320464489287, 41.754134321417503 ], [ 45.746928803386446, 41.755370041239296 ], [ 45.746449836577568, 41.755783046585925 ], [ 45.745643373534335, 41.756499078640246 ], [ 45.743778372468455, 41.758154871197597 ], [ 45.74178263071358, 41.760627129493407 ], [ 45.739529241796696, 41.763194137556134 ], [ 45.739040164531325, 41.764845518336415 ], [ 45.738385452948684, 41.767232828310703 ], [ 45.737042763367434, 41.769113885277037 ], [ 45.731844430821752, 41.771870658448307 ], [ 45.72754555472217, 41.773770396925428 ], [ 45.722348347418368, 41.776696953524848 ], [ 45.719143493859889, 41.778325450984141 ], [ 45.717655429890414, 41.778738886678177 ], [ 45.713611892585213, 41.780158181710462 ], [ 45.705109354054578, 41.784357256616303 ], [ 45.70202658533313, 41.786342184147124 ], [ 45.701381730280374, 41.788526648314523 ], [ 45.698471036016706, 41.793191399518655 ], [ 45.696709198131821, 41.796077509115563 ], [ 45.694467507428456, 41.797673569399663 ], [ 45.693109729576705, 41.799208292345867 ], [ 45.693024307400634, 41.799357525294582 ], [ 45.692129956644195, 41.800919913538571 ], [ 45.691927509748801, 41.801265015009378 ], [ 45.691915148535138, 41.801275852717609 ], [ 45.691873959471415, 41.801316022112317 ], [ 45.691804071403794, 41.801389566486861 ], [ 45.691731428395279, 41.801462490619308 ], [ 45.69165601374236, 41.801534809016147 ], [ 45.691577808402009, 41.801606542502434 ], [ 45.691496794476706, 41.801677706492001 ], [ 45.691412944526846, 41.801748324562034 ], [ 45.691326232316378, 41.801818420282217 ], [ 45.691236627988488, 41.801888016343007 ], [ 45.691144148290192, 41.801957103630016 ], [ 45.691048707247482, 41.802025747503215 ], [ 45.690950261840207, 41.802093977936813 ], [ 45.69084876309735, 41.802161831245243 ], [ 45.690636393974863, 41.802296542829986 ], [ 45.690411023523268, 41.802430246829609 ], [ 45.690177319650573, 41.802560460740835 ], [ 45.689929503207196, 41.802690669767884 ], [ 45.68966632924662, 41.80282153069161 ], [ 45.689385667559058, 41.802954104594221 ], [ 45.689089578551695, 41.803087577373375 ], [ 45.688768188734386, 41.803226544888261 ], [ 45.688414466180689, 41.803374109613706 ], [ 45.687996332550405, 41.803543662095144 ], [ 45.687761188240927, 41.8036397480464 ], [ 45.687652643045951, 41.803682514151546 ], [ 45.687542250577799, 41.803722752164461 ], [ 45.687441226360768, 41.803755505114772 ], [ 45.687322208542241, 41.803789316768381 ], [ 45.687196494934902, 41.803820961663419 ], [ 45.687064092724924, 41.80385043613223 ], [ 45.68692497190073, 41.803877747536674 ], [ 45.686849895510001, 41.803890422430214 ], [ 45.686772861556122, 41.803901162586371 ], [ 45.686693701777436, 41.803909992425005 ], [ 45.686612194940103, 41.803916935781324 ], [ 45.686528200390953, 41.803922009703363 ], [ 45.686441255020704, 41.803925245775133 ], [ 45.686350935288523, 41.803926660931573 ], [ 45.686256588864921, 41.803926265366627 ], [ 45.686096251333105, 41.803921901842877 ], [ 45.685916621672007, 41.803912754437512 ], [ 45.685341623598717, 41.803871098713465 ], [ 45.6851432101681, 41.803858755728086 ], [ 45.684960877884386, 41.803851260401927 ], [ 45.684796111223434, 41.803849090334957 ], [ 45.684570319672495, 41.803848650966344 ], [ 45.684333294707685, 41.803846080390926 ], [ 45.68408273811302, 41.803841356197729 ], [ 45.683814278144361, 41.80383439623948 ], [ 45.683283378591597, 41.803816411643403 ], [ 45.682251009316495, 41.803775029092613 ], [ 45.681824505299737, 41.803759312498912 ], [ 45.681382369460209, 41.80374610900089 ], [ 45.680986545472599, 41.803738267587313 ], [ 45.680757774262709, 41.803735940632478 ], [ 45.680538424539293, 41.803735505600336 ], [ 45.680327024040018, 41.803736959555323 ], [ 45.680122613420991, 41.803740310022633 ], [ 45.679924132362068, 41.803745577726701 ], [ 45.67973126199167, 41.803752776294012 ], [ 45.679543495700386, 41.803761924061575 ], [ 45.679360450869446, 41.803773039529645 ], [ 45.679144415532967, 41.803789182860442 ], [ 45.678934345914875, 41.803808284421095 ], [ 45.678729833095936, 41.803830380886687 ], [ 45.678530554814216, 41.803855507516005 ], [ 45.678336168459424, 41.803883710493274 ], [ 45.678146500934197, 41.803915015183804 ], [ 45.677961341931628, 41.803949457078431 ], [ 45.677780518431511, 41.803987068743901 ], [ 45.677603636521404, 41.804027939891277 ], [ 45.677430810344248, 41.80407205185179 ], [ 45.677261916252057, 41.804119438698208 ], [ 45.677096849780774, 41.804170127183617 ], [ 45.676935501746854, 41.804224153094786 ], [ 45.676777802556863, 41.804281539374607 ], [ 45.676623673054657, 41.804342315326359 ], [ 45.676473047297058, 41.804406507472677 ], [ 45.676255080547961, 41.804501858959277 ], [ 45.676141717438874, 41.804553816989461 ], [ 45.676036036344478, 41.804606655608168 ], [ 45.675944953728852, 41.804657805900227 ], [ 45.675884019628178, 41.8046955322828 ], [ 45.67582345372314, 41.804735426229918 ], [ 45.675703634524645, 41.804821582294132 ], [ 45.675585939361014, 41.804915956249445 ], [ 45.675470982985885, 41.80501805631301 ], [ 45.675339735239987, 41.805136316752339 ], [ 45.675278695805694, 41.805197104706835 ], [ 45.675251347045588, 41.805228663539118 ], [ 45.675228575050937, 41.805258956112326 ], [ 45.675209994018324, 41.805288498991146 ], [ 45.675195437046732, 41.80531756156428 ], [ 45.675174404449827, 41.805377775643343 ], [ 45.675160979891089, 41.805444070596828 ], [ 45.675155570507641, 41.80551451925907 ], [ 45.675158440790348, 41.805585875790037 ], [ 45.675165229254127, 41.80562591030364 ], [ 45.675177801519141, 41.805667158277579 ], [ 45.675196281305972, 41.80571005131403 ], [ 45.67522103146252, 41.805755438429571 ], [ 45.675271421165426, 41.805831048798296 ], [ 45.675393368102853, 41.805990915934096 ], [ 45.675442122504087, 41.806060823661788 ], [ 45.675549999133615, 41.806223464617965 ], [ 45.675725183645085, 41.806476198289367 ], [ 45.675781765429001, 41.806554066056158 ], [ 45.675844917078777, 41.806634153170464 ], [ 45.675915179148859, 41.806717147269943 ], [ 45.675993602491666, 41.806804295917935 ], [ 45.676075082952721, 41.806890450170116 ], [ 45.676168134716761, 41.806985062183315 ], [ 45.676536975566833, 41.807346173892903 ], [ 45.676688844264419, 41.807499885494472 ], [ 45.676767970284736, 41.807584176974579 ], [ 45.676838849580321, 41.807663493842142 ], [ 45.676902887923887, 41.807739411241791 ], [ 45.676960760704759, 41.807812735825905 ], [ 45.677025731318466, 41.807902506575957 ], [ 45.677082275043986, 41.807989979760542 ], [ 45.677130800598498, 41.808075788870063 ], [ 45.67717154355816, 41.808160358552328 ], [ 45.677204719569339, 41.80824416400938 ], [ 45.677222863832583, 41.808303006289663 ], [ 45.677233806389864, 41.808358394547227 ], [ 45.676975045962919, 41.80897565024857 ], [ 45.676541486927242, 41.809235257795294 ], [ 45.676510747330504, 41.809241905787133 ], [ 45.676319643960113, 41.809283987261324 ], [ 45.676104539256549, 41.809325552183687 ], [ 45.675898025559903, 41.809361660214634 ], [ 45.675405474244343, 41.809443629779857 ], [ 45.675159599541452, 41.809488162383076 ], [ 45.673678282723465, 41.809767204995978 ], [ 45.673063888879476, 41.809886346149682 ], [ 45.672734972817921, 41.8099528631666 ], [ 45.672428571145524, 41.81001718757183 ], [ 45.672138827862192, 41.810080549926717 ], [ 45.671862787043466, 41.810143599930228 ], [ 45.671571156840983, 41.810213484776561 ], [ 45.671291419805101, 41.810284112703236 ], [ 45.67102199699206, 41.810355881217824 ], [ 45.670761824757854, 41.810429076718265 ], [ 45.67050974120604, 41.810504031198427 ], [ 45.670265356369008, 41.810580868580054 ], [ 45.670028091848245, 41.810659768821104 ], [ 45.669797507381226, 41.810740882245845 ], [ 45.66968750414722, 41.81077807449779 ], [ 45.669428798694653, 41.810858789993226 ], [ 45.669311467637698, 41.810899987623287 ], [ 45.669244900507302, 41.810926975535601 ], [ 45.669185423954602, 41.81095450574955 ], [ 45.669131856631004, 41.810983125571354 ], [ 45.669083640685372, 41.811013139088921 ], [ 45.66904595401882, 41.81104002351141 ], [ 45.669008327892875, 41.811069836611324 ], [ 45.668970456594423, 41.811102817951124 ], [ 45.668931787688635, 41.811139446311664 ], [ 45.668855000736762, 41.811219839551732 ], [ 45.668734939892246, 41.81135622925035 ], [ 45.668690690698263, 41.811409655449808 ], [ 45.668650062464259, 41.811465595094795 ], [ 45.668612989910876, 41.811524137737266 ], [ 45.668579399603864, 41.811585399096231 ], [ 45.668549239432039, 41.811649461440737 ], [ 45.668522397377558, 41.811716550597637 ], [ 45.668498790155837, 41.811786876914496 ], [ 45.668478316157433, 41.811860740914064 ], [ 45.668460789622948, 41.811938918271792 ], [ 45.668446193498703, 41.812021620750095 ], [ 45.668434395740043, 41.812109579577381 ], [ 45.668425208481239, 41.812204178405693 ], [ 45.668414477435057, 41.812400649680285 ], [ 45.668406322737347, 41.812793284197319 ], [ 45.668399835342036, 41.812956045879069 ], [ 45.668386024995165, 41.81312396878316 ], [ 45.668376308301518, 41.81319962377296 ], [ 45.668364558914398, 41.813271070859145 ], [ 45.668346724754265, 41.813355953801072 ], [ 45.668325346718611, 41.813435915276244 ], [ 45.668300268285542, 41.813511534435996 ], [ 45.668271366868254, 41.813583180373122 ], [ 45.66823846839398, 41.813651249500154 ], [ 45.66820150663596, 41.81371585748721 ], [ 45.668189937710764, 41.813733108132091 ], [ 45.668160376342023, 41.813777187782613 ], [ 45.668114985007129, 41.813835376023441 ], [ 45.66805365429849, 41.813905609092252 ], [ 45.667987294142854, 41.813976155092227 ], [ 45.667935778063892, 41.814027285950431 ], [ 45.667839646233361, 41.814118020089616 ], [ 45.667735467007773, 41.814208309151191 ], [ 45.667703824833715, 41.814234554523345 ], [ 45.667581651560376, 41.814331998632184 ], [ 45.667458799895449, 41.814422930967119 ], [ 45.667421798809272, 41.814449310078054 ], [ 45.667281311559016, 41.814546106396904 ], [ 45.667140550991682, 41.814636909143999 ], [ 45.667098658990717, 41.814663045448569 ], [ 45.666942409779615, 41.814757546061465 ], [ 45.666807751663981, 41.814834576558518 ], [ 45.666698219167138, 41.814895012687259 ], [ 45.666571747648312, 41.814962067096168 ], [ 45.666435885293531, 41.815028123844272 ], [ 45.666301152876521, 41.815089386715051 ], [ 45.666167583981434, 41.815145840206043 ], [ 45.66603521342406, 41.815197471509947 ], [ 45.665915642890603, 41.815239983738493 ], [ 45.665843935249306, 41.815263755187175 ], [ 45.665771609229658, 41.815287112255483 ], [ 45.665724553471172, 41.815301614964675 ], [ 45.665593757373323, 41.815340137014097 ], [ 45.665588530693071, 41.815341632720532 ], [ 45.66541815027977, 41.815387657893659 ], [ 45.66532836938444, 41.815409702614694 ], [ 45.664358220306603, 41.815933204867264 ], [ 45.664215732746143, 41.816010090257421 ], [ 45.662272131378643, 41.816965200269294 ], [ 45.661577728732397, 41.81730642325514 ], [ 45.660951395629453, 41.817560618534245 ], [ 45.659055607270439, 41.818521871218678 ], [ 45.658291789564295, 41.819120564189774 ], [ 45.656682986349935, 41.820805467669651 ], [ 45.656672934035754, 41.821558471692036 ], [ 45.656740030846251, 41.821641707978458 ], [ 45.656827620844048, 41.821759140557944 ], [ 45.656905352944612, 41.821872552029518 ], [ 45.656976345413852, 41.82198674055789 ], [ 45.657037415838687, 41.822096297713465 ], [ 45.657091210838246, 41.822206290955179 ], [ 45.657135243722131, 41.822311170969321 ], [ 45.657171652747138, 41.82241657014599 ], [ 45.657198589291902, 41.822516458154745 ], [ 45.657217395049379, 41.822616756555107 ], [ 45.657227168103631, 41.822711226041704 ], [ 45.657228474735589, 41.8228095592833 ], [ 45.657225806135578, 41.822853454269421 ], [ 45.657220881152128, 41.822894774488951 ], [ 45.657204726890335, 41.822974172492849 ], [ 45.657180431726466, 41.823053127096344 ], [ 45.657148086127485, 41.823127888212873 ], [ 45.657140070581825, 41.82314382310588 ], [ 45.65711141265129, 41.823196276491828 ], [ 45.657092876395872, 41.823227859773048 ], [ 45.657045625726255, 41.82329990588471 ], [ 45.656980931093877, 41.823384958607782 ], [ 45.656904616010507, 41.823473749855239 ], [ 45.656823878748504, 41.823558382642936 ], [ 45.656735168248154, 41.823644627256222 ], [ 45.656621775187098, 41.823746336302705 ], [ 45.656428173524084, 41.823908057120171 ], [ 45.656195697204318, 41.82408911499472 ], [ 45.655777369808384, 41.824402897036563 ], [ 45.655716832160309, 41.824447646545984 ], [ 45.655569665491413, 41.824558574032594 ], [ 45.655443826041861, 41.824657181618733 ], [ 45.655332050955231, 41.824749186045125 ], [ 45.655164381981102, 41.824891530677405 ], [ 45.655072961853314, 41.824974013765271 ], [ 45.654958725114774, 41.825084404991692 ], [ 45.654929247821187, 41.825114142644971 ], [ 45.654840082914902, 41.825208956610794 ], [ 45.654774947381092, 41.825284419161065 ], [ 45.654750519151754, 41.825315115139325 ], [ 45.654724165996726, 41.82534823142381 ], [ 45.654711072888951, 41.825365241683507 ], [ 45.65466233319124, 41.825432317181026 ], [ 45.654623687773935, 41.825491447807565 ], [ 45.654586207784618, 41.825554228570766 ], [ 45.654549668227972, 41.825621032737786 ], [ 45.654513678962289, 41.825692571373587 ], [ 45.654473917104994, 41.825783874564777 ], [ 45.654461916128547, 41.825813544941603 ], [ 45.654390272946557, 41.826013841812205 ], [ 45.654354925796291, 41.826129319479058 ], [ 45.654272345033398, 41.82642655742216 ], [ 45.654249373378356, 41.826514277423534 ], [ 45.654218426143451, 41.826625051807007 ], [ 45.654185666278579, 41.826728709364048 ], [ 45.654151620991634, 41.826821796557482 ], [ 45.654086470037839, 41.826984235468522 ], [ 45.654065505556133, 41.827030923088998 ], [ 45.654036436692103, 41.827090267376477 ], [ 45.653985988747451, 41.827180780976718 ], [ 45.653976252489819, 41.827197088413719 ], [ 45.653927334472357, 41.827273002140878 ], [ 45.653887018245449, 41.827328463608296 ], [ 45.653844560826499, 41.827381436941565 ], [ 45.653799874189573, 41.827432028920569 ], [ 45.653738211595794, 41.827496701572578 ], [ 45.653664598804113, 41.827571256987724 ], [ 45.653582170604778, 41.827648145758268 ], [ 45.653489631705554, 41.827728600169209 ], [ 45.653463754540638, 41.82774982977687 ], [ 45.653383125374191, 41.827815980081752 ], [ 45.653303501337263, 41.82787831740756 ], [ 45.653222965291825, 41.827938497314143 ], [ 45.653141657104328, 41.827996418127377 ], [ 45.653059695104858, 41.828051991806262 ], [ 45.652967009633429, 41.828111863219995 ], [ 45.652891568687643, 41.828158473896814 ], [ 45.652806969143988, 41.828208134963745 ], [ 45.652722381552856, 41.828255192013415 ], [ 45.652638080131702, 41.828299491271672 ], [ 45.65249615446502, 41.82836652061966 ], [ 45.652439764269985, 41.828390282225271 ], [ 45.652387009048361, 41.828410192534847 ], [ 45.652328350716168, 41.828429873344646 ], [ 45.652268202383247, 41.828447861187598 ], [ 45.652206524452708, 41.828464169796483 ], [ 45.652143279690449, 41.82847880838716 ], [ 45.652075142952313, 41.828492345253125 ], [ 45.652043029721646, 41.828497815490152 ], [ 45.651993335590824, 41.828505752519874 ], [ 45.651974856736111, 41.828508377532579 ], [ 45.65192194139312, 41.828515022315493 ], [ 45.651802118958763, 41.828527273454227 ], [ 45.651660343337277, 41.828534902397571 ], [ 45.651494726242206, 41.828536952436416 ], [ 45.651352683797235, 41.82853323385455 ], [ 45.651238527120775, 41.828526827866149 ], [ 45.65109559312701, 41.828515102408268 ], [ 45.650844991727666, 41.828490977371622 ], [ 45.65067406853187, 41.828472303558144 ], [ 45.650485758693442, 41.828446849406355 ], [ 45.650294610844163, 41.828417371430568 ], [ 45.649902401632538, 41.828353336697901 ], [ 45.649773489197884, 41.828333518644044 ], [ 45.649477524694653, 41.828291197551039 ], [ 45.649204852950156, 41.828258305742388 ], [ 45.649200136661591, 41.828257777575409 ], [ 45.649033107341459, 41.828241439110151 ], [ 45.648900946356918, 41.828231396478081 ], [ 45.648874046421021, 41.82822998214715 ], [ 45.648749943590275, 41.828223457839144 ], [ 45.648741910583709, 41.82822314113335 ], [ 45.648597718434992, 41.828219681675378 ], [ 45.648478921560198, 41.828220562286909 ], [ 45.648417928273048, 41.828222330606359 ], [ 45.648341614560813, 41.828225511182175 ], [ 45.648308528786501, 41.828227347088259 ], [ 45.648190404714683, 41.828236669348989 ], [ 45.648064983196626, 41.828251625929575 ], [ 45.647944197186433, 41.828271287534783 ], [ 45.647836565351284, 41.828293857899375 ], [ 45.647819134257787, 41.828297815656278 ], [ 45.647804021106396, 41.828301514450132 ], [ 45.64759268948989, 41.828355547650141 ], [ 45.647337406181791, 41.828421015607624 ], [ 45.647119324512126, 41.828479400270268 ], [ 45.646920617084326, 41.828535480427298 ], [ 45.646736794383145, 41.828590553228118 ], [ 45.646561870969592, 41.828646491639844 ], [ 45.64639681042226, 41.828703073214868 ], [ 45.646240199057537, 41.828760784214289 ], [ 45.646091176649435, 41.828819942950439 ], [ 45.645893231709103, 41.828898280228451 ], [ 45.645843969369849, 41.828921486925701 ], [ 45.645791742047521, 41.828950435040113 ], [ 45.645732479663799, 41.828990066101859 ], [ 45.645667392852431, 41.829043177134068 ], [ 45.645600981568272, 41.82910770457876 ], [ 45.645536807878429, 41.82917848819217 ], [ 45.645417164957252, 41.829319511021033 ], [ 45.645285563632868, 41.829477716663092 ], [ 45.645226041360154, 41.829554145595203 ], [ 45.645170448277511, 41.829629119432532 ], [ 45.645097442559411, 41.829736224877045 ], [ 45.645037592370294, 41.829829577660398 ], [ 45.644986328246553, 41.829916317089726 ], [ 45.644942579254405, 41.829998323519881 ], [ 45.644907587077228, 41.830072722200207 ], [ 45.644875164842936, 41.830149892265695 ], [ 45.644841426186964, 41.830238453495603 ], [ 45.644794065770988, 41.830371037506161 ], [ 45.644737129901941, 41.830543216305024 ], [ 45.644684314212739, 41.830727221383974 ], [ 45.644634727578989, 41.830926057036471 ], [ 45.644586290398145, 41.831148025758935 ], [ 45.644556745379234, 41.831300449981448 ], [ 45.644531020713806, 41.831451361217646 ], [ 45.6445166414832, 41.831549441141206 ], [ 45.64449108019874, 41.831748351750093 ], [ 45.644469100201619, 41.831994429235088 ], [ 45.644456410568935, 41.832243078280726 ], [ 45.64445312752207, 41.832487385466834 ], [ 45.644453194204019, 41.832500155929935 ], [ 45.644458197393568, 41.832711623511123 ], [ 45.64445900299441, 41.832745710883394 ], [ 45.644468983437918, 41.832874436868899 ], [ 45.644488935270168, 41.833017766477148 ], [ 45.644513932547227, 41.833155017854885 ], [ 45.644515543218837, 41.833162989801224 ], [ 45.644580849279848, 41.833486278758897 ], [ 45.64460898337213, 41.833656451508972 ], [ 45.644622633625431, 41.833797873657979 ], [ 45.644628330451567, 41.833897763848881 ], [ 45.64463090957706, 41.834028650647376 ], [ 45.644628634305697, 41.834124760360346 ], [ 45.644620910271698, 41.834211117395064 ], [ 45.644607308420767, 41.83428937331572 ], [ 45.644589992176137, 41.834360651745165 ], [ 45.644572569102714, 41.834414325052926 ], [ 45.644548800186023, 41.834468587890264 ], [ 45.644515674692613, 41.834531498475769 ], [ 45.64447080823556, 41.834603203481407 ], [ 45.64446890066484, 41.834605976589849 ], [ 45.644388963568723, 41.834716960919621 ], [ 45.644199182095392, 41.834956356099958 ], [ 45.644140744341705, 41.835029147657131 ], [ 45.644077509516428, 41.835101341007224 ], [ 45.644004194494691, 41.835177783535492 ], [ 45.64393609596668, 41.835244551321402 ], [ 45.643831021297821, 41.835338513601094 ], [ 45.643814600123171, 41.83535248612332 ], [ 45.643683570995883, 41.835459427623569 ], [ 45.643589873080963, 41.83553028997094 ], [ 45.643502728766322, 41.83559245902903 ], [ 45.643195951026328, 41.835798053987148 ], [ 45.642981489457043, 41.835931600675039 ], [ 45.642694982499656, 41.836105731526033 ], [ 45.642410935248797, 41.836278367173982 ], [ 45.642245593406244, 41.836382856316064 ], [ 45.642100168067572, 41.83647868186592 ], [ 45.641929696632999, 41.836599050402555 ], [ 45.64187839646064, 41.836636486800408 ], [ 45.641797750651769, 41.836696883519508 ], [ 45.64179754386975, 41.836697041394316 ], [ 45.641667694158137, 41.83680257342133 ], [ 45.641549945032068, 41.83690742884874 ], [ 45.6415054732499, 41.836950648072502 ], [ 45.641460914207499, 41.836997195801267 ], [ 45.641369564410233, 41.837102376464195 ], [ 45.64128056935747, 41.837215563614741 ], [ 45.641179828001327, 41.837351246952203 ], [ 45.641113726541001, 41.837440274963647 ], [ 45.641043554542932, 41.837531890808073 ], [ 45.640967363755379, 41.837624938061047 ], [ 45.64087679886071, 41.837721559227298 ], [ 45.640822397775167, 41.837776333542706 ], [ 45.640782235687567, 41.837812811120578 ], [ 45.640761306764603, 41.837830933492 ], [ 45.640715875755923, 41.83786697298396 ], [ 45.640629211242015, 41.837925192164008 ], [ 45.640525041070745, 41.837985530041657 ], [ 45.640416172092173, 41.838037996809206 ], [ 45.640317864667999, 41.838082027314854 ], [ 45.640225140268093, 41.838119843407377 ], [ 45.64013676436538, 41.838151924840801 ], [ 45.640116593260586, 41.838158256494317 ], [ 45.640051944829011, 41.838178548046606 ], [ 45.640050363213554, 41.838179009905218 ], [ 45.639968232869158, 41.838200414800923 ], [ 45.639888114902192, 41.838216726756684 ], [ 45.639810450101216, 41.83822781992739 ], [ 45.639756109162811, 41.838232173901829 ], [ 45.639734087085721, 41.838233938512005 ], [ 45.639648461816506, 41.838236281613291 ], [ 45.63955324953956, 41.838235133834196 ], [ 45.639412134915304, 41.838230038020242 ], [ 45.63932963037076, 41.838225492177756 ], [ 45.639243722983522, 41.838218125351716 ], [ 45.639153535218618, 41.838207864057992 ], [ 45.639057350096074, 41.838194516986555 ], [ 45.638877549985899, 41.838164625501911 ], [ 45.638454699131692, 41.838086422093717 ], [ 45.638073533926395, 41.838017175257015 ], [ 45.637696423112338, 41.8379416926118 ], [ 45.637528499351646, 41.837902892840368 ], [ 45.63741293942271, 41.837872895565951 ], [ 45.636801635915312, 41.837972441832456 ], [ 45.634517910168334, 41.840537696444301 ], [ 45.633537335362902, 41.841655372303514 ], [ 45.63191399506065, 41.843505581659748 ], [ 45.631590691138861, 41.843874052333312 ], [ 45.630618334307904, 41.844982223800891 ], [ 45.630394721391895, 41.845196473258497 ], [ 45.628570126314443, 41.846944600585118 ], [ 45.628569239265566, 41.846952304493371 ], [ 45.628551108856705, 41.847042483002312 ], [ 45.628525125617422, 41.847134129364008 ], [ 45.628491470321677, 41.847226517532683 ], [ 45.628450584524145, 41.847318366113193 ], [ 45.628402985673453, 41.847408516688276 ], [ 45.628349344259121, 41.847495692914066 ], [ 45.628313328782873, 41.847547338855016 ], [ 45.628273352948028, 41.847599395543931 ], [ 45.628229476195244, 41.847651783391314 ], [ 45.628181778292756, 41.847704407384533 ], [ 45.62813032356172, 41.847757194211603 ], [ 45.62807527055687, 41.847809975473048 ], [ 45.628016774423017, 41.847862603503849 ], [ 45.62795504888787, 41.847914885284354 ], [ 45.62786204234375, 41.847986156941097 ], [ 45.627752956303823, 41.848059990588474 ], [ 45.627627004577889, 41.848137421760718 ], [ 45.627440361551784, 41.848245369906415 ], [ 45.627343144062088, 41.848299154835388 ], [ 45.627232286744245, 41.848356774529456 ], [ 45.626845703251348, 41.848546500358232 ], [ 45.6261852739106, 41.848875612122193 ], [ 45.625785324600045, 41.849069133374719 ], [ 45.625591880669432, 41.849159295518461 ], [ 45.625408438778258, 41.849242096519859 ], [ 45.625232048608268, 41.849318867487106 ], [ 45.625061111196402, 41.849390299873562 ], [ 45.624856237447133, 41.849470238062928 ], [ 45.624390731147052, 41.849642042519314 ], [ 45.624187849388306, 41.849722719856629 ], [ 45.62408637205602, 41.849765958342381 ], [ 45.621018914885703, 41.851781258675693 ], [ 45.618344864866295, 41.852064828798284 ], [ 45.615194449384703, 41.851632037823968 ], [ 45.61149139450108, 41.851032215969624 ], [ 45.60949541489952, 41.850685257257709 ], [ 45.609462381341508, 41.850712587292087 ], [ 45.609375921372425, 41.850838157444819 ], [ 45.609186218090827, 41.851000020649479 ], [ 45.609100265853805, 41.851179206546661 ], [ 45.609191869362149, 41.851288752833035 ], [ 45.609229223407802, 41.851333421395168 ], [ 45.609932611453679, 41.851562037751798 ], [ 45.610547167129695, 41.851666009773751 ], [ 45.611289951066425, 41.851846746846938 ], [ 45.612263754293451, 41.852020289781812 ], [ 45.612998407827035, 41.852183185044062 ], [ 45.613861637319431, 41.852458585554437 ], [ 45.614309446732491, 41.852623005163636 ], [ 45.614494823698386, 41.852842446937458 ], [ 45.614743490075313, 41.853013889064627 ], [ 45.614895970258715, 41.853126268096482 ], [ 45.615111796083426, 41.853196604207653 ], [ 45.615334904658823, 41.853195409095193 ], [ 45.615517830733232, 41.853158682552717 ], [ 45.615772412668349, 41.853115614439552 ], [ 45.615963306929956, 41.853078845367278 ], [ 45.61597385529803, 41.853076965810423 ], [ 45.616273550851325, 41.853023561559702 ], [ 45.616456361484992, 41.852974919892809 ], [ 45.616687437883513, 41.852973679387183 ], [ 45.616918628759215, 41.852984352951502 ], [ 45.617039353705529, 41.853108814848234 ], [ 45.61713640335671, 41.853257235030703 ], [ 45.617137434176136, 41.853364467634542 ], [ 45.617103319183606, 41.853462952494056 ], [ 45.617075407276886, 41.853543530841094 ], [ 45.617052876567435, 41.853686635473913 ], [ 45.617134849860115, 41.853924501599714 ], [ 45.617376247357313, 41.854167468821167 ], [ 45.617639888576072, 41.854237543123006 ], [ 45.617668994778185, 41.854235934692369 ], [ 45.61775935609549, 41.854230942576123 ], [ 45.617962822137358, 41.854258333032256 ], [ 45.618270016710952, 41.854299686509684 ], [ 45.618870053513469, 41.854546676504512 ], [ 45.619133069025381, 41.854643229943846 ], [ 45.619309893767415, 41.854708141799428 ], [ 45.619525815906748, 41.85478740564718 ], [ 45.619733972190382, 41.854887562720798 ], [ 45.61984163029225, 41.854935068356184 ], [ 45.620014073300325, 41.855011161340371 ], [ 45.620129462580557, 41.85513386628277 ], [ 45.620159001369892, 41.855165278452546 ], [ 45.620215643529214, 41.855254337524073 ], [ 45.620272862679279, 41.855402970070671 ], [ 45.620354215656647, 41.85557530251873 ], [ 45.620474473788178, 41.855650269790054 ], [ 45.620562663736024, 41.855705244803936 ], [ 45.620673842834968, 41.855758600380035 ], [ 45.620746803613613, 41.855793614639211 ], [ 45.620969920977359, 41.855792408520308 ], [ 45.621054922172846, 41.855781344261864 ], [ 45.621113181495026, 41.855773760695051 ], [ 45.621248242326267, 41.855731326758765 ], [ 45.621430883766735, 41.85566480494078 ], [ 45.621638007417005, 41.855657726039361 ], [ 45.621734032990737, 41.855698909707279 ], [ 45.621814525874036, 41.855781881741706 ], [ 45.621863778979098, 41.855930555704383 ], [ 45.621897095880392, 41.855989823119536 ], [ 45.621920539622586, 41.856031529320525 ], [ 45.621934118629696, 41.856042123484769 ], [ 45.622046580799093, 41.85612986427865 ], [ 45.622057044887441, 41.856138027241094 ], [ 45.622118527368315, 41.856157940687218 ], [ 45.622400789155122, 41.856249361036106 ], [ 45.622600465537751, 41.856295939342566 ], [ 45.622728425503553, 41.856342907074513 ], [ 45.622840794348576, 41.85642570553987 ], [ 45.622851774649476, 41.856435526490088 ], [ 45.622953336918044, 41.856526375212553 ], [ 45.622978803996979, 41.856687093728283 ], [ 45.623036839149925, 41.85691912730659 ], [ 45.623158046046754, 41.857091241505962 ], [ 45.623421938107988, 41.857185132292422 ], [ 45.623463665444817, 41.857191579847559 ], [ 45.62405954833612, 41.857193584642808 ], [ 45.624474499032665, 41.857250905787367 ], [ 45.624619374612465, 41.857257850333191 ], [ 45.624809357602949, 41.857266957739071 ], [ 45.625373914889558, 41.857138773839644 ], [ 45.625779244364026, 41.857027582484506 ], [ 45.626042120751841, 41.857015980251404 ], [ 45.626393323647591, 41.85707364193032 ], [ 45.626426831430187, 41.857122843637988 ], [ 45.626506512492938, 41.857239839189418 ], [ 45.626641979855819, 41.857239100138955 ], [ 45.626816592540031, 41.857166655560796 ], [ 45.626911518187875, 41.857094645715712 ], [ 45.626950909289121, 41.857093027428313 ], [ 45.62707880241026, 41.857087774454051 ], [ 45.627254927755686, 41.857170220454996 ], [ 45.627391501264277, 41.857282669645237 ], [ 45.627419494687089, 41.857301327491719 ], [ 45.627457958389016, 41.85732696426718 ], [ 45.627663542915883, 41.857394378410014 ], [ 45.627777160222422, 41.857413543637946 ], [ 45.627903011835741, 41.857434772883778 ], [ 45.628135315162233, 41.857474565661796 ], [ 45.628206347580829, 41.857486733576323 ], [ 45.628366654879976, 41.857581178619974 ], [ 45.62849476553292, 41.857706950658503 ], [ 45.628535630679707, 41.857747068622388 ], [ 45.628671858779363, 41.857823772753861 ], [ 45.62899857687006, 41.857821983887128 ], [ 45.629309474482163, 41.857832195915222 ], [ 45.629580412762159, 41.857830711018956 ], [ 45.629806251584888, 41.857843155081724 ], [ 45.629875431688873, 41.857846966575181 ], [ 45.630202851693113, 41.857916662151375 ], [ 45.630295321208223, 41.85795600904278 ], [ 45.630330957168439, 41.857971172816036 ], [ 45.630659002362151, 41.858110761164099 ], [ 45.630835486349504, 41.858228945086097 ], [ 45.630909080045519, 41.858419185701422 ], [ 45.630954353579483, 41.858608266852443 ], [ 45.630958941876905, 41.858627428894188 ], [ 45.630968433825288, 41.858782276197118 ], [ 45.630994390438566, 41.858990651590929 ], [ 45.631091598418877, 41.859150974036972 ], [ 45.631179841565086, 41.859210065680436 ], [ 45.631278881471019, 41.859218224641879 ], [ 45.631295729966951, 41.859219612754323 ], [ 45.631315430153556, 41.859221235578744 ], [ 45.631426644144405, 41.859184878794316 ], [ 45.631547303706959, 41.859161621733122 ], [ 45.631558655596102, 41.85915943369811 ], [ 45.631585729371956, 41.859154215773081 ], [ 45.631631383107489, 41.859131426015658 ], [ 45.631863292441153, 41.859015662765806 ], [ 45.631934894710149, 41.859003353679078 ], [ 45.632070365653547, 41.859002608200655 ], [ 45.632198337830509, 41.859049564374068 ], [ 45.632270996380839, 41.859144487264786 ], [ 45.632339527241555, 41.859447042021237 ], [ 45.632375149665961, 41.859535904497896 ], [ 45.632421098622551, 41.859638087039478 ], [ 45.63242909687856, 41.859822789238898 ], [ 45.632633489023164, 41.860345936529775 ], [ 45.632746875260914, 41.860477615871837 ], [ 45.632939838415147, 41.860701707940564 ], [ 45.633191640474628, 41.861182890359558 ], [ 45.633483117243401, 41.861645979307227 ], [ 45.633709196750182, 41.86194261476102 ], [ 45.634005883323809, 41.862125664042118 ], [ 45.634462134277427, 41.862325705210118 ], [ 45.635102035309231, 41.862560474506367 ], [ 45.63545404322317, 41.862695552679725 ], [ 45.635622165802417, 41.862772071998471 ], [ 45.63571047831639, 41.862837117739765 ], [ 45.635856516051135, 41.863009703222865 ], [ 45.635936275952879, 41.863103961127052 ], [ 45.636056407330862, 41.863162872393225 ], [ 45.636233499334253, 41.863165568961868 ], [ 45.636343365399043, 41.863167240801218 ], [ 45.636590948013271, 41.863219487248372 ], [ 45.63670417538205, 41.863385674015213 ], [ 45.636674720108317, 41.863630101385276 ], [ 45.636492029076571, 41.863959322545647 ], [ 45.636336700849689, 41.864102628838708 ], [ 45.636243191911596, 41.86431762180068 ], [ 45.636272173816451, 41.864490699304987 ], [ 45.636294022156257, 41.864621180740073 ], [ 45.636179084931385, 41.865086513478118 ], [ 45.636212440776909, 41.865235269952862 ], [ 45.636317463128492, 41.86537767135296 ], [ 45.636382817462447, 41.865438447513398 ], [ 45.636470305817944, 41.865519808547781 ], [ 45.636606440487938, 41.865584587626302 ], [ 45.637077480485061, 41.86566538327493 ], [ 45.637437241895661, 41.865776582020601 ], [ 45.637589672454631, 41.865877015734625 ], [ 45.637678524052596, 41.865995675406502 ], [ 45.637719142468221, 41.866072899483939 ], [ 45.637815667568056, 41.866161728191706 ], [ 45.63791207448395, 41.866238641455183 ], [ 45.638063677577669, 41.866255672405799 ], [ 45.638247279122488, 41.866284440449597 ], [ 45.63841464514217, 41.866283510208838 ], [ 45.638653618968391, 41.86627026642347 ], [ 45.638800611803227, 41.866261595869446 ], [ 45.638876654569053, 41.866257110804327 ], [ 45.639092253792704, 41.866297614609906 ], [ 45.639228452079159, 41.866368348220064 ], [ 45.639445655951199, 41.866569698750439 ], [ 45.639708997831171, 41.866952485451918 ], [ 45.639803208823857, 41.867089426252967 ], [ 45.639969587570739, 41.867235039212609 ], [ 45.640170664884799, 41.867340153924061 ], [ 45.640332370796557, 41.86745639956056 ], [ 45.640523422029844, 41.867546704703997 ], [ 45.640581006671056, 41.867592369614528 ], [ 45.640627864177823, 41.86762952885416 ], [ 45.640748869488135, 41.867705892682615 ], [ 45.640852451003489, 41.867771259918278 ], [ 45.641085067588271, 41.867918901920781 ], [ 45.641916987822114, 41.868417710609855 ], [ 45.642079366180518, 41.868515069918892 ], [ 45.642341727703794, 41.868660330974031 ], [ 45.642480493748977, 41.868774962636401 ], [ 45.642867355831385, 41.8692017480328 ], [ 45.643060250845274, 41.869361524336348 ], [ 45.643172608960185, 41.86943834470847 ], [ 45.643300311377182, 41.869455502573537 ], [ 45.643467684297569, 41.869454564918662 ], [ 45.643501094980955, 41.869449111434562 ], [ 45.643618879269589, 41.869429886567083 ], [ 45.643818013961393, 41.869416855287774 ], [ 45.643970364830516, 41.869416001112533 ], [ 45.644049148345886, 41.869415559323087 ], [ 45.644095931954254, 41.869403610615876 ], [ 45.644168401808614, 41.869385102266989 ], [ 45.644375445844183, 41.869366067652479 ], [ 45.644492048368932, 41.869403421195017 ], [ 45.644503387781377, 41.869407053053671 ], [ 45.644672790190157, 41.869504018886282 ], [ 45.644719839093675, 41.869530949032473 ], [ 45.644738530411772, 41.869547185156136 ], [ 45.64512188213105, 41.869880191975064 ], [ 45.645313706268695, 41.869932733610661 ], [ 45.645673026041997, 41.869996247570946 ], [ 45.645869447312009, 41.870008728065962 ], [ 45.646103718291847, 41.870023613572243 ], [ 45.646271573858847, 41.870070330442815 ], [ 45.646474449146879, 41.87025056231824 ], [ 45.646504811470209, 41.870277535219202 ], [ 45.646721449697068, 41.870419298553955 ], [ 45.646937914200649, 41.870520553435171 ], [ 45.64704071050258, 41.870568638103364 ], [ 45.647154467266901, 41.870604596297916 ], [ 45.647266194058233, 41.870690280695776 ], [ 45.647466233617472, 41.870766602630695 ], [ 45.647697372697948, 41.870765299290056 ], [ 45.647927489019409, 41.8706627215076 ], [ 45.648122824824746, 41.870593032461407 ], [ 45.648493545625819, 41.870460769723124 ], [ 45.648674048057615, 41.870396371233483 ], [ 45.649095087033423, 41.870256966348038 ], [ 45.649428330375912, 41.870106141315532 ], [ 45.649789847782984, 41.869973162654972 ], [ 45.649888915214589, 41.869936722569619 ], [ 45.65037358839546, 41.869785037773184 ], [ 45.650524598964857, 41.86974247826722 ], [ 45.650715944855527, 41.869747352256176 ], [ 45.650720552899031, 41.86974807371179 ], [ 45.65089956062365, 41.869776099951181 ], [ 45.651067479389695, 41.869828766554051 ], [ 45.651071820470136, 41.869829066189027 ], [ 45.651147241929145, 41.869834272347553 ], [ 45.651308036986485, 41.869970386531541 ], [ 45.651357127654094, 41.870095218080664 ], [ 45.651366325080232, 41.870219684128664 ], [ 45.651366368449992, 41.87022027653061 ], [ 45.651407006008142, 41.870297494674134 ], [ 45.651503314374388, 41.870362482795478 ], [ 45.651679023202306, 41.870397232096103 ], [ 45.651870371100493, 41.870402103245922 ], [ 45.652165573895793, 41.870430215475437 ], [ 45.652204986491903, 41.870431394016911 ], [ 45.652333009638895, 41.870435222541836 ], [ 45.652556177744735, 41.870433954698981 ], [ 45.652803376937896, 41.870444464931232 ], [ 45.653218801751791, 41.870537425444162 ], [ 45.653490338501747, 41.870589499080708 ], [ 45.653897794420629, 41.870682501576049 ], [ 45.654184786774259, 41.87068682515082 ], [ 45.654552514247122, 41.870791967620534 ], [ 45.654848936013849, 41.870939218831857 ], [ 45.65497029297071, 41.871024975903595 ], [ 45.655081291901404, 41.871057046520235 ], [ 45.655167750735764, 41.871097173110343 ], [ 45.65538562609202, 41.87119829320099 ], [ 45.655616218480169, 41.871143358627748 ], [ 45.655632099290465, 41.871137309965562 ], [ 45.655936388500869, 41.871071153939234 ], [ 45.655997943397921, 41.871057771304251 ], [ 45.656445928128932, 41.871216067643687 ], [ 45.656598829140009, 41.871358177489086 ], [ 45.656664787558292, 41.871572274895385 ], [ 45.656674098709466, 41.871703289569282 ], [ 45.656770142557399, 41.871839178120894 ], [ 45.656787330898197, 41.871863498168473 ], [ 45.656955442890769, 41.871934029024622 ], [ 45.65710749130016, 41.871992734644508 ], [ 45.657203197691203, 41.871998144997079 ], [ 45.657378548936599, 41.871997141401081 ], [ 45.657529926267372, 41.8719903168003 ], [ 45.657745128602862, 41.871989084473086 ], [ 45.657981239730496, 41.872052118885073 ], [ 45.658072834750044, 41.872076571734304 ], [ 45.658138186521647, 41.872231096238309 ], [ 45.658141091003962, 41.872279639771186 ], [ 45.658147807567822, 41.87239189719601 ], [ 45.658160197895668, 41.872505124559545 ], [ 45.658165398479284, 41.872552652473544 ], [ 45.658243013790269, 41.872722335322536 ], [ 45.658908484146409, 41.873203231887061 ], [ 45.659608460404414, 41.873770778934457 ], [ 45.659748975652938, 41.873836744603366 ], [ 45.659861028169871, 41.873889348131435 ], [ 45.660005788065682, 41.874013627038231 ], [ 45.660158579827673, 41.874143816686498 ], [ 45.660227206003896, 41.874182555820781 ], [ 45.66050334551479, 41.874338435646052 ], [ 45.660775884681385, 41.8744858087802 ], [ 45.660919727054221, 41.874520727240487 ], [ 45.661039534221509, 41.874543867875701 ], [ 45.661310724408153, 41.874560179663682 ], [ 45.661413930576842, 41.874575630025205 ], [ 45.661502329773668, 41.874588864347082 ], [ 45.661789770071202, 41.874634869584725 ], [ 45.661813046467714, 41.874638594863363 ], [ 45.66191262693696, 41.874654532222337 ], [ 45.661957401773677, 41.874657733658331 ], [ 45.66243847896623, 41.874929011348264 ], [ 45.662920606781178, 41.875301559672806 ], [ 45.663081502032441, 41.875443613704491 ], [ 45.663115971548081, 41.875693636100337 ], [ 45.662951415097247, 41.875968636849848 ], [ 45.662986130687919, 41.876242487121289 ], [ 45.663094064468034, 41.876658898405644 ], [ 45.663271767808148, 41.876884262503715 ], [ 45.663569346928405, 41.877138721891377 ], [ 45.66379457224955, 41.877334021489176 ], [ 45.66407596676661, 41.877564742011067 ], [ 45.664517711395305, 41.877883899492005 ], [ 45.664848791162903, 41.87829305956577 ], [ 45.665123086789379, 41.878607225062964 ], [ 45.665133714928864, 41.87886334187418 ], [ 45.665207803998193, 41.87908930293743 ], [ 45.665401216837381, 41.879290741560858 ], [ 45.665586042033247, 41.879432653307525 ], [ 45.665810725032102, 41.879574334575942 ], [ 45.666106965631975, 41.879697726393452 ], [ 45.66641877859049, 41.879785281831587 ], [ 45.666810306696632, 41.879872373588981 ], [ 45.667137507606135, 41.879906219403857 ], [ 45.667602392128344, 41.880147780139502 ], [ 45.668171717799623, 41.880466180728916 ], [ 45.668381575702192, 41.880613231969789 ], [ 45.668509004379878, 41.880702523000622 ], [ 45.668965307608673, 41.880884552728631 ], [ 45.669267334509364, 41.881015562913277 ], [ 45.669550966063703, 41.881171966104581 ], [ 45.669830900543985, 41.881326328499846 ], [ 45.67004164811808, 41.881658726638982 ], [ 45.670067306052701, 41.881825390710496 ], [ 45.67012534836784, 41.882039526107441 ], [ 45.670230599322338, 41.882193810575707 ], [ 45.670270620127091, 41.882240006973788 ], [ 45.670343572718032, 41.882324218813409 ], [ 45.670552394143861, 41.882471940377364 ], [ 45.670720798169334, 41.882566278434282 ], [ 45.670936783295829, 41.882636508114025 ], [ 45.671064519061567, 41.882653634820784 ], [ 45.671311830253693, 41.882670062448312 ], [ 45.671502965135588, 41.882651071914388 ], [ 45.671622354491795, 41.882632500679883 ], [ 45.671624662949156, 41.882632308844805 ], [ 45.671853349192638, 41.882613277341349 ], [ 45.672125574887183, 41.882724878949681 ], [ 45.672373636085609, 41.88281279124503 ], [ 45.672606630520797, 41.882984197665145 ], [ 45.672839875008975, 41.883179433187607 ], [ 45.672929753499133, 41.883387423483256 ], [ 45.67303576245542, 41.883613191323434 ], [ 45.673067326286215, 41.883650535792675 ], [ 45.673181070136877, 41.883785111321636 ], [ 45.673244005615544, 41.88384145808341 ], [ 45.673366175672918, 41.883950838891415 ], [ 45.673453387217393, 41.884025114395179 ], [ 45.673519018260095, 41.884081010167868 ], [ 45.674031664045231, 41.884310350325322 ], [ 45.67421844437964, 41.88437444406447 ], [ 45.67479979448332, 41.884573932421837 ], [ 45.675738480685709, 41.885134386207874 ], [ 45.677367570094212, 41.886143541713636 ], [ 45.6780471877777, 41.887080835506836 ], [ 45.678342224743488, 41.887426290788262 ], [ 45.678345881224381, 41.887430570825181 ], [ 45.678360575407993, 41.887439787123256 ], [ 45.678473524201387, 41.887510630052262 ], [ 45.678618769060556, 41.887601729202935 ], [ 45.678874515433563, 41.887659793818607 ], [ 45.679185816318665, 41.887693699183281 ], [ 45.67948894634489, 41.887686871176726 ], [ 45.679544510370413, 41.887685619196674 ], [ 45.679960211027719, 41.887790395901405 ], [ 45.681407581414199, 41.888192892206256 ], [ 45.682526513105167, 41.888448382251795 ], [ 45.682662303882211, 41.888462055291882 ], [ 45.683085219456459, 41.888504636437425 ], [ 45.683324203287107, 41.88848534159343 ], [ 45.683610768223886, 41.888441932897152 ], [ 45.683789128903513, 41.888448483517614 ], [ 45.683889931674493, 41.888452185782114 ], [ 45.684409539851011, 41.888580157613028 ], [ 45.684519350490611, 41.888632630449415 ], [ 45.684914415608361, 41.888821410262267 ], [ 45.685691681965537, 41.889255110642573 ], [ 45.685780670723908, 41.889304764978654 ], [ 45.686268285214396, 41.889625950720202 ], [ 45.686531514658846, 41.889741833725409 ], [ 45.687378736575816, 41.89023243873131 ], [ 45.687815211156618, 41.890487194584246 ], [ 45.688008908363159, 41.890705274309624 ], [ 45.6884200813397, 41.890979243144344 ], [ 45.688689911263239, 41.891158736919508 ], [ 45.689023935236925, 41.891375973245282 ], [ 45.689382757492751, 41.891526334891864 ], [ 45.689689632800842, 41.891591217061695 ], [ 45.690034059015808, 41.891589147948714 ], [ 45.690378281127515, 41.891568015308131 ], [ 45.690773734048406, 41.891565637196919 ], [ 45.691092647815104, 41.891563718372538 ], [ 45.691283995578104, 41.891562566655736 ], [ 45.691500856764456, 41.89156126098888 ], [ 45.691666692275952, 41.89156026225848 ], [ 45.691986428977664, 41.891634592679424 ], [ 45.692153395400034, 41.891738440495871 ], [ 45.692282814329197, 41.891909240149396 ], [ 45.692515624549237, 41.892203333966414 ], [ 45.69291571709158, 41.892629868551055 ], [ 45.69352044027066, 41.893102826244366 ], [ 45.695249953092514, 41.893769153382898 ], [ 45.695465649891112, 41.893869626376706 ], [ 45.696269989330105, 41.894144759857994 ], [ 45.696957049339041, 41.894403600182649 ], [ 45.697017461909631, 41.894406626352932 ], [ 45.697031169208508, 41.894410162968569 ], [ 45.697222616988732, 41.894490478592672 ], [ 45.699093996253545, 41.894997413087346 ], [ 45.700670026045856, 41.895447909711116 ], [ 45.700685752590545, 41.895452404497014 ], [ 45.701703759105442, 41.8958592454483 ], [ 45.702007219013254, 41.895980518484443 ], [ 45.703119830107241, 41.896366913039003 ], [ 45.703597281690193, 41.896520808844848 ], [ 45.703663984773449, 41.89654230815826 ], [ 45.703896458034379, 41.896682054375475 ], [ 45.704193765194482, 41.896860771978631 ], [ 45.705397915000205, 41.897592124388943 ], [ 45.705985891008389, 41.898124694759431 ], [ 45.707024017460135, 41.898982160564564 ], [ 45.707068944806458, 41.899010558729678 ], [ 45.707541880760495, 41.89930949342488 ], [ 45.707702431042456, 41.899410973871774 ], [ 45.708116145511141, 41.899672470708559 ], [ 45.708191951632706, 41.899734538885028 ], [ 45.708679450890912, 41.90013368809165 ], [ 45.708801628460918, 41.900365280210004 ], [ 45.709069314054759, 41.900774702792916 ], [ 45.709182795907012, 41.900940814173865 ], [ 45.709502256679478, 41.901155132410466 ], [ 45.709656162529733, 41.901200023913844 ], [ 45.709855116907242, 41.901163049119909 ], [ 45.710174935273635, 41.901238520653138 ], [ 45.710744260634819, 41.901520962432485 ], [ 45.71149699514568, 41.901802265997816 ], [ 45.712225946030209, 41.902095627146714 ], [ 45.71294646620251, 41.902347332056465 ], [ 45.713632127631122, 41.902700473162511 ], [ 45.713950279370735, 41.902945047014128 ], [ 45.714622491817074, 41.90389780498834 ], [ 45.715095541574996, 41.905198735325143 ], [ 45.715843458863077, 41.906550758491555 ] ] ] ] } }
]
}
