{
"type": "FeatureCollection",
"name": "ოყურეში-უსახელოური",
"crs": { "type": "name", "properties": { "name": "urn:ogc:def:crs:OGC:1.3:CRS84" } },
"features": [
{ "type": "Feature", "properties": { "OBJECTID": 27, "NAME_GEO": "ოყურეშის უსახელოური", "NAME_ENG": "Okureshis Usakhelouri", "Location": "Racha-Lechkhumi", "MoreInfo": "https://www.sakpatenti.gov.ge/media/django-summernote/2025-11-19/91f0f05a-f9ea-4d37-938f-86166ccbc0ab.pdf" }, "geometry": { "type": "MultiPolygon", "coordinates": [ [ [ [ 42.660923092832135, 42.537109400048358 ], [ 42.659867386787852, 42.536909138086187 ], [ 42.656556781179461, 42.536269619283061 ], [ 42.654100729433573, 42.536040643363883 ], [ 42.652849235625602, 42.535907784877089 ], [ 42.65175332207798, 42.535492188769346 ], [ 42.650511221118158, 42.535109322238291 ], [ 42.650001488895363, 42.534527035967635 ], [ 42.649467825293875, 42.533773984860531 ], [ 42.649254688069071, 42.533640432356073 ], [ 42.64783282086011, 42.532434983283053 ], [ 42.647205344022034, 42.531246331381446 ], [ 42.646330045695649, 42.53014284227109 ], [ 42.645631204505605, 42.529223915499728 ], [ 42.644199191328504, 42.528289455434212 ], [ 42.643502112709569, 42.527325336916 ], [ 42.643602776523771, 42.526287717116624 ], [ 42.644242978618713, 42.525532766205345 ], [ 42.644280803442228, 42.52453901304029 ], [ 42.643792849433012, 42.522901235192208 ], [ 42.642958171834685, 42.52234105489088 ], [ 42.641811178742273, 42.521955090611371 ], [ 42.640971368593917, 42.521530418912114 ], [ 42.640508452508293, 42.520842498661679 ], [ 42.64016945051943, 42.520111989351406 ], [ 42.6402718689286, 42.519029199925853 ], [ 42.640793289325998, 42.518181325333686 ], [ 42.640826012191638, 42.517323097971236 ], [ 42.640690938906218, 42.516054437743136 ], [ 42.640166979906866, 42.515365212412398 ], [ 42.639045955703281, 42.514301670807214 ], [ 42.638296640916678, 42.513110370368132 ], [ 42.638022243062998, 42.512290822772002 ], [ 42.637982421111232, 42.511757563717353 ], [ 42.638204044638911, 42.511336618931999 ], [ 42.638429909048355, 42.510235947838304 ], [ 42.638928731199549, 42.509817358354454 ], [ 42.640572535844164, 42.50977975218715 ], [ 42.641151753523559, 42.509791682017941 ], [ 42.643082481256563, 42.509831426989408 ], [ 42.644916676403248, 42.509869154615892 ], [ 42.648668221460845, 42.510303622333787 ], [ 42.651702017110892, 42.511185221678033 ], [ 42.652267761927362, 42.511229744754544 ], [ 42.653052107602882, 42.510924163934803 ], [ 42.653851146784788, 42.510225744220918 ], [ 42.654225104017073, 42.509268437951881 ], [ 42.654471612890042, 42.507843908079295 ], [ 42.654537067223323, 42.506094015068122 ], [ 42.654603851362097, 42.504308408932019 ], [ 42.654353001177455, 42.503266827175047 ], [ 42.654064583110035, 42.501938560009954 ], [ 42.653697020674819, 42.500144056904738 ], [ 42.653598996315026, 42.498891165828041 ], [ 42.653618190330334, 42.498793753407874 ], [ 42.65383745478151, 42.497680907685535 ], [ 42.654365452633279, 42.496476577342541 ], [ 42.655090463490325, 42.495169059626328 ], [ 42.656155906467184, 42.493797023487936 ], [ 42.657370068759839, 42.492320800570575 ], [ 42.657568416512348, 42.492010712360155 ], [ 42.657934205414129, 42.491438847215122 ], [ 42.65870067094415, 42.490310850600068 ], [ 42.659020839332484, 42.48949538366184 ], [ 42.658965638687484, 42.488386328932599 ], [ 42.658851095091997, 42.487853354883931 ], [ 42.658842200812344, 42.487811973281929 ], [ 42.657831578498715, 42.48771983473916 ], [ 42.656465858884957, 42.488085036876484 ], [ 42.654103035280308, 42.489287557175935 ], [ 42.65177970956406, 42.490445266890667 ], [ 42.650267676170934, 42.490822685867585 ], [ 42.648699462327265, 42.491433817381598 ], [ 42.646546803664712, 42.492175879591507 ], [ 42.644310995742337, 42.492558795729586 ], [ 42.642367377272762, 42.49287620346584 ], [ 42.639839302340015, 42.493324494928451 ], [ 42.63769185946586, 42.493923539419121 ], [ 42.633720943458954, 42.496772214110131 ], [ 42.631755011136718, 42.500234051652647 ], [ 42.630258622538427, 42.501489723277487 ], [ 42.628174923975266, 42.502947651105032 ], [ 42.626772223366622, 42.504276694728908 ], [ 42.626047868059274, 42.505548303173391 ], [ 42.626288788408296, 42.506839914790156 ], [ 42.627486938328275, 42.5083657929883 ], [ 42.628414450327654, 42.509385703865149 ], [ 42.628848505284317, 42.510681308373208 ], [ 42.628786375921017, 42.512324034025376 ], [ 42.628740450909838, 42.513538221339147 ], [ 42.628689119535736, 42.514895255453972 ], [ 42.62863778464834, 42.516252288296258 ], [ 42.62868299348073, 42.517611319661235 ], [ 42.628711990266595, 42.51939888724214 ], [ 42.628660647786347, 42.520755919037192 ], [ 42.628775386737701, 42.522831174963258 ], [ 42.629002903830539, 42.524479893958748 ], [ 42.62944246418607, 42.525632649953927 ], [ 42.630122629412817, 42.526545401012719 ], [ 42.631420952396716, 42.52727639108496 ], [ 42.632944370179061, 42.527879713934865 ], [ 42.633932666397591, 42.528579181338799 ], [ 42.633959188596407, 42.528602009804573 ], [ 42.634868658388164, 42.529384778291025 ], [ 42.635659821810911, 42.530187377958306 ], [ 42.636768791113205, 42.531532618854676 ], [ 42.637354744617149, 42.532652625778624 ], [ 42.637732640708776, 42.534120074547253 ], [ 42.637734105346659, 42.534125761794684 ], [ 42.637497861870962, 42.535264545448733 ], [ 42.637110007578599, 42.536578897976668 ], [ 42.636516848970551, 42.53821066552571 ], [ 42.635941181765027, 42.539378179849884 ], [ 42.635929451236699, 42.539688968315048 ], [ 42.636215181203227, 42.540783126118292 ], [ 42.636939343858451, 42.542084682676816 ], [ 42.63779397076383, 42.543702749307542 ], [ 42.638131011865063, 42.544105200874121 ], [ 42.639536773052264, 42.545277837341267 ], [ 42.641343753587499, 42.546065588948466 ], [ 42.642827490719938, 42.546453528529071 ], [ 42.643724966530009, 42.547008085128248 ], [ 42.643757807369639, 42.547067092489357 ], [ 42.644449353676045, 42.548309598470794 ], [ 42.64461299059289, 42.54909922617761 ], [ 42.644608895804801, 42.55049297181057 ], [ 42.644861079228257, 42.551498855700757 ], [ 42.645042216267697, 42.551798982739669 ], [ 42.645407107191438, 42.552403563575893 ], [ 42.646695103908009, 42.55414551765805 ], [ 42.647046869949541, 42.55444675478622 ], [ 42.647678594108974, 42.554987724493138 ], [ 42.648073721331677, 42.555207078386871 ], [ 42.648652542188913, 42.555528404381562 ], [ 42.648815069383026, 42.555618628060778 ], [ 42.649903263039633, 42.556248529629244 ], [ 42.650751722135752, 42.556575011233363 ], [ 42.65157113621671, 42.556890308145967 ], [ 42.654562156729, 42.558345430983834 ], [ 42.656281115921587, 42.558916709888265 ], [ 42.657712940030137, 42.559410611723465 ], [ 42.659480266888323, 42.559982831896853 ], [ 42.66066793293421, 42.560543185955432 ], [ 42.662572243581486, 42.561332591243961 ], [ 42.663751964025529, 42.562107185953579 ], [ 42.664543902928912, 42.562909600875074 ], [ 42.664860751795288, 42.563487888642342 ], [ 42.664966494765039, 42.564426564883995 ], [ 42.665280419720929, 42.5648957333525 ], [ 42.66553032073157, 42.565973002749658 ], [ 42.665471698325945, 42.567544331923969 ], [ 42.664854619693948, 42.568532447734626 ], [ 42.663952965128715, 42.569371799184538 ], [ 42.662372200251575, 42.570268761496507 ], [ 42.660799402904566, 42.570951429988881 ], [ 42.659229242924972, 42.571562651531302 ], [ 42.656483398902438, 42.572578668211143 ], [ 42.653740145310756, 42.573523194366381 ], [ 42.652099017510778, 42.574555452446575 ], [ 42.651396199589747, 42.574949286834332 ], [ 42.650212415436357, 42.576082950477492 ], [ 42.649909626492473, 42.576934474602709 ], [ 42.65013030299302, 42.577753854306046 ], [ 42.650150269909744, 42.577770496618065 ], [ 42.650411643418131, 42.577988357497127 ], [ 42.650798210994111, 42.577996288059722 ], [ 42.651419402424075, 42.577937551244368 ], [ 42.652084075385467, 42.577751041173933 ], [ 42.652578006504854, 42.577475254726053 ], [ 42.653289902322847, 42.577060975825745 ], [ 42.654405000066923, 42.576726429594707 ], [ 42.65563016501207, 42.576551377440438 ], [ 42.656641645757162, 42.57640053195324 ], [ 42.657823864306877, 42.576338943266045 ], [ 42.658995841176818, 42.576034106616184 ], [ 42.659999199093363, 42.575582856439837 ], [ 42.661267256396918, 42.575294255183223 ], [ 42.662313090092752, 42.575258425900763 ], [ 42.664171221357506, 42.57522486240218 ], [ 42.665069361907733, 42.575000151368108 ], [ 42.66691280476514, 42.574322939736689 ], [ 42.668940268704368, 42.57337782615781 ], [ 42.670078806049105, 42.572929238412073 ], [ 42.670887886066005, 42.573017174289085 ], [ 42.671709384548116, 42.573291200159503 ], [ 42.672086362276161, 42.573556186008702 ], [ 42.672419372370385, 42.573963233335881 ], [ 42.672755045021695, 42.574298855633309 ], [ 42.673508492178158, 42.574843103605055 ], [ 42.674231334734941, 42.575391244756979 ], [ 42.675121776743708, 42.575889170092942 ], [ 42.676547509080052, 42.576561409148447 ], [ 42.677978575298752, 42.577090782326714 ], [ 42.679524858408058, 42.577122124290014 ], [ 42.681562299444558, 42.576948955227039 ], [ 42.681828400975242, 42.576659052321531 ], [ 42.681827765105041, 42.576637907124685 ], [ 42.681913798796963, 42.575779833874861 ], [ 42.68250365721125, 42.574934152552864 ], [ 42.682625803070067, 42.573309262535822 ], [ 42.683573313297984, 42.570887856423788 ], [ 42.683844955474513, 42.570394775017242 ], [ 42.684334116524397, 42.570000156289268 ], [ 42.684451894959118, 42.569430710740441 ], [ 42.685431418725486, 42.569093119257005 ], [ 42.687398353631927, 42.56820363536751 ], [ 42.689099089241395, 42.566665440542636 ], [ 42.691382125836853, 42.565067480108873 ], [ 42.692677752803149, 42.564021413156389 ], [ 42.69589762498709, 42.561945992769537 ], [ 42.696971468499207, 42.560856059704001 ], [ 42.697785141492552, 42.559764501297437 ], [ 42.698410807514598, 42.558526201855059 ], [ 42.69880147859606, 42.557104480619543 ], [ 42.699114769273926, 42.554828384573582 ], [ 42.699395049757683, 42.552791949096957 ], [ 42.699465913333235, 42.550863448223964 ], [ 42.699365624663798, 42.549646296945703 ], [ 42.69872616535293, 42.548632747835413 ], [ 42.697080323423634, 42.547384529117473 ], [ 42.695059993308121, 42.545807095978645 ], [ 42.694572901816187, 42.54545053192124 ], [ 42.69355392671136, 42.544704595653414 ], [ 42.691715108137053, 42.543452413503502 ], [ 42.686588072988712, 42.539632076024049 ], [ 42.685087583619001, 42.538386619845937 ], [ 42.683726743808336, 42.537286925457067 ], [ 42.682692092083798, 42.536515469975136 ], [ 42.681798368738754, 42.53585407600449 ], [ 42.681147430553018, 42.535161850956328 ], [ 42.680304676583049, 42.534429997716295 ], [ 42.679642963578026, 42.533945352987161 ], [ 42.67955190381371, 42.533878659178463 ], [ 42.678697275178237, 42.533468207737734 ], [ 42.677886974599936, 42.533165867927195 ], [ 42.677358461699988, 42.533083672002959 ], [ 42.67639271627251, 42.533064083726011 ], [ 42.675896594913226, 42.533411411613002 ], [ 42.674895057516629, 42.534356047639768 ], [ 42.674443229379612, 42.534811485672165 ], [ 42.673554142309094, 42.535329520470029 ], [ 42.672619403273259, 42.535775142041004 ], [ 42.671016565541308, 42.535992735860994 ], [ 42.669122652627621, 42.536240122687857 ], [ 42.667767889174577, 42.536284022390021 ], [ 42.666450770292549, 42.536614588042291 ], [ 42.664843899404303, 42.536939231229347 ], [ 42.662999266915676, 42.537240572409196 ], [ 42.660923092832135, 42.537109400048358 ] ] ] ] } }
]
}
