{
"type": "FeatureCollection",
"name": "სალხინო-ოჯალეში",
"crs": { "type": "name", "properties": { "name": "urn:ogc:def:crs:OGC:1.3:CRS84" } },
"features": [
{ "type": "Feature", "properties": { "OBJECTID": 21, "NAME_GEO": "სალხინოს ოჯალეში", "NAME_ENG": "Ojaleshi Salkhino", "Location": "Samegrelo", "MoreInfo": "https://www.sakpatenti.gov.ge/media/django-summernote/2025-11-19/654c8cf6-6536-4e74-b988-cfa543c680b2.pdf" }, "geometry": { "type": "MultiPolygon", "coordinates": [ [ [ [ 42.357604678492734, 42.563135697072468 ], [ 42.362527000450584, 42.557094290722596 ], [ 42.362827182778624, 42.556725832496269 ], [ 42.362856085858738, 42.556690298183597 ], [ 42.363201671347468, 42.556266063235313 ], [ 42.365734610056201, 42.553156683441074 ], [ 42.36627543462378, 42.552492670210526 ], [ 42.366616861559038, 42.552073506704794 ], [ 42.366819355356377, 42.543581922235639 ], [ 42.366348464114516, 42.540169100355008 ], [ 42.366353283310097, 42.539788120152679 ], [ 42.366369313303352, 42.538522342517972 ], [ 42.36632075147719, 42.537661789530148 ], [ 42.367163924307107, 42.536033895054615 ], [ 42.367289266528978, 42.535356359482094 ], [ 42.367125572392005, 42.533490543395061 ], [ 42.367645359842875, 42.532643055878751 ], [ 42.368757671111311, 42.531522687602482 ], [ 42.368817780450073, 42.530091598384473 ], [ 42.368210029532115, 42.529576369681216 ], [ 42.368279840285339, 42.529502782249068 ], [ 42.368407042782884, 42.529368649270708 ], [ 42.368417171755759, 42.529357940953865 ], [ 42.368918574507354, 42.528915024444991 ], [ 42.369200975765786, 42.528669957559288 ], [ 42.369471751414189, 42.528620526753379 ], [ 42.370279045659899, 42.528473150483464 ], [ 42.370914696286455, 42.52835708268254 ], [ 42.372938726111087, 42.528755762479506 ], [ 42.373235865482172, 42.528158792851407 ], [ 42.374187325317955, 42.528180612835506 ], [ 42.374603459233768, 42.527988891716085 ], [ 42.374758337837086, 42.527539625472947 ], [ 42.376446169749663, 42.526219809122544 ], [ 42.377832707495322, 42.525597486078411 ], [ 42.378204607878693, 42.525122386673964 ], [ 42.378335730959456, 42.524954923595253 ], [ 42.37846826780261, 42.524877317728283 ], [ 42.378513130672324, 42.524851104526419 ], [ 42.381891826871019, 42.522872776079531 ], [ 42.382139442922174, 42.520725111407245 ], [ 42.381965109865618, 42.519957545448392 ], [ 42.381958420648957, 42.519928261285365 ], [ 42.381792667801463, 42.519198712238861 ], [ 42.381785830134, 42.519168614217492 ], [ 42.381598646720654, 42.518344607468144 ], [ 42.381581883383852, 42.518270923308421 ], [ 42.381580135454428, 42.518263229074506 ], [ 42.38163369060193, 42.518149729532553 ], [ 42.381662865721168, 42.51808803677811 ], [ 42.381810571967968, 42.517775067197213 ], [ 42.382007544249461, 42.517357954895132 ], [ 42.382089210821114, 42.517184854122746 ], [ 42.382104432875018, 42.517152648919975 ], [ 42.384374607304814, 42.513669146177264 ], [ 42.384381325166302, 42.51350815457802 ], [ 42.384060319412526, 42.512994109611547 ], [ 42.383707288277577, 42.512502385005661 ], [ 42.383449451111709, 42.51196677349045 ], [ 42.383461936932044, 42.511667641420644 ], [ 42.383443470609393, 42.511617241590983 ], [ 42.383353265256694, 42.511360968558911 ], [ 42.383332479499671, 42.511303446765112 ], [ 42.383239076054039, 42.511040706992347 ], [ 42.383068811818546, 42.510645277690308 ], [ 42.382842335336697, 42.510570133327612 ], [ 42.38269494000172, 42.510485584553976 ], [ 42.382546829060971, 42.510472113977087 ], [ 42.381649743318583, 42.510336478461042 ], [ 42.381032519242844, 42.510207191101131 ], [ 42.380534096505734, 42.510073368688367 ], [ 42.380516884850188, 42.510068742651491 ], [ 42.380259707798665, 42.510062860093377 ], [ 42.380209440053797, 42.510106555285475 ], [ 42.379997408516452, 42.510035382773275 ], [ 42.379858162166286, 42.509939445315993 ], [ 42.379747572967574, 42.509977617927696 ], [ 42.379378718307457, 42.509743332031739 ], [ 42.379332875623554, 42.509350699182946 ], [ 42.379004232551395, 42.509020798270356 ], [ 42.37899995834622, 42.508946904204926 ], [ 42.378976238528466, 42.508752978266784 ], [ 42.378986756531049, 42.508501393212207 ], [ 42.378921289987879, 42.50835405842016 ], [ 42.378955769531068, 42.507957275260843 ], [ 42.378676063912543, 42.507791799654392 ], [ 42.378598750149457, 42.507498492042785 ], [ 42.378607055568452, 42.507299850973055 ], [ 42.378412733999937, 42.507255105457077 ], [ 42.378337002570305, 42.507142294782085 ], [ 42.377466977995219, 42.507073928381445 ], [ 42.376886200540042, 42.507060627732557 ], [ 42.376813914961552, 42.507058972081268 ], [ 42.376354164426971, 42.507073564788172 ], [ 42.375702635151171, 42.506867865639705 ], [ 42.375516878798784, 42.506810479307475 ], [ 42.375213088217862, 42.506511303908425 ], [ 42.375183457358503, 42.506482123874711 ], [ 42.375156775798473, 42.506475524013524 ], [ 42.373602558125022, 42.506091352409243 ], [ 42.373408038987854, 42.505968700342855 ], [ 42.374017561584196, 42.505716759058707 ], [ 42.373230770820726, 42.505432842412638 ], [ 42.373180303856948, 42.505328757359479 ], [ 42.373073617416345, 42.505096681946974 ], [ 42.373007565348672, 42.505043613056827 ], [ 42.373213210557431, 42.504900602322436 ], [ 42.373169647355873, 42.504856874260469 ], [ 42.372990900681991, 42.504677401274606 ], [ 42.37274312262754, 42.504683018818014 ], [ 42.372353385443773, 42.504730584150167 ], [ 42.372044775203989, 42.504660242778165 ], [ 42.371795119956992, 42.50464096129874 ], [ 42.371591041837362, 42.504554917378563 ], [ 42.371404338491409, 42.504636495359378 ], [ 42.370914199887032, 42.504525784167186 ], [ 42.370809647883114, 42.50439686329549 ], [ 42.370626332048651, 42.504252536451091 ], [ 42.370288463062032, 42.504183499718863 ], [ 42.369886155394099, 42.503856203637937 ], [ 42.369708453095832, 42.503711599015645 ], [ 42.369660202144225, 42.503672354529769 ], [ 42.369366051809372, 42.50343304341429 ], [ 42.369130101142723, 42.503240994170064 ], [ 42.369345556771677, 42.502988939634655 ], [ 42.369407000043942, 42.502844244260125 ], [ 42.369500859639736, 42.502505559513956 ], [ 42.36952809388, 42.502352424053925 ], [ 42.369635716654848, 42.501906084896966 ], [ 42.369976656220516, 42.501389461426491 ], [ 42.370225064494733, 42.500764903032938 ], [ 42.369649177814921, 42.500368063568196 ], [ 42.369629444182856, 42.499956530348292 ], [ 42.369426877215751, 42.499843592231656 ], [ 42.369014313100884, 42.49961358202092 ], [ 42.369024990338289, 42.499359074754331 ], [ 42.36902547343378, 42.49934755940226 ], [ 42.368932686150643, 42.499266273543533 ], [ 42.368928752943916, 42.499255602265031 ], [ 42.368511560253182, 42.499014227615582 ], [ 42.368484591446531, 42.498998614568791 ], [ 42.368414062075892, 42.498914732968053 ], [ 42.368702878947211, 42.498208890157564 ], [ 42.369019191688054, 42.49803821739058 ], [ 42.369015209226951, 42.49801421752192 ], [ 42.368569857707719, 42.497849594529171 ], [ 42.368443343255706, 42.497699230112815 ], [ 42.368407651728447, 42.497688504471675 ], [ 42.368396205515189, 42.497690132524284 ], [ 42.36830734579911, 42.49769367383206 ], [ 42.368191360603305, 42.497718699121307 ], [ 42.368103979395563, 42.49774645277941 ], [ 42.368011982513785, 42.497746454824096 ], [ 42.367903942352854, 42.497718442617156 ], [ 42.367637531158259, 42.497629383250477 ], [ 42.367532518967757, 42.497600269634077 ], [ 42.367458545140984, 42.497592716035008 ], [ 42.367334828716366, 42.497580146805028 ], [ 42.367221651970432, 42.497541164808013 ], [ 42.367191035986593, 42.497513896139878 ], [ 42.367135724388291, 42.497464717803474 ], [ 42.366798508507102, 42.497282537559194 ], [ 42.366580402951186, 42.497205257322378 ], [ 42.36643102465176, 42.497135860585409 ], [ 42.366175330952444, 42.496995985693587 ], [ 42.365895768717813, 42.496788473723953 ], [ 42.365882671221812, 42.496778717196491 ], [ 42.365755939756319, 42.496580122840733 ], [ 42.365627514532832, 42.496489955095072 ], [ 42.36530816784019, 42.496154915705688 ], [ 42.365080332373012, 42.495969033125718 ], [ 42.364406608769258, 42.495585630208247 ], [ 42.36416265438929, 42.495441743588103 ], [ 42.363604696791299, 42.495173338082239 ], [ 42.363644233087427, 42.495138858364108 ], [ 42.364103111563793, 42.494739060624426 ], [ 42.364263584514497, 42.494599258446534 ], [ 42.364322072181771, 42.494277368454014 ], [ 42.364319287156498, 42.4941742416528 ], [ 42.364312581840672, 42.494044234630714 ], [ 42.364795053904508, 42.493874695609044 ], [ 42.365108083320351, 42.493642858743364 ], [ 42.36509401271195, 42.493549107705604 ], [ 42.365151407067103, 42.493470373277802 ], [ 42.365189069460719, 42.493431212300862 ], [ 42.365175558040463, 42.493324146669302 ], [ 42.365144616566603, 42.493203307554495 ], [ 42.365149096479904, 42.493096655819137 ], [ 42.365176075132453, 42.492991737358452 ], [ 42.365188237080005, 42.492915114068971 ], [ 42.365206479101808, 42.492873345097443 ], [ 42.365238695684099, 42.492834914296523 ], [ 42.365124142035974, 42.492752179074486 ], [ 42.364954284470947, 42.492783886177783 ], [ 42.364711218106059, 42.492840653535858 ], [ 42.364577838183834, 42.492864284410082 ], [ 42.364511518963411, 42.492819489104669 ], [ 42.364495960711906, 42.492808955389073 ], [ 42.364608262914075, 42.492713564679221 ], [ 42.364854379049611, 42.492585637803764 ], [ 42.365099626300449, 42.492475475366149 ], [ 42.365336694980343, 42.492352877395938 ], [ 42.365566975882544, 42.492236876580215 ], [ 42.365567307533674, 42.492208698416029 ], [ 42.36557417200148, 42.492184317562668 ], [ 42.365614896422336, 42.492159139661943 ], [ 42.36568024526909, 42.492129980586689 ], [ 42.365737173491645, 42.492114450541095 ], [ 42.365719673672281, 42.49210234147607 ], [ 42.365662046449977, 42.492101196100442 ], [ 42.365569544998969, 42.492075745356836 ], [ 42.365500429132098, 42.492043943608778 ], [ 42.365443874371216, 42.49201436684811 ], [ 42.365386561839557, 42.491968068268235 ], [ 42.365303873495144, 42.491962474046041 ], [ 42.365254346117965, 42.491939407408772 ], [ 42.365237759346414, 42.491915702765638 ], [ 42.36520728283147, 42.491867815214718 ], [ 42.365188939320412, 42.491810616405068 ], [ 42.365183315232848, 42.491759113234473 ], [ 42.365218853933648, 42.491715445879819 ], [ 42.365274896432958, 42.491664505855084 ], [ 42.365343140981523, 42.491507001622971 ], [ 42.365398835458315, 42.491488966973634 ], [ 42.365442883140737, 42.49146287502117 ], [ 42.365512701002359, 42.491435935022565 ], [ 42.365576165617391, 42.491409614273827 ], [ 42.365617305995478, 42.491370172936065 ], [ 42.365611127470721, 42.491304339004728 ], [ 42.365582738123877, 42.491247314410117 ], [ 42.365570930442061, 42.491208321110541 ], [ 42.365599627591962, 42.491166747524773 ], [ 42.365648971226669, 42.491111600953275 ], [ 42.365754232805244, 42.490980927447104 ], [ 42.365796571406356, 42.490966547631785 ], [ 42.365844700127873, 42.490956263191265 ], [ 42.365888591095867, 42.490952725102126 ], [ 42.36594691635873, 42.490970545750741 ], [ 42.366016565469742, 42.490988176543212 ], [ 42.366033619250757, 42.490938455654742 ], [ 42.366042815844956, 42.49089040010093 ], [ 42.366027596408195, 42.490850067676313 ], [ 42.365998670813553, 42.490807258823388 ], [ 42.365941202787212, 42.490783514585168 ], [ 42.365856045645607, 42.490773001263499 ], [ 42.365789243232484, 42.490768718293033 ], [ 42.365774296480716, 42.49075666795607 ], [ 42.365700379711896, 42.49069724548761 ], [ 42.365525440735276, 42.490567601221898 ], [ 42.365475531346675, 42.490505849213662 ], [ 42.365460146946226, 42.490489736497196 ], [ 42.36540764442465, 42.49039991911139 ], [ 42.36534492124779, 42.490357908517957 ], [ 42.365309281984771, 42.490263481202348 ], [ 42.365386104383752, 42.490158088334439 ], [ 42.36547998697398, 42.490056419709738 ], [ 42.365515929589442, 42.489998758688188 ], [ 42.365545639561276, 42.489928707425562 ], [ 42.36562318080162, 42.489830805115048 ], [ 42.365669446377325, 42.489734479672769 ], [ 42.365737919059448, 42.489641006294761 ], [ 42.365689450597515, 42.489582619384187 ], [ 42.365618562457826, 42.489497467054846 ], [ 42.365460667724271, 42.489411123781885 ], [ 42.365327306846375, 42.489334529817995 ], [ 42.365183476545326, 42.489211724073762 ], [ 42.365099325337951, 42.489145447058711 ], [ 42.365028343698143, 42.489061102667478 ], [ 42.365115565252928, 42.488980397915618 ], [ 42.365453653862289, 42.488914649148768 ], [ 42.365529973660074, 42.488870433908318 ], [ 42.365530319329466, 42.488862202238899 ], [ 42.365502804768667, 42.488846665986657 ], [ 42.365437715693652, 42.488817568292312 ], [ 42.365296412849972, 42.488814227784225 ], [ 42.365234479361114, 42.488796909130585 ], [ 42.365188537353525, 42.48871025924462 ], [ 42.365195747433688, 42.488661707793241 ], [ 42.365247894320603, 42.488622339669291 ], [ 42.365333298298502, 42.488579098963378 ], [ 42.365398702341615, 42.488549986313544 ], [ 42.365528592372947, 42.488497683116492 ], [ 42.365589155091214, 42.488436085840199 ], [ 42.36560620652363, 42.488386409967568 ], [ 42.36559284885552, 42.488336529919543 ], [ 42.36552689761794, 42.488272923101704 ], [ 42.365397309422953, 42.488173182966811 ], [ 42.365379115571216, 42.48814430848924 ], [ 42.365347178789968, 42.488057350472836 ], [ 42.365315400277858, 42.487947793410243 ], [ 42.365290404294562, 42.48788098625436 ], [ 42.365224229237782, 42.487848801740199 ], [ 42.365135505738685, 42.487821906711069 ], [ 42.365072713180957, 42.487788854395085 ], [ 42.364999770594665, 42.487642600164001 ], [ 42.364862887542309, 42.487499332273494 ], [ 42.364817221594315, 42.487461180781011 ], [ 42.364771875354577, 42.487451627663482 ], [ 42.364751412208555, 42.487447824964526 ], [ 42.364635386084565, 42.487438041296642 ], [ 42.364482100250918, 42.487389849067007 ], [ 42.364360039105563, 42.487347057811782 ], [ 42.364343369177639, 42.487309438313467 ], [ 42.364302007759733, 42.487165936525798 ], [ 42.364183299187118, 42.486897105398597 ], [ 42.364132856438133, 42.486826425516441 ], [ 42.364028114982702, 42.486753685482626 ], [ 42.363921666895649, 42.486692612640333 ], [ 42.363914166328669, 42.486671323161538 ], [ 42.363869411770033, 42.486644808784412 ], [ 42.363537555361184, 42.486490117664324 ], [ 42.363277848190997, 42.486465723756702 ], [ 42.363220364180329, 42.486354178540367 ], [ 42.362936574205655, 42.48631081409151 ], [ 42.362653227371858, 42.486258364042406 ], [ 42.362546542331401, 42.48613641032297 ], [ 42.362338743518848, 42.486058098708099 ], [ 42.362275614364201, 42.486036023273272 ], [ 42.362246524207166, 42.486013155862594 ], [ 42.362083269276958, 42.485964910938144 ], [ 42.361889992219467, 42.485915974265005 ], [ 42.361654485114506, 42.485799337045087 ], [ 42.361600981316563, 42.485642407198341 ], [ 42.361589240617107, 42.485564288068126 ], [ 42.361623467595834, 42.485464985379011 ], [ 42.361625805459113, 42.485409388015484 ], [ 42.361704129175465, 42.485333388604566 ], [ 42.36172656758179, 42.485222197809627 ], [ 42.361679312030041, 42.485207466611378 ], [ 42.361565622541043, 42.485162478893926 ], [ 42.361436050345993, 42.485116179635064 ], [ 42.361362226958924, 42.485051893787329 ], [ 42.361277847951904, 42.484894342515382 ], [ 42.361270020037743, 42.484885202141321 ], [ 42.361229423114203, 42.484823527744219 ], [ 42.36117183682093, 42.484821570623033 ], [ 42.361103614536731, 42.484838188973526 ], [ 42.360952148972792, 42.48480912468505 ], [ 42.360873657965755, 42.484813889770848 ], [ 42.360814923998362, 42.484831987290207 ], [ 42.360788546344068, 42.484841555174981 ], [ 42.36071990034695, 42.484869689998334 ], [ 42.360607289802878, 42.484903205219489 ], [ 42.360512330160951, 42.484926366070724 ], [ 42.360371396836079, 42.484956391746231 ], [ 42.360284541214099, 42.484957541728321 ], [ 42.360258096286891, 42.484949908291583 ], [ 42.360204488530947, 42.484934354701814 ], [ 42.360124277514778, 42.48488023161903 ], [ 42.36009073772653, 42.484835919130759 ], [ 42.360074377693458, 42.484688354476702 ], [ 42.360127102051514, 42.484613567098485 ], [ 42.360170125613976, 42.484552468909854 ], [ 42.360327481790137, 42.484509449477905 ], [ 42.360464393128176, 42.484463662368945 ], [ 42.360552799974755, 42.484366329013646 ], [ 42.360604784080756, 42.484287427049964 ], [ 42.3606032319721, 42.484223095208122 ], [ 42.360571084906738, 42.484158688659612 ], [ 42.360517106312557, 42.484111473912023 ], [ 42.360459995340221, 42.484083772939215 ], [ 42.36036816885818, 42.484033929885193 ], [ 42.360355565874301, 42.48403129811156 ], [ 42.360310711075847, 42.484010138043068 ], [ 42.360245528468525, 42.484016695258951 ], [ 42.360168052276812, 42.484045076491682 ], [ 42.359978254906288, 42.484182531338384 ], [ 42.359858398594064, 42.484232132930352 ], [ 42.359837565866329, 42.484237145787873 ], [ 42.359829702042852, 42.484240431459504 ], [ 42.359773472441283, 42.48425250776603 ], [ 42.359708291432767, 42.484259019685652 ], [ 42.359638647880629, 42.484241475254372 ], [ 42.359609252957902, 42.48421288194141 ], [ 42.359596314745822, 42.484148827902722 ], [ 42.359624125691703, 42.484082066228986 ], [ 42.359708237378662, 42.483729746502455 ], [ 42.359798654631341, 42.483613549455555 ], [ 42.359817283962748, 42.48354090289142 ], [ 42.359823837894794, 42.483515254494058 ], [ 42.359918037185018, 42.483356865805021 ], [ 42.359998730721252, 42.48327079147974 ], [ 42.360130747541945, 42.483225612336724 ], [ 42.36019167215477, 42.483159748816092 ], [ 42.360290759963917, 42.483062976994397 ], [ 42.360325605876312, 42.482934512553108 ], [ 42.360321303168604, 42.482876285765244 ], [ 42.360295484832179, 42.482787261092533 ], [ 42.360260795106932, 42.482705235991588 ], [ 42.360181878825031, 42.482668117312635 ], [ 42.360071782250017, 42.482660762005665 ], [ 42.359927766557838, 42.482681756090393 ], [ 42.359666605401181, 42.482753044250174 ], [ 42.359427554548958, 42.482781707359727 ], [ 42.35940950140597, 42.48277849957644 ], [ 42.359325814316719, 42.482763692900043 ], [ 42.359263137556567, 42.482712179717403 ], [ 42.359221596944856, 42.482641207640953 ], [ 42.359218927155553, 42.482629484539878 ], [ 42.359201196230075, 42.482550686728892 ], [ 42.359245079161255, 42.482473489636959 ], [ 42.358047920274061, 42.482399144758432 ], [ 42.357769009239561, 42.48238199475302 ], [ 42.357727687073734, 42.482379555631006 ], [ 42.357516995992817, 42.482374694827357 ], [ 42.357506421939362, 42.482374450865656 ], [ 42.356435809116867, 42.482348799387246 ], [ 42.356428780732443, 42.482349582694411 ], [ 42.35618788711966, 42.482344022328206 ], [ 42.356162232565879, 42.482343655259804 ], [ 42.355487023219865, 42.482327841928544 ], [ 42.354239961101136, 42.482436007999262 ], [ 42.354236032293052, 42.482442626005032 ], [ 42.354236963079714, 42.482481144097349 ], [ 42.354204227064351, 42.482518884469158 ], [ 42.354167078404245, 42.48253720706191 ], [ 42.354123202165482, 42.48253619346923 ], [ 42.354051075200317, 42.482532906305941 ], [ 42.354048548261723, 42.48251060545438 ], [ 42.354045769062225, 42.482494287133399 ], [ 42.353985912371598, 42.482497181704886 ], [ 42.353987473953872, 42.482507753690257 ], [ 42.353952988625053, 42.482506191556666 ], [ 42.353873226582678, 42.482523844731752 ], [ 42.353401833999321, 42.482498454787077 ], [ 42.35229384814869, 42.48243876233618 ], [ 42.352099064839337, 42.48245479080731 ], [ 42.351736343550229, 42.482507998991196 ], [ 42.351235418492124, 42.483045363123672 ], [ 42.350960168484228, 42.483654717288779 ], [ 42.350780974532633, 42.483958410071253 ], [ 42.350709971652648, 42.484326109670654 ], [ 42.350550691612611, 42.484815046213733 ], [ 42.350262435866092, 42.485075152153144 ], [ 42.350135197870905, 42.485462081788981 ], [ 42.350060556534302, 42.485508171613922 ], [ 42.350038661948687, 42.485585828816241 ], [ 42.349972291247745, 42.48563197486596 ], [ 42.349870136359897, 42.485679904342639 ], [ 42.349678133782675, 42.48581850659366 ], [ 42.349553732082072, 42.48592647989593 ], [ 42.349559844464693, 42.485974753301392 ], [ 42.349446710591913, 42.486299828666489 ], [ 42.349023255521686, 42.486483996677883 ], [ 42.348964530339941, 42.486496009883794 ], [ 42.348758960700302, 42.486538077649357 ], [ 42.348670344146427, 42.486495908809331 ], [ 42.348568821620113, 42.486333043714886 ], [ 42.348457398404342, 42.48618998553583 ], [ 42.348357826532045, 42.486093262421726 ], [ 42.348344561319465, 42.486080393270633 ], [ 42.348142042609716, 42.48595530693715 ], [ 42.347877688608691, 42.486009384511959 ], [ 42.347636485863347, 42.486157605028339 ], [ 42.347469501134427, 42.486046757924271 ], [ 42.347209444325543, 42.486000617308818 ], [ 42.347046654712415, 42.486003510381572 ], [ 42.346808274786504, 42.486084932098017 ], [ 42.346732953549981, 42.485942753595751 ], [ 42.346639301468905, 42.485806814103562 ], [ 42.346146790403083, 42.485487745789023 ], [ 42.345951392555008, 42.485552556815975 ], [ 42.345398245828292, 42.485315241720762 ], [ 42.345138081622665, 42.485166796653004 ], [ 42.345091218893714, 42.485140000967426 ], [ 42.34502260156826, 42.485112655943759 ], [ 42.344869102909811, 42.485077174699548 ], [ 42.344723150987392, 42.485067487553643 ], [ 42.344630955486608, 42.485007942943788 ], [ 42.344590085507264, 42.484955981827049 ], [ 42.344550559585883, 42.484872264062403 ], [ 42.344288473783308, 42.484757811573026 ], [ 42.344180774366556, 42.484700968817364 ], [ 42.34416143836512, 42.484692145755531 ], [ 42.344018027808538, 42.484636816060423 ], [ 42.34391261891686, 42.484685385151465 ], [ 42.343771797784299, 42.484758572108632 ], [ 42.343687466480375, 42.484794932712177 ], [ 42.343161911112951, 42.484755412122979 ], [ 42.343054986810792, 42.485025064027994 ], [ 42.342988504572347, 42.485259048551463 ], [ 42.342940712544767, 42.485349025794726 ], [ 42.34293086119753, 42.485367617782352 ], [ 42.342809376774369, 42.485482585265117 ], [ 42.342661124404117, 42.48556023601909 ], [ 42.342525770453641, 42.485583255122883 ], [ 42.342400668500126, 42.485617002824888 ], [ 42.342213040184909, 42.485871678866225 ], [ 42.342169442594717, 42.485983230123843 ], [ 42.342162373603635, 42.486066812935704 ], [ 42.342195360129089, 42.486122464130453 ], [ 42.34220785877072, 42.486162016138444 ], [ 42.34216289137477, 42.486221171304713 ], [ 42.342089995802048, 42.486271843948181 ], [ 42.342003505440438, 42.486311710173666 ], [ 42.341987299733475, 42.4863252018352 ], [ 42.341923998601125, 42.486481095774529 ], [ 42.341847487801964, 42.486614215523694 ], [ 42.341881518089131, 42.48668830633072 ], [ 42.341976633482162, 42.486779438537866 ], [ 42.342030585900879, 42.486924636164616 ], [ 42.342081951401433, 42.487046180532843 ], [ 42.342097420508317, 42.487098903812537 ], [ 42.342350287210252, 42.487557499991539 ], [ 42.342413600264365, 42.487731640704837 ], [ 42.34240573667914, 42.487917277159134 ], [ 42.342421442622445, 42.488129575123224 ], [ 42.342421479667031, 42.488150242540023 ], [ 42.342422665541484, 42.488352027881668 ], [ 42.3423773669128, 42.488653050670763 ], [ 42.342374224539363, 42.488674094560956 ], [ 42.342193847882932, 42.488883733418923 ], [ 42.341904036716635, 42.489117532131907 ], [ 42.341608903386394, 42.489264398032809 ], [ 42.341379806960724, 42.489345933739237 ], [ 42.341008003839356, 42.489384038496461 ], [ 42.340754345383104, 42.489404894099252 ], [ 42.34050618632098, 42.48939647540675 ], [ 42.340487272893462, 42.489410669396996 ], [ 42.340287314620234, 42.489561092642283 ], [ 42.339846539221092, 42.489737935288751 ], [ 42.339518412046701, 42.489810503318679 ], [ 42.33925145094404, 42.489931227537504 ], [ 42.338981373059241, 42.490125404789943 ], [ 42.338877088482079, 42.490243243954041 ], [ 42.338874950332936, 42.490250623424217 ], [ 42.338856064279319, 42.490315786250868 ], [ 42.33883668023347, 42.490382648458336 ], [ 42.338819531713256, 42.490535920849105 ], [ 42.33882376138159, 42.490565285477608 ], [ 42.338838773443612, 42.490671758576013 ], [ 42.338840410263444, 42.490683368072467 ], [ 42.339010821532582, 42.491135012621676 ], [ 42.339129995199116, 42.49138762600456 ], [ 42.339139248691559, 42.491407562006216 ], [ 42.339391153412407, 42.491958983939654 ], [ 42.339513707053207, 42.492262508815521 ], [ 42.339687304860142, 42.492640655239825 ], [ 42.339869330626279, 42.492818680290831 ], [ 42.339923929558239, 42.493020355335638 ], [ 42.339846182931431, 42.493152184163471 ], [ 42.33963833329625, 42.49336784436894 ], [ 42.339415383365477, 42.493516336092256 ], [ 42.33909346032268, 42.49365586419971 ], [ 42.338781725767873, 42.493768883206045 ], [ 42.338624128159829, 42.493865447058774 ], [ 42.338423696374917, 42.493907570427581 ], [ 42.338227204826552, 42.493917051749968 ], [ 42.338229866518191, 42.493923146978069 ], [ 42.338100680193847, 42.494041217042863 ], [ 42.337985715695304, 42.494108018723793 ], [ 42.337975788917383, 42.494136919250295 ], [ 42.337965035399783, 42.494168096841022 ], [ 42.337883565566294, 42.49423126448071 ], [ 42.337688968656785, 42.494249118560404 ], [ 42.337631879721258, 42.494380030257766 ], [ 42.337544347104966, 42.494491413696672 ], [ 42.33750376596425, 42.494543014613143 ], [ 42.337335696050566, 42.494651129788686 ], [ 42.337156361626931, 42.494752274064332 ], [ 42.337076628917615, 42.494828944017051 ], [ 42.337074646249903, 42.49484411640821 ], [ 42.337063197355349, 42.494931784265646 ], [ 42.337001135594598, 42.495037906236817 ], [ 42.336959466876664, 42.495090742367672 ], [ 42.336855607076572, 42.495182519887521 ], [ 42.336834300879993, 42.495191389672328 ], [ 42.336811968251467, 42.495293212451564 ], [ 42.336705684215168, 42.495457829120078 ], [ 42.33663664072526, 42.495596521781628 ], [ 42.336519540205998, 42.495800914051465 ], [ 42.336406645256162, 42.495906258706896 ], [ 42.336355953960627, 42.49603398665144 ], [ 42.336338225245527, 42.496061760041123 ], [ 42.336235907705301, 42.496221740859625 ], [ 42.336053470361215, 42.496471709215896 ], [ 42.336026847734395, 42.496508325725308 ], [ 42.33596994665254, 42.496563058417792 ], [ 42.335943091578855, 42.496625198734883 ], [ 42.335971554162107, 42.496668454557856 ], [ 42.33592910442254, 42.496990297122949 ], [ 42.335881743287594, 42.497124090632894 ], [ 42.335882025177206, 42.497273580528635 ], [ 42.335893773968593, 42.497386596680286 ], [ 42.335893477181948, 42.497472362593065 ], [ 42.335769526053895, 42.497739044469327 ], [ 42.335678731517845, 42.497849675134475 ], [ 42.335574896336553, 42.497893455247123 ], [ 42.335401668506037, 42.497978034428087 ], [ 42.335250734729129, 42.497990416543338 ], [ 42.335155457727268, 42.498210803716368 ], [ 42.335160043705017, 42.49860834691242 ], [ 42.335242356693769, 42.499198559981636 ], [ 42.335012199700074, 42.499558853270294 ], [ 42.334747899535664, 42.499711686365238 ], [ 42.334597706287511, 42.499772396742799 ], [ 42.334573869404878, 42.499817857611454 ], [ 42.334543976599775, 42.499891273181433 ], [ 42.334576236362594, 42.499971178074752 ], [ 42.334583153462745, 42.500017444741914 ], [ 42.33466238495101, 42.500144638525349 ], [ 42.334309744074893, 42.500683665850239 ], [ 42.334142385503355, 42.500953432713494 ], [ 42.333917629610092, 42.501419658292122 ], [ 42.333868091847464, 42.501537191157134 ], [ 42.333583431827734, 42.501734977786249 ], [ 42.333265906164996, 42.501971530425507 ], [ 42.333006246765031, 42.502209474756633 ], [ 42.332896140850728, 42.50228601966019 ], [ 42.332866250952769, 42.502357858943149 ], [ 42.332715059926784, 42.502561993390216 ], [ 42.33259957006608, 42.502654936804383 ], [ 42.33241185109565, 42.502888071670327 ], [ 42.331857996200036, 42.503461620911047 ], [ 42.331727391525348, 42.503625125733649 ], [ 42.331459678354214, 42.503808938793384 ], [ 42.3312309043217, 42.503892757493702 ], [ 42.330762194034044, 42.504048111664872 ], [ 42.330753391276275, 42.504086222809285 ], [ 42.33079213571294, 42.50469127182798 ], [ 42.330721316819734, 42.505065490253976 ], [ 42.33030352926702, 42.505196545177945 ], [ 42.330039942607833, 42.505304628863662 ], [ 42.329920461461931, 42.505506797222367 ], [ 42.329872553313713, 42.505637243394688 ], [ 42.329747602719536, 42.505787775404769 ], [ 42.329694167905934, 42.505949385028792 ], [ 42.329628293555849, 42.506104446090283 ], [ 42.32950453882502, 42.506226865061485 ], [ 42.329429751142762, 42.506294009407419 ], [ 42.329370469230319, 42.506392852706803 ], [ 42.329282625286432, 42.506666492417736 ], [ 42.329227375856746, 42.507069213486545 ], [ 42.329211061762969, 42.507253615706226 ], [ 42.329232014941354, 42.507357436767499 ], [ 42.329208970892772, 42.50760125012831 ], [ 42.329228387621079, 42.507839705174675 ], [ 42.329273727441823, 42.508266744178968 ], [ 42.329333135843406, 42.508422115132745 ], [ 42.329344406847035, 42.508576093358592 ], [ 42.329419122291768, 42.508706427114149 ], [ 42.329367603765661, 42.50887010731752 ], [ 42.329340298020561, 42.50940679898892 ], [ 42.329200976267984, 42.509538760022622 ], [ 42.329058198983155, 42.509647542463775 ], [ 42.328987737746296, 42.509731581697523 ], [ 42.328979650674398, 42.509817120686165 ], [ 42.329024863070956, 42.509907189598074 ], [ 42.329064453666675, 42.510023512028553 ], [ 42.329047517363037, 42.510211051383131 ], [ 42.329038818444999, 42.510415216971907 ], [ 42.329001234038742, 42.510566029616307 ], [ 42.328981683734369, 42.510710644183106 ], [ 42.328977193236042, 42.510816033015885 ], [ 42.328950108600516, 42.510927513550762 ], [ 42.328933005002469, 42.511016129049068 ], [ 42.328893310998026, 42.511110746272756 ], [ 42.328876906838424, 42.511182943951091 ], [ 42.328925983661478, 42.511249464902022 ], [ 42.328932351155728, 42.51130855113032 ], [ 42.328937070269191, 42.511396324856598 ], [ 42.328925154180759, 42.511477452114981 ], [ 42.32888030739921, 42.511535884127397 ], [ 42.328826002887858, 42.511619174443986 ], [ 42.328784674914637, 42.511793537788833 ], [ 42.328780942959071, 42.511881114394015 ], [ 42.32884487879199, 42.511970269329446 ], [ 42.328889123465132, 42.512024520837706 ], [ 42.32897890217852, 42.512171325114139 ], [ 42.328940518046274, 42.512220902875136 ], [ 42.328885811750432, 42.512340744127528 ], [ 42.328840221703068, 42.5125965483114 ], [ 42.328767651974189, 42.512785671515211 ], [ 42.328709822177807, 42.51297878550924 ], [ 42.328706764467903, 42.513283308178387 ], [ 42.328735468428555, 42.513356648031667 ], [ 42.328698044074308, 42.51340795903554 ], [ 42.328722160793539, 42.513417571595362 ], [ 42.328654666628715, 42.513490423523578 ], [ 42.328564846464914, 42.51362587963262 ], [ 42.32849916325906, 42.51376189872569 ], [ 42.328384315073137, 42.513923380598968 ], [ 42.32823598974182, 42.514026404347071 ], [ 42.328053054325956, 42.514097553168867 ], [ 42.327852309702891, 42.514163873703055 ], [ 42.327662786642186, 42.514248195575156 ], [ 42.327538414541714, 42.514351777348992 ], [ 42.327475253379497, 42.514425720225162 ], [ 42.327383311951408, 42.514472381657086 ], [ 42.327308045698537, 42.514550454383482 ], [ 42.327262121359666, 42.514642629296773 ], [ 42.327221842079659, 42.514743715807164 ], [ 42.327211286554984, 42.514849953496366 ], [ 42.327249268402213, 42.51494404162154 ], [ 42.327259399433537, 42.514953373107687 ], [ 42.327353160092585, 42.51503962290937 ], [ 42.327421813781349, 42.515116641920791 ], [ 42.327538249541014, 42.515199233417562 ], [ 42.327599621830338, 42.515307149627674 ], [ 42.327605740560116, 42.515444843673244 ], [ 42.327563758155335, 42.515585872715825 ], [ 42.327559222314676, 42.51569225090126 ], [ 42.327583717893745, 42.515821458837557 ], [ 42.327670745798322, 42.515890081578085 ], [ 42.327768491238771, 42.515989976534378 ], [ 42.32778193110309, 42.516234325418523 ], [ 42.327751672155756, 42.516384452960537 ], [ 42.327626667272412, 42.516501347403221 ], [ 42.327521989134588, 42.516565451536067 ], [ 42.327428265526969, 42.516618149755978 ], [ 42.327320368041327, 42.516630715048485 ], [ 42.327277041431927, 42.51663767329805 ], [ 42.327189110065305, 42.516635891232916 ], [ 42.327111750859594, 42.516657363604949 ], [ 42.327029121650952, 42.516695372152014 ], [ 42.326806748252544, 42.516743446122653 ], [ 42.326710480601953, 42.516784422902084 ], [ 42.32656447240317, 42.516834324021971 ], [ 42.326335718221046, 42.516922095194467 ], [ 42.32615552142579, 42.517034367594967 ], [ 42.325824799613493, 42.51729949650678 ], [ 42.325704918165655, 42.517473059777465 ], [ 42.325607389192072, 42.517650521788042 ], [ 42.32549774153506, 42.517900866217424 ], [ 42.325430372013486, 42.518108928963514 ], [ 42.325360507744335, 42.518376861588088 ], [ 42.325387931011718, 42.518577142633383 ], [ 42.325430797391185, 42.518837712526434 ], [ 42.325476359232795, 42.519035130340086 ], [ 42.325475852265107, 42.519258081967756 ], [ 42.325516206593534, 42.51947199233728 ], [ 42.32551403973342, 42.519837949387153 ], [ 42.325541563147667, 42.519931793769793 ], [ 42.325527173590366, 42.520057887714692 ], [ 42.325482196042856, 42.52016336627841 ], [ 42.325469224959015, 42.520256219918572 ], [ 42.325478749991724, 42.520349643966817 ], [ 42.325519814267984, 42.520408595095695 ], [ 42.325544988064607, 42.520430569842894 ], [ 42.325586233941742, 42.520465301779225 ], [ 42.325740985437214, 42.520528798812471 ], [ 42.325952185140103, 42.52064021453112 ], [ 42.326149886660914, 42.520751314698671 ], [ 42.326284086435308, 42.520874259319747 ], [ 42.326367278658559, 42.521079984420631 ], [ 42.326358341247349, 42.521289456828185 ], [ 42.326308387175033, 42.521463077296296 ], [ 42.326179187180067, 42.521722195844397 ], [ 42.326098597781453, 42.521839179968595 ], [ 42.326007479891629, 42.521980366723987 ], [ 42.325853428447488, 42.522158535119424 ], [ 42.325730483135089, 42.522271017956193 ], [ 42.325525158661044, 42.522542360754009 ], [ 42.325382021436141, 42.522685799024764 ], [ 42.325244458587434, 42.522808430726499 ], [ 42.325048555451104, 42.523079992681687 ], [ 42.324917347066823, 42.523276163002706 ], [ 42.324810116306807, 42.523462447517772 ], [ 42.324709182918099, 42.523613849665779 ], [ 42.324671480281381, 42.523721343814302 ], [ 42.324658327160996, 42.523808429868467 ], [ 42.324513901726093, 42.524091684249221 ], [ 42.324391965054332, 42.524291582480998 ], [ 42.324324374698307, 42.52432494258732 ], [ 42.324158560020763, 42.524335025960752 ], [ 42.324105317006747, 42.524347424403139 ], [ 42.324063077965349, 42.524357288408233 ], [ 42.323965420529518, 42.524431908919922 ], [ 42.323851593047813, 42.524551626614219 ], [ 42.323727000498266, 42.524702474962297 ], [ 42.32371846206695, 42.524796917742897 ], [ 42.323331011550444, 42.525260218441197 ], [ 42.322741288747416, 42.525475429582706 ], [ 42.32213527902757, 42.525618712267971 ], [ 42.321945401034462, 42.525612065780926 ], [ 42.321731449626775, 42.525833942554144 ], [ 42.321424377752159, 42.526152290344548 ], [ 42.321161091208211, 42.526141269011489 ], [ 42.321061734882285, 42.526651237784698 ], [ 42.321039412701801, 42.526804565576327 ], [ 42.321017635220677, 42.526869702380935 ], [ 42.320897664229776, 42.527228220308857 ], [ 42.320761722878693, 42.52763418085032 ], [ 42.320737273525751, 42.527672105086339 ], [ 42.320532703712701, 42.527990327080332 ], [ 42.320458957121005, 42.528104855712947 ], [ 42.320402414651902, 42.528227035864106 ], [ 42.320281094787219, 42.528488853117537 ], [ 42.320429095702202, 42.528692001553523 ], [ 42.320596228994049, 42.529005773276189 ], [ 42.320720192587444, 42.529147575354614 ], [ 42.320863164494938, 42.52936447321698 ], [ 42.320936039608462, 42.529505214887671 ], [ 42.320974774766142, 42.529612965060188 ], [ 42.320990946396726, 42.529741574168092 ], [ 42.320994530478224, 42.529827160210736 ], [ 42.320926841262541, 42.529889692039866 ], [ 42.320785595159734, 42.529982560600089 ], [ 42.320531271245301, 42.530134512273371 ], [ 42.31995528139268, 42.530481322430845 ], [ 42.319880881491137, 42.530537032897136 ], [ 42.319671702795006, 42.530693731237271 ], [ 42.319371363424999, 42.530959191467268 ], [ 42.319250911420333, 42.531073886628633 ], [ 42.319180584840936, 42.531129691983594 ], [ 42.319132214572058, 42.531185966283246 ], [ 42.319055457067627, 42.531275389635162 ], [ 42.31872130412949, 42.531684991427603 ], [ 42.318636034094226, 42.531947650826183 ], [ 42.31856275725152, 42.532173310418791 ], [ 42.318421491648508, 42.532511020551944 ], [ 42.318366014518631, 42.532643670293687 ], [ 42.318337867629602, 42.532710998649719 ], [ 42.318336988064608, 42.53274434144857 ], [ 42.318330007495213, 42.533002665501478 ], [ 42.318246624780592, 42.533448664794506 ], [ 42.318265841387245, 42.533642541448927 ], [ 42.318374863347323, 42.533628615432526 ], [ 42.318398025570495, 42.533802863587155 ], [ 42.318427919507791, 42.533960655212134 ], [ 42.318393222264582, 42.534116979317339 ], [ 42.31833049265726, 42.534276789235975 ], [ 42.31843932166467, 42.534477852144114 ], [ 42.318452879741969, 42.534721438707798 ], [ 42.318455056806727, 42.534937923966986 ], [ 42.318463847002761, 42.53499283495281 ], [ 42.318474006204255, 42.535057008081715 ], [ 42.318482222576954, 42.535108258618564 ], [ 42.318543147772239, 42.53529208077574 ], [ 42.318605314332238, 42.535582010416611 ], [ 42.318603289408991, 42.535764403527644 ], [ 42.318591160548159, 42.535912611338894 ], [ 42.318507945352835, 42.536114309965704 ], [ 42.318451108176255, 42.536235986794836 ], [ 42.318421750095375, 42.536287483062843 ], [ 42.318389096709701, 42.536344845429106 ], [ 42.318379385886161, 42.536355514027996 ], [ 42.318244685901043, 42.536502652392279 ], [ 42.31809268002884, 42.536702739676748 ], [ 42.317783825888796, 42.536950076072692 ], [ 42.317627735768738, 42.537111840998037 ], [ 42.317495359807481, 42.53725723189573 ], [ 42.317403488365564, 42.53739082949172 ], [ 42.317375864524742, 42.537461501640877 ], [ 42.317379700996071, 42.537585139549371 ], [ 42.317416856237138, 42.537822119970059 ], [ 42.317433406674347, 42.537988649161598 ], [ 42.317422828925061, 42.538097721558472 ], [ 42.317477959081657, 42.538190818575401 ], [ 42.317615373600418, 42.538294577866225 ], [ 42.317998216603698, 42.538740825849885 ], [ 42.31815823317303, 42.53887131827863 ], [ 42.318199554020687, 42.538961345022834 ], [ 42.318205372542138, 42.538977600162482 ], [ 42.318228695347379, 42.539074184234487 ], [ 42.318246750850271, 42.539144485545386 ], [ 42.318356861450695, 42.539479302059696 ], [ 42.318383450060381, 42.539650343517025 ], [ 42.318376667947035, 42.539751850655634 ], [ 42.318360322745264, 42.539951558018046 ], [ 42.318319204678673, 42.540043030983867 ], [ 42.318288380770454, 42.540111647296484 ], [ 42.318251757644759, 42.540230375442661 ], [ 42.318249834151189, 42.540236904014236 ], [ 42.318312218846096, 42.54035687020324 ], [ 42.318376944868504, 42.540420745287143 ], [ 42.318378259991341, 42.540431266858015 ], [ 42.318395841595283, 42.540570940220427 ], [ 42.318333581374418, 42.54066416931753 ], [ 42.318305669100702, 42.540706019046155 ], [ 42.318139438388613, 42.540845620007424 ], [ 42.317966355058786, 42.540947599610334 ], [ 42.317855741497361, 42.540969952544458 ], [ 42.317636115264918, 42.540977280003929 ], [ 42.317467363439356, 42.540979540386985 ], [ 42.317319436464025, 42.540976074971617 ], [ 42.317290362004023, 42.540975393835481 ], [ 42.317258737488103, 42.540983072582364 ], [ 42.317102890385357, 42.541020934175286 ], [ 42.316868401025459, 42.541177619288405 ], [ 42.316653491451738, 42.541272358398786 ], [ 42.316564147874807, 42.541325465139458 ], [ 42.316411140058911, 42.541416386467603 ], [ 42.316158996797284, 42.541591386681695 ], [ 42.315937406180844, 42.541841933621875 ], [ 42.315856895841854, 42.541946034775314 ], [ 42.315784512441446, 42.542045193547857 ], [ 42.315735734108095, 42.542112127578214 ], [ 42.315715425693242, 42.542139882049277 ], [ 42.315658357291419, 42.542219813969382 ], [ 42.315576570524826, 42.54233946356041 ], [ 42.315429099142719, 42.542620697903764 ], [ 42.315417734853639, 42.542665636335713 ], [ 42.315350668365028, 42.542842407068875 ], [ 42.315263848825523, 42.543085081128083 ], [ 42.315204996340917, 42.543250608054421 ], [ 42.315138747787472, 42.543436672919341 ], [ 42.315108701458804, 42.54352111023843 ], [ 42.315088626924449, 42.543605871405518 ], [ 42.315028490792095, 42.54385952658275 ], [ 42.315054995405831, 42.543880409180289 ], [ 42.315200489963104, 42.544028800209475 ], [ 42.315289647845496, 42.544161912574793 ], [ 42.315457094059582, 42.544535401362758 ], [ 42.315499828321734, 42.544718843466157 ], [ 42.315409493723024, 42.54490853108841 ], [ 42.31532009870044, 42.545074872819917 ], [ 42.31508062627271, 42.545402666343797 ], [ 42.315071440697245, 42.545415237994256 ], [ 42.315004884830991, 42.545638215792629 ], [ 42.314812900071395, 42.545984546754653 ], [ 42.314768249722995, 42.546176610798526 ], [ 42.314756559241538, 42.54627597638914 ], [ 42.31474531213621, 42.546380620267726 ], [ 42.314711587703989, 42.546576317344517 ], [ 42.314680530262891, 42.546711248540049 ], [ 42.314608907776048, 42.54690605683556 ], [ 42.314524901463805, 42.546980718833595 ], [ 42.314446468262076, 42.547107154832922 ], [ 42.314433410438035, 42.547121976898403 ], [ 42.314408380888786, 42.547147594271813 ], [ 42.314342173019504, 42.547372290713994 ], [ 42.314265363458894, 42.547538926710928 ], [ 42.314191284023742, 42.547644753263071 ], [ 42.314060063286639, 42.547753967060231 ], [ 42.313935971408085, 42.54784461764347 ], [ 42.313791697281538, 42.547962845045191 ], [ 42.313652143313845, 42.548118643558396 ], [ 42.31342086982967, 42.548347121105685 ], [ 42.313135941043008, 42.548794239890391 ], [ 42.313062930496308, 42.548937506292589 ], [ 42.313377662097139, 42.548959479023338 ], [ 42.313358514817793, 42.548988475945201 ], [ 42.313346814836535, 42.549100763209928 ], [ 42.31346732181445, 42.549517997954709 ], [ 42.31354655977254, 42.549929176568305 ], [ 42.313538713198831, 42.550112017904667 ], [ 42.31365170885811, 42.550243169328375 ], [ 42.313734938129834, 42.550308786777222 ], [ 42.313804203881425, 42.550342199112727 ], [ 42.313873759217607, 42.550368864494004 ], [ 42.31391765285079, 42.550381915735763 ], [ 42.313945873899556, 42.55040968260068 ], [ 42.314148849648703, 42.550633668966768 ], [ 42.314160457883389, 42.550648394173294 ], [ 42.314160912217744, 42.550695995940302 ], [ 42.314207557989199, 42.55082658107137 ], [ 42.314236135437334, 42.550877273796765 ], [ 42.314271577978829, 42.550909892528438 ], [ 42.314356562922775, 42.550934623250519 ], [ 42.31439163157679, 42.550930538044454 ], [ 42.314590538717439, 42.551030835397235 ], [ 42.314631520453858, 42.55111603769835 ], [ 42.314666827357939, 42.55115324564656 ], [ 42.314729269096517, 42.551202391112902 ], [ 42.314798729320358, 42.551231304938838 ], [ 42.314877474108528, 42.551258140179186 ], [ 42.314966245358121, 42.551267020491636 ], [ 42.315048419810438, 42.551284886069929 ], [ 42.3151784479412, 42.551335661044497 ], [ 42.315227541934874, 42.551336812121107 ], [ 42.315304510782255, 42.551334069224914 ], [ 42.315366672826663, 42.551317336648275 ], [ 42.315476699400442, 42.551260843752964 ], [ 42.315500462947774, 42.551246317587214 ], [ 42.315525873927825, 42.551233135754543 ], [ 42.315634627880769, 42.551183591699647 ], [ 42.315707714508768, 42.551177650817046 ], [ 42.315753571841491, 42.551183273288672 ], [ 42.315826076233037, 42.551212212827757 ], [ 42.315886874457782, 42.551227280463713 ], [ 42.315943849859536, 42.551260493466216 ], [ 42.315988737190537, 42.551288740533394 ], [ 42.316043062442098, 42.551312751353436 ], [ 42.316112852159399, 42.551332577116369 ], [ 42.316170698053213, 42.551354013936695 ], [ 42.316238318889198, 42.551417327678479 ], [ 42.316288083877694, 42.5514752701785 ], [ 42.316362133361835, 42.551540625552107 ], [ 42.316445230370228, 42.551581024102319 ], [ 42.316454201471366, 42.551556425732556 ], [ 42.316499504989523, 42.551563610791952 ], [ 42.316492597395779, 42.551586951807465 ], [ 42.316553098247169, 42.55159476314428 ], [ 42.316559764798349, 42.551605455152789 ], [ 42.316636803693221, 42.551619552241881 ], [ 42.316747557345977, 42.551624218710558 ], [ 42.316861988624602, 42.551608439980257 ], [ 42.316948653171714, 42.551571299167939 ], [ 42.317045478213032, 42.551535792118869 ], [ 42.317162957838988, 42.551495771168042 ], [ 42.317226050015847, 42.551509901295844 ], [ 42.317259676673331, 42.55158493486136 ], [ 42.317265579222088, 42.551640453537459 ], [ 42.317308335536104, 42.551744021520399 ], [ 42.317349962895619, 42.551808571642951 ], [ 42.317392205254613, 42.551858773276919 ], [ 42.317440245896982, 42.551902987371029 ], [ 42.31745466047952, 42.551954563172828 ], [ 42.31743339708904, 42.552062799700508 ], [ 42.317428755823798, 42.552105734586902 ], [ 42.31742988495705, 42.55214475243254 ], [ 42.317445614213518, 42.552165652185032 ], [ 42.317512021334458, 42.552169233985467 ], [ 42.317573741573092, 42.552154290849977 ], [ 42.317636446364489, 42.552123477023663 ], [ 42.317735707321447, 42.55211071890767 ], [ 42.318046251546583, 42.552014796136014 ], [ 42.318110144750783, 42.551953393081412 ], [ 42.318164633654533, 42.551874120051444 ], [ 42.318201811732706, 42.551799484339902 ], [ 42.318296367692071, 42.551738754276293 ], [ 42.318450799795528, 42.551664883347208 ], [ 42.318566462299273, 42.551709915100808 ], [ 42.318606697119911, 42.551741609149119 ], [ 42.318666249966462, 42.551775826674898 ], [ 42.318704011225044, 42.551801294382585 ], [ 42.318804314585137, 42.551920572192849 ], [ 42.31883428467232, 42.551997140571402 ], [ 42.318840162781321, 42.552054684709056 ], [ 42.318883575997845, 42.55218847906999 ], [ 42.318874550768392, 42.552296822320791 ], [ 42.318859549689755, 42.552318623235429 ], [ 42.318821482719528, 42.552449564252129 ], [ 42.318793600210746, 42.552560257482433 ], [ 42.31879719879749, 42.552584294886771 ], [ 42.318837932464852, 42.552605779925337 ], [ 42.318888852699267, 42.552606972194901 ], [ 42.318931257873679, 42.552590855683526 ], [ 42.318974409413947, 42.552555891279525 ], [ 42.319008594213905, 42.552515584102771 ], [ 42.319066419718048, 42.552462187923673 ], [ 42.319172176229053, 42.552319099037177 ], [ 42.319253181959908, 42.552266200422963 ], [ 42.319322494633873, 42.552214738950582 ], [ 42.319392567558289, 42.552200980914648 ], [ 42.31945735814881, 42.552202497631086 ], [ 42.31958516762672, 42.552232684406469 ], [ 42.319660544236989, 42.552230171458739 ], [ 42.319729958429157, 42.55223179624749 ], [ 42.319793227251886, 42.552241831848946 ], [ 42.31983970663272, 42.552238642402266 ], [ 42.319872440733114, 42.55221797680602 ], [ 42.319882818545906, 42.552177562390376 ], [ 42.319873364643158, 42.552128129107025 ], [ 42.319846656754237, 42.552104766510688 ], [ 42.319870697950954, 42.552019737234765 ], [ 42.319883116607542, 42.551967213912683 ], [ 42.319916252659283, 42.551910132717538 ], [ 42.319965826501871, 42.551865953106251 ], [ 42.320066187516716, 42.551884375810864 ], [ 42.32013167602193, 42.551909411378311 ], [ 42.320188523941354, 42.551934289719355 ], [ 42.320213371724684, 42.551962696497952 ], [ 42.320258690539426, 42.551985188831047 ], [ 42.320316272213148, 42.551992929864355 ], [ 42.320405761674429, 42.551999301383375 ], [ 42.320456037274958, 42.552007006451475 ], [ 42.320507202731285, 42.552010995268866 ], [ 42.320547223142562, 42.552040612484056 ], [ 42.320558266581749, 42.552101294062851 ], [ 42.320496882026738, 42.552263477480103 ], [ 42.320474621023926, 42.552383757870103 ], [ 42.320425833977183, 42.552568883455749 ], [ 42.320450506711879, 42.552629838951226 ], [ 42.320497279245266, 42.552651104516144 ], [ 42.320559343578971, 42.552632385744879 ], [ 42.320594425667444, 42.55260808285859 ], [ 42.320686947784452, 42.552488140757838 ], [ 42.320782185991952, 42.552382985209967 ], [ 42.320862246801937, 42.552384858417483 ], [ 42.32096936378656, 42.552431848995717 ], [ 42.321030241629643, 42.552466456492709 ], [ 42.32107749168869, 42.552483680768823 ], [ 42.321142615753985, 42.552491642867203 ], [ 42.32122556142928, 42.552488720641811 ], [ 42.321289735027634, 42.55246766450577 ], [ 42.321354261586322, 42.55243693627655 ], [ 42.321412339410209, 42.552406057160908 ], [ 42.321445872020917, 42.552380952344791 ], [ 42.321527574047899, 42.552360125996309 ], [ 42.321705284113449, 42.55234420167568 ], [ 42.321793498606482, 42.552299259137939 ], [ 42.321846012440865, 42.552303053770764 ], [ 42.32189349970642, 42.552291962711408 ], [ 42.321944621980464, 42.552251420431475 ], [ 42.321960221650471, 42.552217026185538 ], [ 42.321964824621155, 42.552164950188832 ], [ 42.321965126881878, 42.552102372899697 ], [ 42.321943874444287, 42.552049692212073 ], [ 42.321925230170685, 42.55199013871237 ], [ 42.321909633256389, 42.55191629359485 ], [ 42.321948402118039, 42.55185988383738 ], [ 42.322060391681049, 42.551788707413358 ], [ 42.322183511375506, 42.551774792457543 ], [ 42.322266286745979, 42.551824229240431 ], [ 42.322315990520366, 42.551872352318576 ], [ 42.3224417837963, 42.552010908284885 ], [ 42.322530732880359, 42.552041308706613 ], [ 42.322645765008467, 42.552111130227971 ], [ 42.322757525539778, 42.552150663555516 ], [ 42.32284665700152, 42.552189622693355 ], [ 42.322947489138983, 42.552272529288196 ], [ 42.323033893207381, 42.552375269570966 ], [ 42.32310824938979, 42.552440762846651 ], [ 42.32318744641173, 42.55243293391851 ], [ 42.32319269392972, 42.552417027787243 ], [ 42.323196607332513, 42.552392445722397 ], [ 42.323200048474902, 42.552311976939073 ], [ 42.323256729092982, 42.552259632452177 ], [ 42.323394387428124, 42.552300220790855 ], [ 42.323539639598486, 42.552355484419778 ], [ 42.323641279978993, 42.552378211244559 ], [ 42.323720253183112, 42.552404100232231 ], [ 42.323803582371646, 42.552444904103936 ], [ 42.323858105674411, 42.552457254449713 ], [ 42.32390858650399, 42.552447358132362 ], [ 42.323960174942847, 42.552411553437096 ], [ 42.323981534341932, 42.552380580320126 ], [ 42.324005660545637, 42.552340441789411 ], [ 42.324020400778004, 42.552311880387357 ], [ 42.324068348994054, 42.552278602006183 ], [ 42.324174613460507, 42.552237321209702 ], [ 42.324237902051173, 42.55225545926681 ], [ 42.324257417237845, 42.552307513619098 ], [ 42.324277140385185, 42.552548451542222 ], [ 42.32431822645102, 42.552640091388781 ], [ 42.324376376720494, 42.552685844533244 ], [ 42.324442975874149, 42.552707751860574 ], [ 42.324505217050543, 42.552714789215671 ], [ 42.324560530908187, 42.552708652537994 ], [ 42.324612513325746, 42.552663626685835 ], [ 42.324658638085673, 42.552638815127672 ], [ 42.324703816970221, 42.552636133615898 ], [ 42.324758338714794, 42.55264852852185 ], [ 42.324794551267061, 42.552678955789958 ], [ 42.324792813437099, 42.552719617539879 ], [ 42.32477223797828, 42.552850518983405 ], [ 42.324757967666315, 42.552890887937217 ], [ 42.32475370181259, 42.552990698132405 ], [ 42.32474487504782, 42.553021964193007 ], [ 42.32472031206806, 42.553069476726627 ], [ 42.324705962844575, 42.553111689842297 ], [ 42.324729150290629, 42.553154779938396 ], [ 42.324780784056657, 42.553176337430045 ], [ 42.324838354264777, 42.553175836399888 ], [ 42.324984514042406, 42.553151515697635 ], [ 42.325071665939696, 42.553124285547085 ], [ 42.325136266892805, 42.553098914860513 ], [ 42.325265669793758, 42.553044891267078 ], [ 42.325415043303735, 42.553055088993204 ], [ 42.325522449551173, 42.553091141069558 ], [ 42.325689664517029, 42.553108508854166 ], [ 42.325830268639827, 42.553125840261188 ], [ 42.325925391306797, 42.553221352903101 ], [ 42.326017164447563, 42.55330404525121 ], [ 42.32613163029847, 42.553387267424171 ], [ 42.326231876505922, 42.553590958785946 ], [ 42.326302389417947, 42.553639611056731 ], [ 42.326388249720154, 42.553648324500294 ], [ 42.32649301530612, 42.553640730080794 ], [ 42.326582259481022, 42.553611566542799 ], [ 42.326603431724486, 42.553606342709607 ], [ 42.326736967044774, 42.553562499470615 ], [ 42.326865224750961, 42.553535282068957 ], [ 42.327015133889752, 42.553545805387053 ], [ 42.327068193944768, 42.55359531047317 ], [ 42.327146374975563, 42.553701142522975 ], [ 42.327225484759531, 42.553915010510465 ], [ 42.327249304904576, 42.554003229640564 ], [ 42.327276905775165, 42.554067088586272 ], [ 42.327322272468876, 42.554102816516654 ], [ 42.327398111568527, 42.554135158406737 ], [ 42.327499861913118, 42.55419106760165 ], [ 42.327566221437415, 42.554232913476341 ], [ 42.327678275185377, 42.554265740171608 ], [ 42.327746150692334, 42.554270656023839 ], [ 42.327847498816077, 42.554236145879294 ], [ 42.327991800214576, 42.554176928837556 ], [ 42.328175040417648, 42.554112857017529 ], [ 42.328360179790735, 42.554029963851612 ], [ 42.328478370778654, 42.554026012678548 ], [ 42.328595212775262, 42.554052241504046 ], [ 42.328697631713652, 42.554098214770804 ], [ 42.328767000399161, 42.554152331852507 ], [ 42.328818537474355, 42.554234713677872 ], [ 42.32879839536578, 42.554287147864841 ], [ 42.328784683981169, 42.554351573565519 ], [ 42.328785264069417, 42.554402194889576 ], [ 42.328813137193315, 42.554455433984401 ], [ 42.328837963587929, 42.554534401167658 ], [ 42.328855015443608, 42.554665685815678 ], [ 42.328882623329768, 42.554763673280696 ], [ 42.328934786313162, 42.554818559544088 ], [ 42.329003048157126, 42.554941448440019 ], [ 42.329076625628247, 42.555013988568824 ], [ 42.329143283618336, 42.555056020592517 ], [ 42.32921881069808, 42.555080024428221 ], [ 42.329295382125224, 42.555083836471297 ], [ 42.329366181675049, 42.555091611096948 ], [ 42.32945331310097, 42.555084863388586 ], [ 42.329485130098185, 42.555109918771045 ], [ 42.329547315097884, 42.555136898034085 ], [ 42.329550966547366, 42.555186915608431 ], [ 42.329469081503213, 42.5553104898271 ], [ 42.329445371292415, 42.555352350146094 ], [ 42.329471887148713, 42.555435994135131 ], [ 42.3294491599395, 42.555520470765494 ], [ 42.329413202933239, 42.555592437141151 ], [ 42.329384523877749, 42.55581639659929 ], [ 42.329397929792179, 42.555887578167237 ], [ 42.329548396925439, 42.556016481185402 ], [ 42.329599233882, 42.556043961190149 ], [ 42.329680469610459, 42.55606409065377 ], [ 42.329946945156841, 42.556104703460477 ], [ 42.330050429084089, 42.556117246988343 ], [ 42.330126597554496, 42.556129108508983 ], [ 42.330335182814643, 42.556210513754834 ], [ 42.330493399397838, 42.55626773675661 ], [ 42.330623874814464, 42.556294281357651 ], [ 42.330740497016329, 42.556327211564358 ], [ 42.330829066014161, 42.556379613783967 ], [ 42.330849554180091, 42.556430428999256 ], [ 42.330933905080826, 42.556476069155991 ], [ 42.331024477011866, 42.556481512103979 ], [ 42.331096427853979, 42.556496606503835 ], [ 42.331160805137962, 42.556477935899245 ], [ 42.331229050290041, 42.556472817796475 ], [ 42.331345592084062, 42.55650907734325 ], [ 42.331486407723155, 42.556613079343052 ], [ 42.331541646079529, 42.556701624530611 ], [ 42.331607305079302, 42.556765738980175 ], [ 42.331651460437847, 42.556798555388625 ], [ 42.331726690966278, 42.556815301684715 ], [ 42.331789586781511, 42.556824241384213 ], [ 42.33185383643157, 42.55680142514241 ], [ 42.331919378974206, 42.55674685153631 ], [ 42.331978716895051, 42.556662101834647 ], [ 42.33209389407741, 42.556513232191307 ], [ 42.332134076068712, 42.556433529104979 ], [ 42.332234426628254, 42.556422449725652 ], [ 42.332324283523704, 42.556444669207451 ], [ 42.332430127739549, 42.556517598703309 ], [ 42.332499364388511, 42.556596384000954 ], [ 42.332590721792499, 42.556689146946816 ], [ 42.332700129169716, 42.55678566210166 ], [ 42.33285187248719, 42.556846242992449 ], [ 42.332955297868772, 42.55686877802242 ], [ 42.333040163222734, 42.556900966221619 ], [ 42.333155216275983, 42.55697077769954 ], [ 42.333206957441057, 42.557035692710691 ], [ 42.333307801465047, 42.557226019472488 ], [ 42.333365981470138, 42.557244168600619 ], [ 42.333668683481115, 42.557278052238161 ], [ 42.333894442859965, 42.557306766767788 ], [ 42.334015856611032, 42.557333096523543 ], [ 42.334239899727415, 42.557402112566955 ], [ 42.334327400326814, 42.557373892958388 ], [ 42.334420767651658, 42.55731231145667 ], [ 42.334559012815681, 42.55726519189831 ], [ 42.334704201682236, 42.557265239609741 ], [ 42.334830668792812, 42.557281600585618 ], [ 42.33494301748695, 42.557307718367589 ], [ 42.335071643175802, 42.557377798791407 ], [ 42.335229171255932, 42.557515728573676 ], [ 42.335289551539894, 42.557590929233811 ], [ 42.335454928133352, 42.557651823943189 ], [ 42.335582189490125, 42.55764812154473 ], [ 42.335740785439718, 42.55765514356613 ], [ 42.335979827977823, 42.557690916756364 ], [ 42.336101387050519, 42.557713870829197 ], [ 42.336189452964526, 42.557779674579351 ], [ 42.336255190880642, 42.557834918340191 ], [ 42.336424215745225, 42.557916022574318 ], [ 42.33660358916913, 42.557967200696169 ], [ 42.336766830118023, 42.557970997508974 ], [ 42.336960405068147, 42.558009042980075 ], [ 42.337079967039799, 42.558078955387273 ], [ 42.337202300750235, 42.558192516062775 ], [ 42.337366335955458, 42.558283588416948 ], [ 42.337576391709462, 42.558362313208889 ], [ 42.337760474175703, 42.558410222158102 ], [ 42.337937854633886, 42.558400928671141 ], [ 42.338137196053815, 42.558412271475909 ], [ 42.338474395672392, 42.558379857505315 ], [ 42.338670681577234, 42.558354208079159 ], [ 42.33907152453601, 42.558323226475572 ], [ 42.339192003129114, 42.558265647937091 ], [ 42.339371213805457, 42.55810871361907 ], [ 42.339556942891271, 42.55800902182775 ], [ 42.339671067212905, 42.557994879089364 ], [ 42.339754717580767, 42.558057200667534 ], [ 42.339879070168955, 42.558120512771012 ], [ 42.339961662082786, 42.55820631252228 ], [ 42.340068218784118, 42.558292849002548 ], [ 42.340148313511591, 42.558301283137268 ], [ 42.340266023402428, 42.558307394177788 ], [ 42.340378724033805, 42.558326761096062 ], [ 42.340540114227409, 42.558374138510317 ], [ 42.340610561404141, 42.558426157324774 ], [ 42.340666101074724, 42.558507951432105 ], [ 42.340687741770182, 42.558639340928785 ], [ 42.340741855867066, 42.558754690344117 ], [ 42.340883548812108, 42.558838530119409 ], [ 42.341008393059298, 42.558891766875909 ], [ 42.341136518491439, 42.558975291284163 ], [ 42.341264013952369, 42.55907221829343 ], [ 42.341324489337076, 42.559251470160142 ], [ 42.341348848952855, 42.559533935612265 ], [ 42.34131076494532, 42.559788116471516 ], [ 42.341316270631587, 42.559872125380707 ], [ 42.341256556362538, 42.560229721057453 ], [ 42.341259373128949, 42.560474495857797 ], [ 42.341315200836071, 42.560563905505205 ], [ 42.341587811799535, 42.560849253065989 ], [ 42.341718429978258, 42.560891411944631 ], [ 42.341883883486474, 42.560902096607045 ], [ 42.341955517809815, 42.560904750024662 ], [ 42.341998157932686, 42.560903173414616 ], [ 42.342228599292852, 42.560883713718496 ], [ 42.34238196122957, 42.560857872099938 ], [ 42.342524111358188, 42.560826412128336 ], [ 42.342664441315875, 42.560836377514839 ], [ 42.342787351711429, 42.560829144271949 ], [ 42.34285680020313, 42.560797212432568 ], [ 42.343101411187071, 42.560702213108812 ], [ 42.343225398612788, 42.560668169643357 ], [ 42.343394980799836, 42.56063180701549 ], [ 42.343563726984257, 42.560612263991089 ], [ 42.34369456491418, 42.560632048422093 ], [ 42.3437934355536, 42.560654513043971 ], [ 42.343896504789519, 42.56068711548734 ], [ 42.344054478280484, 42.560707573967051 ], [ 42.344236156306977, 42.560812418069212 ], [ 42.344425759513115, 42.560944370471688 ], [ 42.344524847895627, 42.561070801624517 ], [ 42.344655006010285, 42.5612114155809 ], [ 42.34473809307876, 42.561287227882822 ], [ 42.344869879871887, 42.5613909140557 ], [ 42.345037137504178, 42.561515593594706 ], [ 42.345177644327755, 42.561626235307251 ], [ 42.345309713073569, 42.561723308875933 ], [ 42.345439570454722, 42.561873955483073 ], [ 42.345480348595046, 42.561982329830592 ], [ 42.345501012805599, 42.56202787862847 ], [ 42.345521840504922, 42.562073881459789 ], [ 42.345528277570516, 42.562095867677705 ], [ 42.34554169340219, 42.562141428535455 ], [ 42.345576168329757, 42.562185901708602 ], [ 42.345605311018318, 42.562246955438511 ], [ 42.345693990621797, 42.562285751285351 ], [ 42.345750668303467, 42.562351000201936 ], [ 42.345733117362919, 42.562444559981046 ], [ 42.3456144479469, 42.562673371325538 ], [ 42.345562135226743, 42.562729204972811 ], [ 42.345491546650649, 42.562787991775792 ], [ 42.345480205754868, 42.56284139834127 ], [ 42.345511979013089, 42.562949563911339 ], [ 42.345554040172026, 42.563027711347978 ], [ 42.345606589357139, 42.563072558474985 ], [ 42.345686337736218, 42.563118036073917 ], [ 42.345839368395879, 42.56315179489993 ], [ 42.346000432169518, 42.563205820739604 ], [ 42.346070652029383, 42.563254814272973 ], [ 42.34613005796394, 42.563304592701435 ], [ 42.34622541361599, 42.563496221708405 ], [ 42.34625024855071, 42.563585631057656 ], [ 42.346293487929245, 42.563623103177221 ], [ 42.346425460805875, 42.563656508275038 ], [ 42.347376230744395, 42.563799023766606 ], [ 42.348100035076122, 42.564230962013646 ], [ 42.349513743514272, 42.566177605062677 ], [ 42.350137881647761, 42.566618074356398 ], [ 42.351235350029938, 42.567047608438024 ], [ 42.351215799830989, 42.567070569048511 ], [ 42.348124371413491, 42.56800392128374 ], [ 42.348066990653855, 42.568021187557555 ], [ 42.347642290636429, 42.568149441441214 ], [ 42.345446271802217, 42.568812373676792 ], [ 42.346245551411513, 42.569430494407406 ], [ 42.347565442826635, 42.571099795204937 ], [ 42.347925783355961, 42.573498681894201 ], [ 42.352861215793411, 42.575811127971107 ], [ 42.352909601184948, 42.575833813382367 ], [ 42.352951465726839, 42.575837842886465 ], [ 42.356610462213006, 42.576188243278445 ], [ 42.360634410352404, 42.573450861388785 ], [ 42.360338366366321, 42.569516665909113 ], [ 42.357294748361461, 42.565006842314041 ], [ 42.357604678492734, 42.563135697072468 ] ] ] ] } }
]
}
