{
"type": "FeatureCollection",
"name": "სვირი",
"crs": { "type": "name", "properties": { "name": "urn:ogc:def:crs:OGC:1.3:CRS84" } },
"features": [
{ "type": "Feature", "properties": { "OBJECTID": 12, "NAME_GEO": "სვირი", "NAME_ENG": "Sviri", "Location": "Imereti", "MoreInfo": "https://www.sakpatenti.gov.ge/media/django-summernote/2025-11-19/9b7781e5-5313-47cc-afa4-3e189815d38e.pdf" }, "geometry": { "type": "MultiPolygon", "coordinates": [ [ [ [ 42.856345887885936, 42.156706597833001 ], [ 42.858706234814221, 42.157015291691081 ], [ 42.85987691774988, 42.157444132410561 ], [ 42.862883480394785, 42.157500200827364 ], [ 42.866254485300658, 42.157562971800992 ], [ 42.869347626255035, 42.157756143815675 ], [ 42.870536589265058, 42.157642565216406 ], [ 42.872643449962041, 42.157342511256388 ], [ 42.874208183395524, 42.156896707184799 ], [ 42.875586144860094, 42.156583084319706 ], [ 42.878394625317995, 42.157109895880097 ], [ 42.879652032666982, 42.157675802792419 ], [ 42.881982431167749, 42.15887200028881 ], [ 42.883242166724827, 42.159370079251552 ], [ 42.885677357896093, 42.160161146919208 ], [ 42.888030517910224, 42.160679327397872 ], [ 42.890021512304273, 42.161122965991233 ], [ 42.8923792482789, 42.161505478179379 ], [ 42.894105948707264, 42.161672862493198 ], [ 42.899306299025042, 42.161564744981995 ], [ 42.902162265319816, 42.160667384975213 ], [ 42.906060653837493, 42.158568023233755 ], [ 42.909112011945737, 42.157267066162831 ], [ 42.911778746492494, 42.156569507924637 ], [ 42.915772000091422, 42.15711697156614 ], [ 42.91836246582745, 42.157725124397466 ], [ 42.918419076183056, 42.157644995988107 ], [ 42.918485900446633, 42.157562220604369 ], [ 42.918563702548262, 42.157475942130809 ], [ 42.918635974311748, 42.157402102937731 ], [ 42.918719988424094, 42.157321155068352 ], [ 42.919010169893667, 42.157055995973487 ], [ 42.919116018187374, 42.156956286815237 ], [ 42.919215689758744, 42.156856019698687 ], [ 42.919299731920795, 42.156763164402399 ], [ 42.919348049309228, 42.156704860160438 ], [ 42.919399497421196, 42.156639070319351 ], [ 42.919581867190701, 42.156392050223118 ], [ 42.91965965279428, 42.156291445116167 ], [ 42.919746401010222, 42.156189652555888 ], [ 42.919788870165895, 42.156144504012538 ], [ 42.919831459715624, 42.156102402505532 ], [ 42.919889325077726, 42.156049365804712 ], [ 42.919952355846156, 42.155995487956417 ], [ 42.920021144921698, 42.155940256467019 ], [ 42.920096886849713, 42.155882712256201 ], [ 42.920255291725653, 42.155769709760087 ], [ 42.920562383121123, 42.155560630846388 ], [ 42.920789451343076, 42.1554090830492 ], [ 42.92115580472764, 42.155174492629527 ], [ 42.921446112276492, 42.154990342290134 ], [ 42.921736691068567, 42.154809057269532 ], [ 42.922027520107335, 42.154630651594964 ], [ 42.922318579694732, 42.154455136615574 ], [ 42.922481326953466, 42.154356373120585 ], [ 42.922899930618101, 42.154098065591874 ], [ 42.923134948713532, 42.153958563658222 ], [ 42.923265277357693, 42.153885156834164 ], [ 42.923388952259501, 42.153818866462807 ], [ 42.923508375545708, 42.153758409501009 ], [ 42.923624785214962, 42.153703162658729 ], [ 42.923772314200058, 42.153639807369402 ], [ 42.923939469398384, 42.153576113723425 ], [ 42.924128591249136, 42.153510756013006 ], [ 42.924523831952378, 42.153382352848737 ], [ 42.924691933223393, 42.153325588993695 ], [ 42.924865835455556, 42.153261927822058 ], [ 42.925017610109371, 42.153199838308979 ], [ 42.925306748289451, 42.153070412343197 ], [ 42.925578783215194, 42.152941078837081 ], [ 42.925835126367645, 42.152811165488799 ], [ 42.925957662772092, 42.15274586487979 ], [ 42.926076552030068, 42.152680276640609 ], [ 42.926192001298155, 42.15261428385049 ], [ 42.926303914591678, 42.15254793521693 ], [ 42.926412340033238, 42.152481202801759 ], [ 42.926517314712044, 42.152414062969676 ], [ 42.926618880584833, 42.152346491272461 ], [ 42.926717057542042, 42.152278471868264 ], [ 42.926811869102828, 42.152209988980445 ], [ 42.926903337576668, 42.152141026810213 ], [ 42.9270272583042, 42.152042737382423 ], [ 42.927150577247374, 42.151939327931551 ], [ 42.927273366442321, 42.151830741223179 ], [ 42.927395719368228, 42.151716893392575 ], [ 42.927517690802503, 42.151597736799161 ], [ 42.927639484305338, 42.151473077894316 ], [ 42.927761273934706, 42.151342737004775 ], [ 42.927883320493905, 42.151206435158421 ], [ 42.927984927311371, 42.151087428839773 ], [ 42.928085315163379, 42.150963447196027 ], [ 42.928184704628741, 42.150834220437496 ], [ 42.928283392672753, 42.150699363077585 ], [ 42.928381520436325, 42.150558702953973 ], [ 42.928479777883254, 42.15041127089404 ], [ 42.928578750163986, 42.150256193993165 ], [ 42.928679420480279, 42.150091934698267 ], [ 42.928732763870833, 42.149999700310985 ], [ 42.928787884726184, 42.14989734211543 ], [ 42.92884730506298, 42.149780335192084 ], [ 42.929020978648829, 42.149427845382071 ], [ 42.929079587513201, 42.149316693678159 ], [ 42.929135372603248, 42.149218127044669 ], [ 42.929175566464544, 42.149154663699498 ], [ 42.92922485749353, 42.149085595458374 ], [ 42.92928029605077, 42.149014049013502 ], [ 42.929440104088371, 42.148815468308449 ], [ 42.929486265051409, 42.1487537093141 ], [ 42.929524666821713, 42.148697754074455 ], [ 42.929564297556844, 42.148632237894304 ], [ 42.929595584323209, 42.148570009497433 ], [ 42.929619150144092, 42.148509814817636 ], [ 42.929635242345491, 42.148451009904242 ], [ 42.92965153442178, 42.14835321781365 ], [ 42.929659213418049, 42.14825405174426 ], [ 42.92965805266504, 42.14815649394253 ], [ 42.929648084798522, 42.148063034211788 ], [ 42.929636900689282, 42.148012007854291 ], [ 42.929619229848498, 42.147959721552546 ], [ 42.929594900777737, 42.147905645365938 ], [ 42.929563464484197, 42.14784877784038 ], [ 42.929531223879479, 42.147798134131072 ], [ 42.929492105942664, 42.147742362607019 ], [ 42.929343424988765, 42.147547706184028 ], [ 42.929287138588315, 42.14746954589409 ], [ 42.929236014405689, 42.147388211465376 ], [ 42.929198380656693, 42.147313473319684 ], [ 42.929145629331273, 42.14718989098823 ], [ 42.929106381408296, 42.147092178582746 ], [ 42.92907376926162, 42.147003218085523 ], [ 42.92904710997572, 42.146920904213154 ], [ 42.929025233841763, 42.146841137102243 ], [ 42.929008639695397, 42.146765133446735 ], [ 42.928997163931633, 42.14669212029515 ], [ 42.928990736367247, 42.14662165149312 ], [ 42.928989041416159, 42.146567190479495 ], [ 42.928989863163224, 42.146507584845196 ], [ 42.928999566829788, 42.146354734609012 ], [ 42.929011658124629, 42.146213463066672 ], [ 42.929023645551453, 42.146116943277185 ], [ 42.929039817168352, 42.146030497327082 ], [ 42.92906070418546, 42.145953458468426 ], [ 42.929087269878188, 42.145882709159025 ], [ 42.92912219130217, 42.145810300545598 ], [ 42.929165793295276, 42.145735547737523 ], [ 42.929218832471548, 42.14565714232829 ], [ 42.929273161516811, 42.145585084985797 ], [ 42.929337884369794, 42.145505680086117 ], [ 42.929600301562971, 42.145203397666187 ], [ 42.929672215945764, 42.145123347892238 ], [ 42.929759416895699, 42.145037128529488 ], [ 42.92984948671559, 42.144954923453952 ], [ 42.930081427311997, 42.14475080373748 ], [ 42.930144865444667, 42.144691974246413 ], [ 42.93019960203825, 42.144638248895255 ], [ 42.930256866145299, 42.144577515752687 ], [ 42.930306458494904, 42.144519252226523 ], [ 42.930349292728209, 42.144462382405401 ], [ 42.930385796653994, 42.144406330438315 ], [ 42.930420182391764, 42.144343382284106 ], [ 42.930450560755652, 42.144275920122425 ], [ 42.930477252141387, 42.144203247281879 ], [ 42.930500771436577, 42.144123971746211 ], [ 42.930518118372973, 42.144052664872916 ], [ 42.930534525123093, 42.143972402728821 ], [ 42.930581388450754, 42.143694897437655 ], [ 42.930601812931805, 42.143588215275038 ], [ 42.93062738842287, 42.14348191603716 ], [ 42.930656684471209, 42.143387888646203 ], [ 42.930748593839787, 42.143132051764404 ], [ 42.930819089364405, 42.142953419236505 ], [ 42.930854869910213, 42.142871201969442 ], [ 42.930890942840357, 42.142794234070003 ], [ 42.9309277775589, 42.142721516252159 ], [ 42.930965653416678, 42.142652496993506 ], [ 42.931012748086971, 42.142575032637247 ], [ 42.931066595525685, 42.142495656556875 ], [ 42.931127764174875, 42.142413522540615 ], [ 42.931197475368911, 42.142326983823651 ], [ 42.931333319777828, 42.142171382412236 ], [ 42.931659721317907, 42.141816485987057 ], [ 42.931737760518907, 42.141726886532261 ], [ 42.931805505668528, 42.141644673508075 ], [ 42.931918466006316, 42.141510287152919 ], [ 42.932189612279856, 42.141205845003846 ], [ 42.932252144813347, 42.141131503397737 ], [ 42.932306130097231, 42.141063493674949 ], [ 42.932368951375736, 42.140977260478515 ], [ 42.932421536841403, 42.140895553679592 ], [ 42.932464930671919, 42.140816742244304 ], [ 42.932499583540441, 42.14073999316107 ], [ 42.93251633077584, 42.140694819112603 ], [ 42.93253100188489, 42.140648183810512 ], [ 42.932554242179449, 42.140550102148737 ], [ 42.932569560160871, 42.140444732427497 ], [ 42.932577260409573, 42.1403300042913 ], [ 42.932578161514876, 42.140234308137231 ], [ 42.932574814347866, 42.140127561770051 ], [ 42.932545416521336, 42.139713972089439 ], [ 42.932540905110379, 42.139622366079855 ], [ 42.93253918124028, 42.139540774394739 ], [ 42.932536762989479, 42.139389125364517 ], [ 42.932530800731982, 42.139221333393181 ], [ 42.932495470316965, 42.138577334487529 ], [ 42.932485112007647, 42.138304507212197 ], [ 42.932478956990025, 42.138111371961642 ], [ 42.932457415876748, 42.137592174308452 ], [ 42.932453522141358, 42.137436229858025 ], [ 42.932452524607115, 42.137296327512125 ], [ 42.932455203140449, 42.137137830396824 ], [ 42.932462267883231, 42.136990004136273 ], [ 42.932473857200222, 42.136850008976069 ], [ 42.932490095264868, 42.13671640801774 ], [ 42.932521495023394, 42.136502579709578 ], [ 42.932548332542879, 42.136339929586853 ], [ 42.93257639147356, 42.136193433663806 ], [ 42.932606434877805, 42.136059907715172 ], [ 42.932640350537831, 42.135931982052213 ], [ 42.932677735452991, 42.135812150334523 ], [ 42.932718996039497, 42.135699114935747 ], [ 42.932764401607294, 42.135592147629239 ], [ 42.932793953264834, 42.135530391250775 ], [ 42.932826496420162, 42.135467986324997 ], [ 42.932900817616918, 42.135340738390489 ], [ 42.932988029392568, 42.135209250413546 ], [ 42.933089560808988, 42.135071358793333 ], [ 42.933194631926312, 42.134939721494007 ], [ 42.933317639625294, 42.134794669763423 ], [ 42.933433593644288, 42.13466331839755 ], [ 42.933755664928988, 42.13430477284799 ], [ 42.933930031456505, 42.134110653245763 ], [ 42.934105363153215, 42.133922502727394 ], [ 42.93428165378208, 42.133740328381535 ], [ 42.934458890855772, 42.1335641434883 ], [ 42.934637065690929, 42.133393955992908 ], [ 42.934816160847795, 42.133229782688673 ], [ 42.934996162661342, 42.133071635934115 ], [ 42.935177056228831, 42.132919528966049 ], [ 42.935275900972393, 42.132840413262407 ], [ 42.93537932936156, 42.132761832978346 ], [ 42.935487533809301, 42.132683637564625 ], [ 42.935600774373214, 42.132605642565437 ], [ 42.93571922332557, 42.132527721381877 ], [ 42.935843406193719, 42.132449525022409 ], [ 42.935973807280661, 42.132370744276784 ], [ 42.936111152125264, 42.132290943687607 ], [ 42.936376453858465, 42.132144286535969 ], [ 42.936677173122632, 42.131986964465995 ], [ 42.936987515378632, 42.131831027778702 ], [ 42.937833274721818, 42.131414112613072 ], [ 42.938085548786226, 42.131285516240489 ], [ 42.938308912042977, 42.131167501151914 ], [ 42.938559312236507, 42.131028692507485 ], [ 42.938787337330822, 42.130894315547366 ], [ 42.938894480935957, 42.130827895487542 ], [ 42.938997419479328, 42.130761752792658 ], [ 42.939096434619671, 42.130695708815416 ], [ 42.939191732970052, 42.130629623184596 ], [ 42.939283365667961, 42.130562852007998 ], [ 42.939376671945197, 42.130490990087225 ], [ 42.939472564888142, 42.130413338755872 ], [ 42.939572755319496, 42.130328513919174 ], [ 42.939761059555543, 42.130160959752871 ], [ 42.940104969813497, 42.129842911119177 ], [ 42.940243498638971, 42.129717140086797 ], [ 42.94038892604673, 42.12959026886535 ], [ 42.940523085509881, 42.129479713695019 ], [ 42.940602311308346, 42.129417884425663 ], [ 42.940680083465644, 42.129359915034165 ], [ 42.940756927683651, 42.12930541330028 ], [ 42.940833199312571, 42.129254128938499 ], [ 42.940909303858014, 42.129205794550948 ], [ 42.940985373362786, 42.129160330555095 ], [ 42.941061613758521, 42.129117617267447 ], [ 42.941138186542922, 42.129077562124536 ], [ 42.941335354357079, 42.128981986252256 ], [ 42.941538654405974, 42.128891149113201 ], [ 42.941746823565467, 42.128805613389353 ], [ 42.941958629495858, 42.128725888288365 ], [ 42.942172746113741, 42.128652464233532 ], [ 42.942388116549267, 42.128585700498888 ], [ 42.942603622684913, 42.1285259426595 ], [ 42.942818247687256, 42.128473472372598 ], [ 42.942986974297462, 42.128436874508807 ], [ 42.943156178149124, 42.128403879198629 ], [ 42.943325285781711, 42.128374599537466 ], [ 42.943493786305105, 42.128349121827803 ], [ 42.943661133882472, 42.128327528146222 ], [ 42.943826967833758, 42.128309861564226 ], [ 42.943990889967161, 42.128296165383496 ], [ 42.944152553369108, 42.128286468517011 ], [ 42.944508881318207, 42.128270714019337 ], [ 42.944634143970646, 42.128268255063198 ], [ 42.944747016042101, 42.128268774628296 ], [ 42.94485726164843, 42.128272584597894 ], [ 42.944960060174814, 42.128279818349988 ], [ 42.945056755092807, 42.128290571121532 ], [ 42.945148062336806, 42.128304926900981 ], [ 42.945243346124293, 42.128325949751201 ], [ 42.945347074237802, 42.128356001787616 ], [ 42.945447712935938, 42.128390270776706 ], [ 42.945706319532761, 42.128484563660052 ], [ 42.945782673558497, 42.128509591445919 ], [ 42.945852213430385, 42.128529729431094 ], [ 42.946217118793342, 42.128629810928764 ], [ 42.946325110343821, 42.12865671071944 ], [ 42.946422336995369, 42.128678252796583 ], [ 42.946522909645971, 42.128697038560219 ], [ 42.946617571872913, 42.128710745376651 ], [ 42.94670785066824, 42.128719591521545 ], [ 42.946794540852174, 42.128723652473617 ], [ 42.946897213027967, 42.128724678080985 ], [ 42.946989048794464, 42.128723416661863 ], [ 42.947073649129038, 42.128719814719361 ], [ 42.947151936355702, 42.128713821233539 ], [ 42.947225120713789, 42.12870531108198 ], [ 42.947292914363835, 42.12869428092413 ], [ 42.947355545954821, 42.128680693434546 ], [ 42.947413134936582, 42.128664521039902 ], [ 42.947470864576651, 42.128643355573452 ], [ 42.947528412407237, 42.128616505016439 ], [ 42.947586344456212, 42.128583712023307 ], [ 42.94764573270735, 42.128544374369902 ], [ 42.947695978498913, 42.128507012890488 ], [ 42.947750317636498, 42.128463115218075 ], [ 42.947928175340358, 42.128308084955648 ], [ 42.94799587487352, 42.128251802662859 ], [ 42.948220524597325, 42.128074334289963 ], [ 42.948286938580253, 42.128019295050407 ], [ 42.948344562299297, 42.127968965309016 ], [ 42.948400780017089, 42.127916427363239 ], [ 42.948450548102883, 42.127865838172241 ], [ 42.948494658532759, 42.127816387872393 ], [ 42.948533501709967, 42.127767638562759 ], [ 42.948571920794528, 42.12771013694578 ], [ 42.948607499404019, 42.127643856914439 ], [ 42.948639841231575, 42.127571256292029 ], [ 42.94869828249746, 42.127423266825623 ], [ 42.948724493431158, 42.127361441932514 ], [ 42.948755497280445, 42.127298014148145 ], [ 42.948787852023429, 42.127242958063661 ], [ 42.94884550525861, 42.127159402295433 ], [ 42.948911055120348, 42.12707459720356 ], [ 42.948984881604915, 42.12698805064376 ], [ 42.949067691373628, 42.126898932285599 ], [ 42.949158237050284, 42.126808330230361 ], [ 42.949260460066228, 42.126712083969032 ], [ 42.949376711084994, 42.126607865149047 ], [ 42.949524319707535, 42.126480128685024 ], [ 42.949639787738697, 42.1263844412738 ], [ 42.94976277198014, 42.126288636835035 ], [ 42.94989359385545, 42.126192463521377 ], [ 42.950032734123781, 42.126095567861995 ], [ 42.950180311147939, 42.125997842069964 ], [ 42.950337739888475, 42.125898324353706 ], [ 42.95050629608636, 42.125796205324832 ], [ 42.95068856106942, 42.125689917201051 ], [ 42.951037426240219, 42.125483983955377 ], [ 42.951129053409787, 42.125432525684133 ], [ 42.951212326620812, 42.125388509173639 ], [ 42.951303152776333, 42.125344290692212 ], [ 42.951389950444238, 42.125306372747865 ], [ 42.95147423992011, 42.125274092652425 ], [ 42.951556823325753, 42.12524714953134 ], [ 42.951654143894757, 42.125221112560304 ], [ 42.951758503727476, 42.125198763940894 ], [ 42.951870642397829, 42.125179941245776 ], [ 42.951991967312026, 42.125164405710287 ], [ 42.952117550102002, 42.125152451159863 ], [ 42.952257533105275, 42.125142812313129 ], [ 42.952410511029044, 42.125135287514375 ], [ 42.952651720114446, 42.125126207939367 ], [ 42.952864631550064, 42.125121258124111 ], [ 42.953078726068966, 42.125122244992689 ], [ 42.95329263088383, 42.125129161153133 ], [ 42.953504978050667, 42.125141961485355 ], [ 42.953619292794258, 42.125152852096079 ], [ 42.953743828641713, 42.125169350089386 ], [ 42.953887522281242, 42.125192692861809 ], [ 42.954191405724856, 42.12524785305186 ], [ 42.954323765576227, 42.12527021230985 ], [ 42.954464126811821, 42.125290132127581 ], [ 42.954590650638302, 42.125303176676972 ], [ 42.954708223050808, 42.125311683702705 ], [ 42.954828909222051, 42.125318430543366 ], [ 42.954952897585677, 42.125323425952359 ], [ 42.95508044667249, 42.125326680832408 ], [ 42.95534723367566, 42.125328001312432 ], [ 42.955633527752923, 42.125322416429739 ], [ 42.955748135265992, 42.125317906469789 ], [ 42.955867652890426, 42.125311187402751 ], [ 42.956127155424412, 42.125290774722863 ], [ 42.956394301340815, 42.125263808068212 ], [ 42.956918031579228, 42.125204933248938 ], [ 42.957281911267657, 42.125165161996406 ], [ 42.957514027181944, 42.125138012836096 ], [ 42.957726376392401, 42.125110415780753 ], [ 42.957918111781055, 42.125082191950959 ], [ 42.958058018047417, 42.125063048839387 ], [ 42.95841023215484, 42.125022622323904 ], [ 42.958505667535313, 42.125008929960636 ], [ 42.958589883010823, 42.124994236298711 ], [ 42.958686251317168, 42.124973114320753 ], [ 42.958772516537337, 42.124948799089751 ], [ 42.958850329318459, 42.124920821977888 ], [ 42.958920471994439, 42.124888893425833 ], [ 42.958981426775651, 42.124855711620619 ], [ 42.95904216754937, 42.124818605711091 ], [ 42.959101968834773, 42.124778015784557 ], [ 42.959160020592499, 42.124734491197792 ], [ 42.959215555678554, 42.124688601885289 ], [ 42.95926767713155, 42.124641080280952 ], [ 42.959315594769222, 42.124592649012271 ], [ 42.959358589691469, 42.124544033777084 ], [ 42.959380129940065, 42.124516206962625 ], [ 42.959399632196487, 42.124486971388016 ], [ 42.959417137319328, 42.124456260237032 ], [ 42.959432696446541, 42.124423987963858 ], [ 42.959458152566874, 42.124354407449786 ], [ 42.95947651988881, 42.124276825165218 ], [ 42.95948648611617, 42.124207475199306 ], [ 42.959492709690771, 42.124128467375776 ], [ 42.959498385001055, 42.123863299848857 ], [ 42.95950345151806, 42.123766820722111 ], [ 42.959514431855396, 42.123675032601163 ], [ 42.959531818276972, 42.123594306903584 ], [ 42.959575483554694, 42.123438966584303 ], [ 42.959617682424692, 42.12329915333153 ], [ 42.959660094411582, 42.123169315173492 ], [ 42.9597033984154, 42.123047409943332 ], [ 42.959748507665189, 42.122930991674366 ], [ 42.959795430701128, 42.122820171289142 ], [ 42.959844460795651, 42.122714254244414 ], [ 42.95989580575187, 42.122612796641 ], [ 42.960025825300455, 42.122366107977442 ], [ 42.960070184095727, 42.122288345720612 ], [ 42.960112591764755, 42.122219660907163 ], [ 42.960158406614951, 42.122152159706722 ], [ 42.960204900198804, 42.122090684692949 ], [ 42.960252772187204, 42.122034317098539 ], [ 42.960302424751788, 42.121982587662096 ], [ 42.960378194588266, 42.121912013101408 ], [ 42.960458079277473, 42.121844391743657 ], [ 42.960541023084609, 42.121780618005786 ], [ 42.960626167896223, 42.12172134666222 ], [ 42.960712512221285, 42.121667252455438 ], [ 42.960799651929335, 42.121618565052906 ], [ 42.960887032737389, 42.121575594308233 ], [ 42.96097422573807, 42.121538550538823 ], [ 42.961095559975277, 42.12149441537197 ], [ 42.96121892268274, 42.121456051986335 ], [ 42.961341186011829, 42.121424428751169 ], [ 42.96146041687058, 42.121400037257573 ], [ 42.961574422934063, 42.121383267233739 ], [ 42.961682927875081, 42.121374098474867 ], [ 42.961734856933887, 42.12137238707593 ], [ 42.961785149442967, 42.121372594546706 ], [ 42.961833742509484, 42.121374720672371 ], [ 42.961880583027856, 42.121378761809652 ], [ 42.961922251898933, 42.121385035454317 ], [ 42.961965209847463, 42.121394946054728 ], [ 42.962009919290864, 42.121408597288287 ], [ 42.962057287205106, 42.121426262836586 ], [ 42.962142763949366, 42.121464466155672 ], [ 42.962337590930247, 42.12156141049406 ], [ 42.962385877050586, 42.121582968356471 ], [ 42.96243008263265, 42.121600533443385 ], [ 42.962470487074924, 42.121614333168452 ], [ 42.962509248887898, 42.121625222713945 ], [ 42.962546848869664, 42.121633335804177 ], [ 42.962583565746144, 42.12163873232732 ], [ 42.962658604075223, 42.121644904996835 ], [ 42.962737653410905, 42.121647163751909 ], [ 42.96282008404539, 42.121645491095691 ], [ 42.962905060792508, 42.121639901907017 ], [ 42.962991891991777, 42.121630424422946 ], [ 42.963079138401845, 42.121617199688885 ], [ 42.963165499384502, 42.121600422549477 ], [ 42.963249477689772, 42.121580383426831 ], [ 42.96330619999182, 42.121562691715475 ], [ 42.963365969225727, 42.121538438347606 ], [ 42.963434804009786, 42.121504892426259 ], [ 42.963579613748713, 42.121426297014935 ], [ 42.963643795799705, 42.121393884155168 ], [ 42.963713666852961, 42.121364043476142 ], [ 42.963778906269177, 42.121343066986867 ], [ 42.963860535064846, 42.121323662045803 ], [ 42.963946425303341, 42.12130747575064 ], [ 42.964035665452485, 42.121294679234289 ], [ 42.964127181170397, 42.121285428134023 ], [ 42.964219910382027, 42.121279835079832 ], [ 42.964312505113128, 42.121277987817884 ], [ 42.964403689558722, 42.121279911437675 ], [ 42.964492210138033, 42.121285579192929 ], [ 42.964546258904974, 42.121292127421135 ], [ 42.964601698480337, 42.121302540419038 ], [ 42.964659037634227, 42.121316910067087 ], [ 42.964719212460587, 42.121335470015183 ], [ 42.964776599482995, 42.121355978873176 ], [ 42.964839637800658, 42.121380998164419 ], [ 42.965076656691672, 42.121484373713649 ], [ 42.965177450265919, 42.121524991723469 ], [ 42.965232659629038, 42.121544571938095 ], [ 42.965284844303163, 42.121560803211544 ], [ 42.965335011609049, 42.121573998810511 ], [ 42.965383679914424, 42.12158429041304 ], [ 42.96545577449956, 42.121596194421144 ], [ 42.965532066972749, 42.121606051054961 ], [ 42.965613346324297, 42.121613965259833 ], [ 42.965701194686517, 42.121620092969707 ], [ 42.965860697980737, 42.121626615137657 ], [ 42.966162397456962, 42.121632475916279 ], [ 42.966283144181133, 42.121636093905543 ], [ 42.966751481159079, 42.121660304142026 ], [ 42.966946644435239, 42.12166693459254 ], [ 42.967050752173193, 42.121667704571436 ], [ 42.967147597459537, 42.121666034826987 ], [ 42.967239026163398, 42.12166189144763 ], [ 42.967325968814116, 42.121655227895722 ], [ 42.967426875119436, 42.121643832367731 ], [ 42.967531694733687, 42.121628124725632 ], [ 42.967641472825349, 42.121607953266576 ], [ 42.967758242666832, 42.121582946034756 ], [ 42.967863530663081, 42.121557840626991 ], [ 42.967980532004113, 42.121527780457356 ], [ 42.968472756915475, 42.121393909346288 ], [ 42.968740120895575, 42.121321775599235 ], [ 42.969031454166881, 42.121237531240801 ], [ 42.969349839679751, 42.121140617366095 ], [ 42.969813708311868, 42.120994969352083 ], [ 42.970068477167054, 42.120918904524899 ], [ 42.970689437420646, 42.120744976183438 ], [ 42.970852578555956, 42.120695649827368 ], [ 42.970997393635969, 42.120648455864867 ], [ 42.971166953807341, 42.12058746289069 ], [ 42.971320179158049, 42.120525148675156 ], [ 42.971391701524645, 42.120493077421052 ], [ 42.971460079947548, 42.1204602831816 ], [ 42.971525501154581, 42.120426676503946 ], [ 42.971588102938874, 42.12039218508103 ], [ 42.971661262401504, 42.120348642071406 ], [ 42.971735639467973, 42.120300828332738 ], [ 42.971812021911902, 42.120248241754197 ], [ 42.971891932207534, 42.12018983574837 ], [ 42.972025466614788, 42.120086055054443 ], [ 42.972296604437879, 42.119865225579694 ], [ 42.972414455390691, 42.119772026480618 ], [ 42.972532961986964, 42.119682381769422 ], [ 42.972820966835513, 42.119469081813492 ], [ 42.97296436007889, 42.119358751337153 ], [ 42.973043539291758, 42.11929467498301 ], [ 42.973115367460395, 42.119233665767247 ], [ 42.973181266994324, 42.119174515029833 ], [ 42.973241924288992, 42.119116599993589 ], [ 42.973310984069961, 42.119046303477134 ], [ 42.97337991189405, 42.118971869074613 ], [ 42.973449111036707, 42.118892864423117 ], [ 42.973519226702962, 42.118808553431052 ], [ 42.973589731555847, 42.118719692281935 ], [ 42.973663441136658, 42.118622842728115 ], [ 42.973834677573521, 42.118386286322512 ], [ 42.973874605216274, 42.118327685040349 ], [ 42.973913927700792, 42.118265486001377 ], [ 42.973992752325387, 42.118127053547326 ], [ 42.974061687365925, 42.117992432370791 ], [ 42.974218705215534, 42.117669499823457 ], [ 42.974303672027681, 42.117509731651154 ], [ 42.974348862817912, 42.117433099654598 ], [ 42.974394296951708, 42.117362190687693 ], [ 42.974440698687765, 42.117295875591381 ], [ 42.974488491059525, 42.117233557538611 ], [ 42.974562914813639, 42.117143503233429 ], [ 42.974641045142874, 42.117053925897793 ], [ 42.974722676084895, 42.116965063245722 ], [ 42.974807577128644, 42.116877164265809 ], [ 42.974895519204267, 42.116790470767704 ], [ 42.974986231395967, 42.116705247238144 ], [ 42.975079441869013, 42.116621749142467 ], [ 42.975174866645467, 42.116540233533456 ], [ 42.975255348302866, 42.116474729541721 ], [ 42.975339153844239, 42.116409717348517 ], [ 42.975426285794178, 42.116345193388675 ], [ 42.975516750332808, 42.116281153260729 ], [ 42.975610551165211, 42.116217594320389 ], [ 42.975707700602335, 42.116154509571992 ], [ 42.975808206119495, 42.116091891934197 ], [ 42.975912081236707, 42.116029734431983 ], [ 42.976019289048963, 42.115968056217973 ], [ 42.976129899804029, 42.115906816194553 ], [ 42.976243934476066, 42.115846001212986 ], [ 42.976361426214218, 42.115785595637277 ], [ 42.97660690766967, 42.115665942849681 ], [ 42.976866809793094, 42.115547629999789 ], [ 42.977257803495974, 42.115372540621088 ], [ 42.977443341825406, 42.115292253756358 ], [ 42.977630441979677, 42.115216887938658 ], [ 42.977800611500541, 42.115155319379859 ], [ 42.97788851268033, 42.115126720859124 ], [ 42.977973838053401, 42.115101334301393 ], [ 42.978057007676007, 42.115079035630878 ], [ 42.978138303365483, 42.115059749667395 ], [ 42.978218041881476, 42.115043405448112 ], [ 42.978296325413339, 42.115029984964444 ], [ 42.978373312074005, 42.115019461286749 ], [ 42.978449122099249, 42.115011819425497 ], [ 42.978512186028027, 42.115008120815716 ], [ 42.978578292451807, 42.115007186569969 ], [ 42.978648016235766, 42.115009007000658 ], [ 42.978722407722501, 42.115013606914587 ], [ 42.978797561956014, 42.115020505921727 ], [ 42.978881057372064, 42.115030185186221 ], [ 42.979210363764047, 42.115076187907228 ], [ 42.979351804413533, 42.115092900029587 ], [ 42.979428450225868, 42.115099494382974 ], [ 42.97949984655893, 42.115103497973834 ], [ 42.979567384426822, 42.115104986647921 ], [ 42.979631762594629, 42.115103971819558 ], [ 42.979910994198242, 42.115099539057177 ], [ 42.979979626217769, 42.115096627556177 ], [ 42.980039552707709, 42.115092084834671 ], [ 42.980102028728176, 42.115084427704403 ], [ 42.980157434361956, 42.115074079348538 ], [ 42.980206682284965, 42.115060866724491 ], [ 42.980250194747796, 42.115044672093269 ], [ 42.980296355842654, 42.115020528632691 ], [ 42.980339494252391, 42.114989527961818 ], [ 42.98038007014091, 42.114951348569811 ], [ 42.980418897409031, 42.114905232982963 ], [ 42.980446022368348, 42.114866950920387 ], [ 42.980473755134831, 42.114822707730568 ], [ 42.980589220850099, 42.114611712037338 ], [ 42.98061839553452, 42.114563497370845 ], [ 42.980646418227472, 42.114522495065785 ], [ 42.980700620955901, 42.114445149175651 ], [ 42.980757089146586, 42.11435785918237 ], [ 42.980967082036976, 42.114004979130478 ], [ 42.981016439818426, 42.11392602760008 ], [ 42.981062719805543, 42.113856351101738 ], [ 42.98111928029023, 42.113777740643656 ], [ 42.98117588383451, 42.113706531976248 ], [ 42.981233670325558, 42.113641300612848 ], [ 42.981293258068177, 42.113581354071627 ], [ 42.981416982766291, 42.113469410322729 ], [ 42.981545895785757, 42.113363073861514 ], [ 42.981678424827962, 42.113263637271892 ], [ 42.981813397823743, 42.113171978709822 ], [ 42.981949437679248, 42.113088996144882 ], [ 42.982017732576708, 42.113050822915724 ], [ 42.98208609417722, 42.113014928415467 ], [ 42.982154429043717, 42.112981360532842 ], [ 42.982222679453379, 42.112950147071523 ], [ 42.982290779135937, 42.112921318386661 ], [ 42.982358672929514, 42.112894897824262 ], [ 42.982450168003311, 42.112864027358732 ], [ 42.982549081947326, 42.112836750983135 ], [ 42.982656472902583, 42.112812770280208 ], [ 42.982774515423962, 42.112791595722221 ], [ 42.982878382292157, 42.112776326400024 ], [ 42.982995839086037, 42.112761754359227 ], [ 42.983377107952464, 42.112722251525163 ], [ 42.983509730634893, 42.112707190895556 ], [ 42.983631943721015, 42.11269076644561 ], [ 42.983741080517319, 42.112673006082346 ], [ 42.984171793073507, 42.112597820091061 ], [ 42.984371059203731, 42.112561047417195 ], [ 42.984568265108997, 42.112520578189795 ], [ 42.984743183300566, 42.112479481988544 ], [ 42.984851264431782, 42.112450547284389 ], [ 42.984962651039041, 42.112417453974558 ], [ 42.985078469990086, 42.112379870613452 ], [ 42.985200875731195, 42.112337100147933 ], [ 42.985429671298157, 42.112250722764969 ], [ 42.985843389828815, 42.112085459167766 ], [ 42.986006247640134, 42.112022003688807 ], [ 42.986173774217583, 42.111960217689408 ], [ 42.986326488792997, 42.111908284161707 ], [ 42.986384098706864, 42.111891916791002 ], [ 42.986453249348507, 42.111876480561442 ], [ 42.98653776764732, 42.111861096106388 ], [ 42.98679821482709, 42.111818588253385 ], [ 42.986874777951478, 42.111802631640082 ], [ 42.986937263056539, 42.111785924473551 ], [ 42.986970859449194, 42.111774624472289 ], [ 42.987000255531164, 42.11176262573629 ], [ 42.987025671801604, 42.111749840278001 ], [ 42.987047231282993, 42.111736202714631 ], [ 42.987065052618398, 42.111721633176494 ], [ 42.987079158480391, 42.111706103244288 ], [ 42.987089590244267, 42.111689566814668 ], [ 42.98709637086808, 42.111671986466632 ], [ 42.987100042527381, 42.111650639318412 ], [ 42.987100100784758, 42.111626559403852 ], [ 42.987096548782112, 42.111599571162628 ], [ 42.987089339285731, 42.111569294616118 ], [ 42.987066907378605, 42.111505032756142 ], [ 42.987014197609298, 42.111381400236965 ], [ 42.986994902597921, 42.111340965447141 ], [ 42.986969305854295, 42.111299659059064 ], [ 42.986937166073332, 42.111257080572912 ], [ 42.986897898351266, 42.111212450612079 ], [ 42.986859761374774, 42.111173596168797 ], [ 42.986814560212729, 42.111130944211908 ], [ 42.986657112955797, 42.110992193974269 ], [ 42.986601603853288, 42.110941316911109 ], [ 42.986550741052547, 42.110890346665052 ], [ 42.986510328306032, 42.110843925006535 ], [ 42.986474200556934, 42.110793005345293 ], [ 42.986449072506666, 42.110744324011051 ], [ 42.986440473164848, 42.110720519896816 ], [ 42.986434489707285, 42.110696991353485 ], [ 42.986431104813278, 42.110673674135356 ], [ 42.98643031273744, 42.110650520410395 ], [ 42.986432541193146, 42.110625596009754 ], [ 42.98643817778305, 42.11059957057337 ], [ 42.986447266872695, 42.110572226936199 ], [ 42.986459934368867, 42.110543179152238 ], [ 42.986496267111015, 42.11047882208824 ], [ 42.986589464390732, 42.110340526682073 ], [ 42.9866260994581, 42.110279716010133 ], [ 42.9866425779758, 42.110246577963416 ], [ 42.986654964226844, 42.110215597050797 ], [ 42.986663494868132, 42.110186174931194 ], [ 42.986668253160573, 42.110158012269125 ], [ 42.986670579917487, 42.110106979610286 ], [ 42.986667182520655, 42.110052956477091 ], [ 42.986658045658558, 42.109995624691145 ], [ 42.98664307147012, 42.109934370130397 ], [ 42.986623190035147, 42.109871562366259 ], [ 42.986597214699501, 42.109802469567448 ], [ 42.986514129243474, 42.109612960215514 ], [ 42.98646895782278, 42.10952391191352 ], [ 42.98641424094528, 42.109436214425799 ], [ 42.98634988425718, 42.10934971658412 ], [ 42.986275744003258, 42.109264223121848 ], [ 42.986191732142657, 42.109179612695705 ], [ 42.986097489526919, 42.109095502530757 ], [ 42.985992648019781, 42.10901156462657 ], [ 42.985876610924514, 42.108927317466758 ], [ 42.985767479526281, 42.108854317376071 ], [ 42.985648625298815, 42.10878006482541 ], [ 42.985518889710697, 42.108703831572356 ], [ 42.985375842458446, 42.108624184380218 ], [ 42.98510505679193, 42.108481886884718 ], [ 42.984503957754669, 42.108178321328666 ], [ 42.984374369458735, 42.108110497303926 ], [ 42.984259667309615, 42.10804835810162 ], [ 42.984041082723699, 42.10793062409428 ], [ 42.983815427736438, 42.107815090723768 ], [ 42.98358275711206, 42.107701785929009 ], [ 42.983343132779517, 42.107590740475779 ], [ 42.983096614390618, 42.107481980586094 ], [ 42.982843286607689, 42.107375544628766 ], [ 42.982583231758532, 42.107271468229243 ], [ 42.982316546616303, 42.107169789067825 ], [ 42.982043184471976, 42.107070492767733 ], [ 42.981763405808081, 42.106973679327297 ], [ 42.981477341034228, 42.106879393322366 ], [ 42.981185140962786, 42.106787684191062 ], [ 42.980886938471649, 42.106698594752203 ], [ 42.980582953987891, 42.106612190980584 ], [ 42.980273397284641, 42.106528531460043 ], [ 42.979958514078888, 42.106447685315423 ], [ 42.979226293887407, 42.106264022174777 ], [ 42.97879771727122, 42.10615918637675 ], [ 42.978392654938077, 42.106064560953442 ], [ 42.978024161500727, 42.105983855264604 ], [ 42.977658020247198, 42.105910143339386 ], [ 42.977482739454061, 42.105877535947279 ], [ 42.977311831600339, 42.105847604509272 ], [ 42.977144686783404, 42.105820245528051 ], [ 42.976981096756042, 42.105795427428859 ], [ 42.976820752169431, 42.105773103343246 ], [ 42.976663415798946, 42.105753240281324 ], [ 42.976501308385139, 42.105735013870728 ], [ 42.976342080744274, 42.105719445252106 ], [ 42.976185556781694, 42.105706518722144 ], [ 42.976031590564418, 42.105696220909792 ], [ 42.975880029973581, 42.105688542836759 ], [ 42.975730788018723, 42.105683481176186 ], [ 42.975583765651507, 42.105681031487215 ], [ 42.975438878185571, 42.105681194084745 ], [ 42.975295936899315, 42.105683970148583 ], [ 42.975154988800497, 42.10568936411812 ], [ 42.975015968543772, 42.105697376648237 ], [ 42.974878823965497, 42.10570801222844 ], [ 42.974743496887484, 42.105721274341185 ], [ 42.974609949680179, 42.105737166831318 ], [ 42.974478141002251, 42.105755696179713 ], [ 42.974348033224821, 42.105776866230755 ], [ 42.974240937187403, 42.105796119909265 ], [ 42.9741995484885, 42.105801113117799 ], [ 42.974157373346358, 42.105804066088929 ], [ 42.974114318521501, 42.105804982578618 ], [ 42.974070262916648, 42.105803867651787 ], [ 42.974025130272054, 42.10580072356273 ], [ 42.973978667105008, 42.105795535025855 ], [ 42.973880719064837, 42.105778902837947 ], [ 42.973796450689797, 42.105759458302721 ], [ 42.973702554336171, 42.10573359801726 ], [ 42.973404124371775, 42.105639191453676 ], [ 42.973301303653507, 42.105608642285333 ], [ 42.973207064745857, 42.105584322760073 ], [ 42.973121197699705, 42.105566520080444 ], [ 42.972964026598099, 42.105540082343005 ], [ 42.972799893146778, 42.105515693572649 ], [ 42.972627550361949, 42.105493166891044 ], [ 42.972444814703394, 42.105472216902058 ], [ 42.972243808581929, 42.105452034255613 ], [ 42.972021293338365, 42.105432388682623 ], [ 42.971110357462571, 42.105363126818808 ], [ 42.970901393832719, 42.105345651443095 ], [ 42.970714543238117, 42.10532823908239 ], [ 42.970499342513577, 42.105305358950631 ], [ 42.970299569228636, 42.105280688147388 ], [ 42.970111208373247, 42.105253728820685 ], [ 42.969932256879218, 42.105224188006851 ], [ 42.969724304943576, 42.105185726582917 ], [ 42.969513215192414, 42.10514335380234 ], [ 42.969298570751192, 42.105096983916141 ], [ 42.969079837158425, 42.105046502072256 ], [ 42.96885665766694, 42.104991833485258 ], [ 42.968627954623933, 42.104932717685841 ], [ 42.968392754076177, 42.104868904137554 ], [ 42.968149607692148, 42.104800000604207 ], [ 42.967929725488617, 42.104735374039031 ], [ 42.967700505411003, 42.104665924646859 ], [ 42.967201931400048, 42.104508855269899 ], [ 42.966791422438426, 42.104375025616143 ], [ 42.965811142857447, 42.104049593442866 ], [ 42.965366697902851, 42.103904228187439 ], [ 42.965055686403907, 42.103801725407799 ], [ 42.964734618872939, 42.1036917764809 ], [ 42.964400974845127, 42.103573522458397 ], [ 42.964050340833843, 42.103445399817858 ], [ 42.963676404307442, 42.103305103398263 ], [ 42.963265334859152, 42.103147441345833 ], [ 42.961611044884812, 42.102498824625982 ], [ 42.96123101526652, 42.102351789919084 ], [ 42.960889005669387, 42.102221678321619 ], [ 42.960492226217511, 42.102074201117532 ], [ 42.96011977717383, 42.101939943635372 ], [ 42.959764212466496, 42.101816224995531 ], [ 42.959421763087903, 42.101701740891897 ], [ 42.958771399100016, 42.101490931321315 ], [ 42.958164800146982, 42.101298379415148 ], [ 42.95758874789648, 42.101119893305146 ], [ 42.957036886942653, 42.100953510442281 ], [ 42.956501867738211, 42.100797050495025 ], [ 42.95598307062653, 42.100650366667033 ], [ 42.955477907853592, 42.100512728603888 ], [ 42.95498459885912, 42.100383652643728 ], [ 42.954464034670771, 42.100254041701106 ], [ 42.953930900191757, 42.100128586458936 ], [ 42.953384330025649, 42.100007083978142 ], [ 42.952823225563904, 42.099889288411056 ], [ 42.952246802688315, 42.09977502704195 ], [ 42.951652955232291, 42.099663873874242 ], [ 42.951039756373085, 42.099555467304185 ], [ 42.95040446104273, 42.099449320284343 ], [ 42.949776797119192, 42.099349966928081 ], [ 42.949121766236246, 42.099251459119081 ], [ 42.948433913466161, 42.099152972047733 ], [ 42.947703275987713, 42.099053075049291 ], [ 42.946964055457755, 42.098956050270736 ], [ 42.946146086845005, 42.098852336884612 ], [ 42.945269876233837, 42.09874414584548 ], [ 42.943780848226645, 42.098563043355895 ], [ 42.943215168369314, 42.098492906013639 ], [ 42.942583393175482, 42.098412142192558 ], [ 42.940519353469881, 42.098140988981413 ], [ 42.939772590867094, 42.098044265189877 ], [ 42.939055584706104, 42.097954168185119 ], [ 42.938406364809005, 42.097875979551475 ], [ 42.937611139390704, 42.097785978870625 ], [ 42.937234340845073, 42.097746001420383 ], [ 42.936868731774773, 42.097709086068576 ], [ 42.936512341398561, 42.097675035362741 ], [ 42.936164577572455, 42.097643798207983 ], [ 42.935824497320219, 42.097615291069793 ], [ 42.935491383112904, 42.097589451569633 ], [ 42.935123573328944, 42.097563472857452 ], [ 42.934763081058179, 42.097540769579155 ], [ 42.934409269034759, 42.097521302409561 ], [ 42.934061630196943, 42.097505044266015 ], [ 42.933719615129235, 42.097491969096843 ], [ 42.933382936261268, 42.097482068168802 ], [ 42.933051243181168, 42.09747533161211 ], [ 42.932724247055724, 42.09747175246325 ], [ 42.932401287595795, 42.097471330568091 ], [ 42.932082532679068, 42.097474070788238 ], [ 42.931767766933923, 42.097479975579418 ], [ 42.931456803965311, 42.097489048817721 ], [ 42.931149447652516, 42.097501296002534 ], [ 42.930845564719277, 42.097516723764492 ], [ 42.930545013430532, 42.097535338579817 ], [ 42.930247664107959, 42.09755714804114 ], [ 42.929839814383989, 42.097588130754168 ], [ 42.928663287110417, 42.097673451938618 ], [ 42.928296833204335, 42.097702464082765 ], [ 42.927968315515855, 42.097730840067833 ], [ 42.927603540755108, 42.097765862047694 ], [ 42.927264243416019, 42.097802621182581 ], [ 42.926944355850509, 42.097841775342943 ], [ 42.926640842548743, 42.09788370480851 ], [ 42.926324099357743, 42.097933250148749 ], [ 42.926022245406081, 42.097986830992745 ], [ 42.925733742039526, 42.098044721331853 ], [ 42.925457566722685, 42.098107127920933 ], [ 42.925323692191725, 42.098140120541132 ], [ 42.925192609262872, 42.098174312652553 ], [ 42.925064242298831, 42.098209724510724 ], [ 42.924938522972241, 42.098246374701645 ], [ 42.924815381659137, 42.098284284489189 ], [ 42.924694774408536, 42.098323466595303 ], [ 42.924576649871454, 42.098363938110687 ], [ 42.924460965217548, 42.098405714478609 ], [ 42.924269935218568, 42.098479959774508 ], [ 42.924078441167268, 42.098561260582478 ], [ 42.923886078361221, 42.098649787891638 ], [ 42.92369232372257, 42.098745782592836 ], [ 42.923496845814292, 42.098849393579933 ], [ 42.923298584245913, 42.098961169917935 ], [ 42.923096600288936, 42.099081637650542 ], [ 42.922889481742253, 42.099211638453106 ], [ 42.922727247564438, 42.09931769539962 ], [ 42.92255974785818, 42.099430745293702 ], [ 42.922385430815211, 42.09955183170657 ], [ 42.922201403446472, 42.099682962752176 ], [ 42.921838008422284, 42.099949549240826 ], [ 42.921141453947733, 42.100472460492107 ], [ 42.920853936742063, 42.100685663975597 ], [ 42.920551806326536, 42.100903764886432 ], [ 42.920277729787074, 42.101094010459882 ], [ 42.919630107823991, 42.101537299404299 ], [ 42.918984684127388, 42.101986934935468 ], [ 42.918341563749991, 42.102442843345543 ], [ 42.917700856645183, 42.102904949216821 ], [ 42.91706266681912, 42.103373174324119 ], [ 42.916427114263264, 42.103847432629529 ], [ 42.915794317886764, 42.104327634475673 ], [ 42.915164399083721, 42.104813688451607 ], [ 42.914531633351665, 42.105309736799811 ], [ 42.913916973481683, 42.105799174532095 ], [ 42.913319311135773, 42.10628288417066 ], [ 42.91273778707879, 42.106761562714901 ], [ 42.912171481871162, 42.107235970885732 ], [ 42.911619940689121, 42.107706493287125 ], [ 42.91108261017245, 42.108173604573729 ], [ 42.910559035074535, 42.1086377001184 ], [ 42.910335030573307, 42.108840368283467 ], [ 42.910092379624075, 42.109064051899836 ], [ 42.909813450019506, 42.109325059795822 ], [ 42.908968087126873, 42.110122117149679 ], [ 42.908694528055953, 42.110375469688861 ], [ 42.908446468962971, 42.110600758628273 ], [ 42.908232011333403, 42.110789940137799 ], [ 42.907989561463943, 42.11099727266879 ], [ 42.907744926642209, 42.111201890972566 ], [ 42.907099480320461, 42.111736202131674 ], [ 42.906742755727834, 42.112039026323735 ], [ 42.906555469500425, 42.112203445309802 ], [ 42.906383623767915, 42.11235906159316 ], [ 42.906223937232291, 42.112508852127348 ], [ 42.906074772360924, 42.112654358594817 ], [ 42.905952354831896, 42.1127783626442 ], [ 42.905826982430199, 42.112909439857404 ], [ 42.905697328576558, 42.113048975421108 ], [ 42.90556080388226, 42.113199750781824 ], [ 42.905315222122084, 42.113478655732393 ], [ 42.904753769194571, 42.114128470934986 ], [ 42.904479953328284, 42.11443616696581 ], [ 42.904269493375715, 42.114664803761976 ], [ 42.90404640411144, 42.11490169290439 ], [ 42.903808535583394, 42.115149118539939 ], [ 42.903551722572523, 42.115411420020223 ], [ 42.903045243321891, 42.115918242786968 ], [ 42.902078185938443, 42.116870648936469 ], [ 42.901689028205823, 42.117256946069588 ], [ 42.901290949114312, 42.117658939726923 ], [ 42.900939433058795, 42.118022796826352 ], [ 42.900738975618005, 42.118235285037109 ], [ 42.900548866631681, 42.118440917920992 ], [ 42.900367811466197, 42.118641101962304 ], [ 42.900194964174197, 42.118836769134646 ], [ 42.900029413412753, 42.119028962780256 ], [ 42.899870888445854, 42.119218008489383 ], [ 42.899718957453238, 42.119404420724372 ], [ 42.899573300271094, 42.119588592608544 ], [ 42.899385650209602, 42.119831920222182 ], [ 42.899200289619884, 42.120076936620087 ], [ 42.899017279278063, 42.120323560072599 ], [ 42.898836681111987, 42.12057171067265 ], [ 42.898658553573704, 42.12082130394672 ], [ 42.898482958714574, 42.121072256388139 ], [ 42.898309953752424, 42.121324484401867 ], [ 42.898139599623434, 42.121577901759437 ], [ 42.897971949922905, 42.121832424799841 ], [ 42.897807064441949, 42.122087965472794 ], [ 42.897644999376652, 42.122344434761722 ], [ 42.897485812074699, 42.122601745472494 ], [ 42.897329555049907, 42.122859810322431 ], [ 42.897176282086654, 42.123118540251127 ], [ 42.897026045732446, 42.123377847076092 ], [ 42.896878898536769, 42.123637642615002 ], [ 42.896566815840387, 42.124203408577394 ], [ 42.896277152364789, 42.124746045338114 ], [ 42.896139843547793, 42.125010342212676 ], [ 42.896007292150003, 42.125270454704314 ], [ 42.895879311791234, 42.125526753153963 ], [ 42.895755752409634, 42.125779533818829 ], [ 42.895636246173197, 42.126029568070514 ], [ 42.895520943200438, 42.126276562384284 ], [ 42.895409746083686, 42.12652072031937 ], [ 42.895302579038038, 42.126762213409961 ], [ 42.895199359872194, 42.127001223878871 ], [ 42.895100041420854, 42.127237862544142 ], [ 42.895004572382369, 42.127472255457363 ], [ 42.8949129093034, 42.127704510801763 ], [ 42.894824549841111, 42.127935953132479 ], [ 42.894739961690831, 42.12816543018856 ], [ 42.894659110692629, 42.128393025106121 ], [ 42.894581973835123, 42.128618813120148 ], [ 42.894508520672076, 42.128842874732157 ], [ 42.8944387361298, 42.129065264608599 ], [ 42.89437260014801, 42.129286041826767 ], [ 42.894310097650859, 42.129505261052216 ], [ 42.894251198770114, 42.129723021707711 ], [ 42.894195908473215, 42.129939321188559 ], [ 42.894144214517382, 42.130154201602984 ], [ 42.894096107077246, 42.130367705103211 ], [ 42.894051577625326, 42.130579871163185 ], [ 42.894010619051372, 42.130790732978419 ], [ 42.893973225513285, 42.131000321966219 ], [ 42.893939389959264, 42.131208669521286 ], [ 42.893908601806011, 42.131439432723433 ], [ 42.89388340966871, 42.131697996136403 ], [ 42.893865470586427, 42.13194458617258 ], [ 42.893829899061942, 42.132524100925345 ], [ 42.893807150767763, 42.132807755296483 ], [ 42.893793391069153, 42.132941555439857 ], [ 42.893778078766424, 42.133067404628754 ], [ 42.893760985908351, 42.133187179096133 ], [ 42.893741963429406, 42.133301908173095 ], [ 42.893628812052839, 42.133925417119933 ], [ 42.89353648198896, 42.134398100291058 ], [ 42.89349039943108, 42.134617612339106 ], [ 42.893444250757611, 42.134826006340305 ], [ 42.893397543365388, 42.135025513899834 ], [ 42.893349976154681, 42.135217407415404 ], [ 42.893299662363333, 42.135408743424783 ], [ 42.893247960270273, 42.135593807455464 ], [ 42.893194694149159, 42.135773228487764 ], [ 42.893139729515717, 42.135947449838305 ], [ 42.893082912312131, 42.136116957691797 ], [ 42.893024177226224, 42.136281933664399 ], [ 42.892963434761185, 42.136442631874971 ], [ 42.892900609391923, 42.136599249961996 ], [ 42.89283344393008, 42.13675694912174 ], [ 42.892763912514575, 42.136910637696317 ], [ 42.892691953621053, 42.137060455942866 ], [ 42.892617511487238, 42.137206516305909 ], [ 42.892540523975917, 42.137348941018914 ], [ 42.892460953776634, 42.137487796935183 ], [ 42.892378755935333, 42.137623162474661 ], [ 42.89229389078298, 42.137755102645507 ], [ 42.892206262934621, 42.137883757080516 ], [ 42.892115891572345, 42.138009094605671 ], [ 42.892022740043494, 42.13813116227189 ], [ 42.891926779220078, 42.138249999162817 ], [ 42.891827973778817, 42.138365648750856 ], [ 42.89172629978799, 42.138478139407503 ], [ 42.891621730897782, 42.138587499459568 ], [ 42.891514240818644, 42.13869375543343 ], [ 42.89136605016634, 42.138831323754204 ], [ 42.891204878436419, 42.138971640426441 ], [ 42.891029633826875, 42.13911566064921 ], [ 42.890838304579489, 42.139265041356616 ], [ 42.890635635398475, 42.139416456523513 ], [ 42.890409309619812, 42.13957944095251 ], [ 42.890155323245537, 42.139757117911252 ], [ 42.889806172030219, 42.139996707350662 ], [ 42.88962824635167, 42.140116163990591 ], [ 42.889444045574294, 42.140235630051919 ], [ 42.889253220982056, 42.140355329635454 ], [ 42.889055321356956, 42.140475548893356 ], [ 42.888850039044812, 42.140596477551902 ], [ 42.888636451790944, 42.14071866595976 ], [ 42.888413710799583, 42.140842601868052 ], [ 42.888180547460777, 42.140968988633304 ], [ 42.887959579559656, 42.141086018208021 ], [ 42.887726929291631, 42.141206746120815 ], [ 42.887214677738704, 42.141465445392477 ], [ 42.886721658731545, 42.14170802688632 ], [ 42.885503405570134, 42.142300253868498 ], [ 42.885010782436524, 42.142538620489702 ], [ 42.884496488575458, 42.14278098997957 ], [ 42.883957216446305, 42.143028923866744 ], [ 42.883387426730749, 42.143284970877431 ], [ 42.882793029242649, 42.143546655884187 ], [ 42.882148086831748, 42.143825563728441 ], [ 42.881435876175232, 42.144129006247333 ], [ 42.880563539716718, 42.144496552430027 ], [ 42.880285948371487, 42.144611921705938 ], [ 42.879994469134473, 42.1447307890056 ], [ 42.879354482552941, 42.144985251550146 ], [ 42.878744213983005, 42.145222080130033 ], [ 42.877324420622237, 42.145766832013756 ], [ 42.876645190126268, 42.146032124499371 ], [ 42.876044253256374, 42.146273663787213 ], [ 42.875767046845809, 42.146388079933082 ], [ 42.875501713376025, 42.146499753334709 ], [ 42.875122613575989, 42.146662745273339 ], [ 42.874728402277519, 42.146835770261518 ], [ 42.874314915592592, 42.147020652989973 ], [ 42.873873925513053, 42.14722106817738 ], [ 42.873068719328948, 42.147593402694419 ], [ 42.871202633310546, 42.14846629587511 ], [ 42.870728923094511, 42.148685128832476 ], [ 42.870298795966328, 42.148881354978698 ], [ 42.869982397510114, 42.149022591440655 ], [ 42.869650360475532, 42.149166747988737 ], [ 42.869299975411032, 42.149315003439277 ], [ 42.868926353500207, 42.149469429070685 ], [ 42.868535334427087, 42.149627770967044 ], [ 42.868101063464017, 42.14980063896963 ], [ 42.866368345921629, 42.150478516511619 ], [ 42.865625398525914, 42.15077391041018 ], [ 42.865223214118231, 42.150937693246284 ], [ 42.864850402849235, 42.15109291216546 ], [ 42.864499538880203, 42.151242664062394 ], [ 42.864166912872342, 42.151388536223706 ], [ 42.863768821562253, 42.151568999527875 ], [ 42.863391577601007, 42.151746934661965 ], [ 42.863032454613439, 42.151923631993071 ], [ 42.862689702753123, 42.152099953356235 ], [ 42.862361421208576, 42.152276893731255 ], [ 42.86204706211889, 42.152454768138611 ], [ 42.861745743405919, 42.152634076278815 ], [ 42.861599763647426, 42.152724393225789 ], [ 42.861456804417308, 42.152815211196028 ], [ 42.860601442368065, 42.153369255707872 ], [ 42.860258363873534, 42.153595023414674 ], [ 42.85994258069735, 42.15380569330096 ], [ 42.859638956384735, 42.154011486549607 ], [ 42.859352035943971, 42.154209456747388 ], [ 42.859078998044673, 42.154401552437996 ], [ 42.858818233634715, 42.15458890812836 ], [ 42.858561171686375, 42.154777866035943 ], [ 42.858314816456293, 42.154963472323729 ], [ 42.858078398042963, 42.155146308865071 ], [ 42.857851377244188, 42.155326791624105 ], [ 42.857633174406025, 42.155505387135399 ], [ 42.857423576617421, 42.155682274289511 ], [ 42.857222288698736, 42.155857702482621 ], [ 42.857029085022162, 42.156031868371819 ], [ 42.856838254813589, 42.156210198429505 ], [ 42.856655623109503, 42.156387541256578 ], [ 42.856481042300665, 42.156564040927982 ], [ 42.856345887885936, 42.156706597833001 ] ] ] ] } }
]
}
