{
"type": "FeatureCollection",
"name": "ტვიში",
"crs": { "type": "name", "properties": { "name": "urn:ogc:def:crs:OGC:1.3:CRS84" } },
"features": [
{ "type": "Feature", "properties": { "OBJECTID": 16, "NAME_GEO": "ტვიში", "NAME_ENG": "Tvishi", "Location": "Racha-Lechkhumi", "MoreInfo": "https://www.sakpatenti.gov.ge/media/django-summernote/2025-11-19/30a5df01-347b-4088-b9a3-cf95fefd72c3.pdf" }, "geometry": { "type": "MultiPolygon", "coordinates": [ [ [ [ 42.843426569758293, 42.565384153232564 ], [ 42.843254483416572, 42.565359052666828 ], [ 42.843073233155039, 42.56533474282422 ], [ 42.842880903131963, 42.565310963348153 ], [ 42.842673655214149, 42.56528723935498 ], [ 42.842291185075609, 42.565247171817425 ], [ 42.841397788120496, 42.565159334004775 ], [ 42.840969879327488, 42.565112876458677 ], [ 42.840774823935689, 42.565089322133993 ], [ 42.840591702348725, 42.565065384625044 ], [ 42.840417936300931, 42.565040724505927 ], [ 42.84025210019157, 42.565015137533841 ], [ 42.84003101604759, 42.564977409480754 ], [ 42.839821272618259, 42.564937178019875 ], [ 42.839621363232176, 42.564894152741942 ], [ 42.839430321777819, 42.564848123662415 ], [ 42.839247097448741, 42.564798828760942 ], [ 42.839071384131884, 42.564746172247261 ], [ 42.838902694714676, 42.564690008085407 ], [ 42.83874066426948, 42.564630215053782 ], [ 42.838645318943698, 42.564591682627821 ], [ 42.838549881561278, 42.564550069499468 ], [ 42.838454176908989, 42.564505299419423 ], [ 42.838357984382647, 42.564457270066555 ], [ 42.838261150591862, 42.564405908303698 ], [ 42.838163262659577, 42.564351000116467 ], [ 42.838063952539024, 42.564292338638914 ], [ 42.837962694875131, 42.564229615877345 ], [ 42.837769565457698, 42.564102543532719 ], [ 42.837560316226899, 42.563955549535606 ], [ 42.837348493436252, 42.563799578782607 ], [ 42.836768326406897, 42.563362867173431 ], [ 42.836588113202581, 42.563232603095827 ], [ 42.836423684839474, 42.563118903953054 ], [ 42.836231049773119, 42.562993576360157 ], [ 42.836137920033813, 42.562936459101493 ], [ 42.836046259166494, 42.562882631211664 ], [ 42.835955575045126, 42.562831809636982 ], [ 42.835865710913986, 42.562783912171859 ], [ 42.835776425170636, 42.562738809080351 ], [ 42.835687528596971, 42.562696405835432 ], [ 42.835575509789756, 42.56264565177576 ], [ 42.835459835305002, 42.562595393146715 ], [ 42.835216425695045, 42.562495895707301 ], [ 42.834954706884943, 42.562396840509578 ], [ 42.834669383508853, 42.562296220910298 ], [ 42.834448484368991, 42.56222239716142 ], [ 42.834204051452659, 42.562143794659889 ], [ 42.833924639142978, 42.562056675752551 ], [ 42.833083314846803, 42.5617984245727 ], [ 42.832817419512864, 42.561713853231616 ], [ 42.83258109555355, 42.561635765418004 ], [ 42.832089425034027, 42.561465881627051 ], [ 42.830991927749132, 42.561076574844293 ], [ 42.830505473046614, 42.560909973589354 ], [ 42.830207134892362, 42.560812392275608 ], [ 42.829927044113859, 42.560724971613752 ], [ 42.82965954358135, 42.560645950279302 ], [ 42.829401774020127, 42.560574488917212 ], [ 42.829111909404922, 42.560500567174252 ], [ 42.828806302677073, 42.560429791679191 ], [ 42.828481872605209, 42.560361441102742 ], [ 42.828132572891512, 42.56029423625607 ], [ 42.827818154569925, 42.560238217193891 ], [ 42.827466984961909, 42.560179372226642 ], [ 42.826247282812481, 42.559987045166743 ], [ 42.825771716138014, 42.559908924888198 ], [ 42.825522691687581, 42.559865552315401 ], [ 42.825290331438303, 42.559822991800885 ], [ 42.825070379575564, 42.559780461124106 ], [ 42.82486064362709, 42.559737534195932 ], [ 42.824488852696248, 42.559656268907524 ], [ 42.824076565427667, 42.559560480294131 ], [ 42.823682805372229, 42.559465197133591 ], [ 42.822733624333345, 42.559231249963617 ], [ 42.822244749879239, 42.559114798800231 ], [ 42.821999411594241, 42.559058875947997 ], [ 42.821768195060308, 42.559008212736131 ], [ 42.821547260721992, 42.558961968075941 ], [ 42.82133455498623, 42.558919715738938 ], [ 42.820563552816552, 42.558771244887311 ], [ 42.82005953003609, 42.558677397331621 ], [ 42.819596997102003, 42.558596151364576 ], [ 42.819175757127674, 42.558527935990035 ], [ 42.818965492938744, 42.558496422147833 ], [ 42.81876152818537, 42.558467693434594 ], [ 42.818562940387586, 42.558441619748926 ], [ 42.818369078364711, 42.558418115772909 ], [ 42.818179226297417, 42.558397098554266 ], [ 42.817993115951644, 42.558378539589135 ], [ 42.817810367292083, 42.558362402838313 ], [ 42.817630684058891, 42.558348660159766 ], [ 42.817514799341545, 42.558341721557277 ], [ 42.817393223970647, 42.558336835647467 ], [ 42.817264722107232, 42.558333951844503 ], [ 42.817126863182025, 42.55833301299527 ], [ 42.816867899012387, 42.558335644270088 ], [ 42.816227398282045, 42.558349377959651 ], [ 42.816049883307556, 42.558350484125981 ], [ 42.815890668437184, 42.558348921342905 ], [ 42.815718390524644, 42.558343591774765 ], [ 42.815557953887499, 42.558334350791554 ], [ 42.815406517568505, 42.558321034391817 ], [ 42.815262603946501, 42.558303505462618 ], [ 42.815107838933287, 42.558280166300641 ], [ 42.814951319594719, 42.558253243603566 ], [ 42.814793056884234, 42.558222738473731 ], [ 42.814633062910289, 42.558188653836581 ], [ 42.814471349813282, 42.558150991717632 ], [ 42.814307928516804, 42.558109754119101 ], [ 42.814142813502578, 42.558064945812738 ], [ 42.813976015663755, 42.558016569700719 ], [ 42.813807559189861, 42.557964631640573 ], [ 42.813637442833553, 42.557909133402255 ], [ 42.813465681141288, 42.557850077957653 ], [ 42.813292282510666, 42.557787469962314 ], [ 42.813117261489047, 42.557721312388153 ], [ 42.81294061679958, 42.557651607904937 ], [ 42.812762352160817, 42.557578355675624 ], [ 42.812582461585102, 42.557501553777293 ], [ 42.812487944965802, 42.557459005410493 ], [ 42.812391277714738, 42.557412612083972 ], [ 42.812291651091108, 42.557361989130619 ], [ 42.812187630085184, 42.557306408525335 ], [ 42.811967319385495, 42.557181363443419 ], [ 42.811518834672349, 42.556913736283164 ], [ 42.811324275653334, 42.556801194078531 ], [ 42.811216719614762, 42.556741837591176 ], [ 42.811114941254083, 42.556688119725557 ], [ 42.811016919239783, 42.556638975270332 ], [ 42.810921621544431, 42.556593890123622 ], [ 42.810716091040625, 42.55650071273714 ], [ 42.810521842823221, 42.556414815253603 ], [ 42.810335657304591, 42.556334773688761 ], [ 42.810155925020332, 42.556259900829218 ], [ 42.809980783422425, 42.556189432569163 ], [ 42.809810058969468, 42.556123314281393 ], [ 42.809643091846432, 42.556061290226346 ], [ 42.809479427465234, 42.556003192333904 ], [ 42.809317376671011, 42.555948454300484 ], [ 42.809157990357271, 42.555897466349201 ], [ 42.809001011957029, 42.555850145237706 ], [ 42.808846241265563, 42.555806433114434 ], [ 42.808693461164779, 42.555766268200948 ], [ 42.808542571381793, 42.555729626073564 ], [ 42.808393445086161, 42.555696475496084 ], [ 42.808245977106814, 42.555666792850303 ], [ 42.808128309454133, 42.555647668902857 ], [ 42.808001836019798, 42.55563350117778 ], [ 42.807865338901237, 42.555624145665824 ], [ 42.807716364827968, 42.555619431101498 ], [ 42.80758047672191, 42.555618947142278 ], [ 42.807427668888856, 42.555621553001963 ], [ 42.806902489485005, 42.55564048052031 ], [ 42.806704046020769, 42.555645210315319 ], [ 42.806506738497042, 42.55564453047333 ], [ 42.806418123920068, 42.555641617644618 ], [ 42.806334709786597, 42.55563695017625 ], [ 42.806239733193436, 42.555628897650564 ], [ 42.806150557627916, 42.555618150135757 ], [ 42.806066583961595, 42.555604634032953 ], [ 42.805987420991428, 42.555588286027458 ], [ 42.805912656612911, 42.555569013585682 ], [ 42.805842161976138, 42.555546774624872 ], [ 42.805775744316485, 42.555521508727146 ], [ 42.805713259400186, 42.555493160906003 ], [ 42.805630895488243, 42.555449469119509 ], [ 42.80554878962478, 42.555399878396628 ], [ 42.805467108962624, 42.555344485594873 ], [ 42.805386047324482, 42.555283425905188 ], [ 42.805305767608985, 42.555216813214379 ], [ 42.805226576544833, 42.555144897443142 ], [ 42.805148750490126, 42.555067926129922 ], [ 42.805072620200868, 42.55498622800279 ], [ 42.804997695356569, 42.554899162402336 ], [ 42.804925300081649, 42.554808150516855 ], [ 42.804855895266449, 42.554713769413574 ], [ 42.804790016956048, 42.554616745286744 ], [ 42.804728107061784, 42.554517709773535 ], [ 42.804670911462296, 42.554417830745393 ], [ 42.80461904541626, 42.554318179916784 ], [ 42.804573147991626, 42.554219983448249 ], [ 42.804540043886931, 42.554134108189189 ], [ 42.804514997088781, 42.554045210326443 ], [ 42.804497953522429, 42.553953094315737 ], [ 42.804488861572793, 42.553857494417521 ], [ 42.804487689214824, 42.553758246124517 ], [ 42.804494412157425, 42.553654790647357 ], [ 42.8045090604245, 42.553546617963868 ], [ 42.804531739641284, 42.553432937635826 ], [ 42.804555557430398, 42.553338227010855 ], [ 42.804584758910039, 42.553238578451442 ], [ 42.804619646596819, 42.553132936036093 ], [ 42.804660912869799, 42.553019198604282 ], [ 42.804744665487448, 42.552808498586643 ], [ 42.804956933169265, 42.552303592584813 ], [ 42.805009294799696, 42.552170551529251 ], [ 42.805053173389076, 42.552050700823237 ], [ 42.805093515572189, 42.551929056026452 ], [ 42.805126581784677, 42.551815044190135 ], [ 42.805152880575527, 42.55170691094316 ], [ 42.805172636331029, 42.551603711440002 ], [ 42.805296760792785, 42.550871868808187 ], [ 42.805347379122672, 42.550556142981513 ], [ 42.805392959471249, 42.550232215881088 ], [ 42.805425738556551, 42.549941480771793 ], [ 42.805438851094038, 42.549791179042785 ], [ 42.805448607776505, 42.549646239558975 ], [ 42.805455062229548, 42.549505862784557 ], [ 42.805458240893671, 42.549369503510256 ], [ 42.805458150160462, 42.549236563011604 ], [ 42.805454786162493, 42.549106839497625 ], [ 42.80544814122959, 42.548980031146286 ], [ 42.805438201579314, 42.548855906258808 ], [ 42.805423224703269, 42.548717115295183 ], [ 42.805404272611824, 42.54857610041266 ], [ 42.805381328156592, 42.548432726202265 ], [ 42.805354365399907, 42.548286830070396 ], [ 42.805323360889773, 42.548138282790056 ], [ 42.805288259961955, 42.547986803247831 ], [ 42.805249001048892, 42.547832133611152 ], [ 42.805205501082639, 42.547673934587728 ], [ 42.805158235100635, 42.547513734457794 ], [ 42.805106568007766, 42.54734918779134 ], [ 42.805050309180935, 42.54717968847936 ], [ 42.80498915817553, 42.547004323930523 ], [ 42.804923109430796, 42.54682301118202 ], [ 42.804851158648376, 42.546632924947694 ], [ 42.804684672291636, 42.546213688818703 ], [ 42.804640324813491, 42.546110860879345 ], [ 42.804589486658223, 42.546004235277671 ], [ 42.804531656784647, 42.545892750590063 ], [ 42.804465774478224, 42.545774357594773 ], [ 42.804332205421055, 42.54555126627158 ], [ 42.804076828502538, 42.545146827252751 ], [ 42.803979165088506, 42.544988478098404 ], [ 42.803884228428288, 42.544826287278397 ], [ 42.803804819335085, 42.544679594041241 ], [ 42.803762938672598, 42.544595880725844 ], [ 42.803725167891486, 42.544514922556814 ], [ 42.803691258781406, 42.544436191574718 ], [ 42.803661061801783, 42.544359332810892 ], [ 42.803634426337211, 42.544283952553016 ], [ 42.803611314196239, 42.544209923997926 ], [ 42.803591664061251, 42.544137050558383 ], [ 42.803575436129051, 42.544065181986014 ], [ 42.803555177009436, 42.543956755007294 ], [ 42.803538134600977, 42.543846441877363 ], [ 42.803524326564542, 42.543734363606326 ], [ 42.803513767652809, 42.543620654656081 ], [ 42.803506472870268, 42.543505442288918 ], [ 42.803502453429722, 42.543388892416637 ], [ 42.803501712213865, 42.543271165387914 ], [ 42.803504252848654, 42.543152435073239 ], [ 42.803510078447175, 42.543032751060736 ], [ 42.80351917996768, 42.542912440066381 ], [ 42.803531540554033, 42.542791704383895 ], [ 42.80354713794592, 42.54267076151185 ], [ 42.803565946579589, 42.542549818979602 ], [ 42.803587928487339, 42.542429125502444 ], [ 42.803613038684475, 42.542308921556135 ], [ 42.803641226972189, 42.542189457422083 ], [ 42.803672926234057, 42.542079571932732 ], [ 42.803714169241275, 42.54196582878491 ], [ 42.803765380628498, 42.541847021303802 ], [ 42.803827585318373, 42.541720763828771 ], [ 42.803886265531006, 42.541612288019095 ], [ 42.803955688200645, 42.541491914202744 ], [ 42.804190252783187, 42.541107294953036 ], [ 42.80427043376028, 42.54097217668216 ], [ 42.804341689193436, 42.540844846082543 ], [ 42.804401507580096, 42.540728723846385 ], [ 42.804450570399581, 42.540623026992442 ], [ 42.804491793306482, 42.540522084992148 ], [ 42.80452568691085, 42.540424637903051 ], [ 42.804552503436071, 42.540329953037457 ], [ 42.80458658156995, 42.540187245532522 ], [ 42.804616533864781, 42.540048705804473 ], [ 42.804642440406873, 42.539913960773994 ], [ 42.804664341717661, 42.539782793294073 ], [ 42.804682276891882, 42.539654957373031 ], [ 42.804696245781379, 42.539530423292909 ], [ 42.804706258836674, 42.539409102103868 ], [ 42.804712320535366, 42.539290936259476 ], [ 42.804714434265506, 42.539175690788838 ], [ 42.804712586976777, 42.539063530238096 ], [ 42.804706777234763, 42.538954426663601 ], [ 42.804697004442367, 42.538848362943575 ], [ 42.804683268159032, 42.538745317456161 ], [ 42.804665564878448, 42.538645286530858 ], [ 42.804643894964691, 42.538548260267227 ], [ 42.80461825615766, 42.538454234117275 ], [ 42.804584522711245, 42.538353518606264 ], [ 42.804543179981444, 42.538251897190648 ], [ 42.804494149637719, 42.538149173847636 ], [ 42.804437311499044, 42.538045095918029 ], [ 42.804372590813628, 42.537939504365681 ], [ 42.804299686656051, 42.537831883711966 ], [ 42.8042182911257, 42.537721778677167 ], [ 42.804127896254435, 42.537608501410205 ], [ 42.804044333961336, 42.537510063326387 ], [ 42.80395321008703, 42.537407942045974 ], [ 42.803853604029868, 42.537301097804772 ], [ 42.803743597164541, 42.537187470314045 ], [ 42.803534847569729, 42.536980237149088 ], [ 42.803050219138626, 42.536511648359429 ], [ 42.802832807705293, 42.536292753478421 ], [ 42.802292205506184, 42.535725196247014 ], [ 42.802038650648029, 42.535464761274824 ], [ 42.80190503807227, 42.535331715787457 ], [ 42.801778059757993, 42.535208735652631 ], [ 42.801655426225189, 42.535093605787196 ], [ 42.801535951362133, 42.534985217407012 ], [ 42.801408043454799, 42.534873603447707 ], [ 42.801281961627922, 42.534768292948911 ], [ 42.801157049261221, 42.534668738400171 ], [ 42.801032847915081, 42.534574574396622 ], [ 42.800908837761583, 42.534485415441708 ], [ 42.800784836799757, 42.534401138271988 ], [ 42.800660576256689, 42.534321559422949 ], [ 42.800535841724191, 42.534246542399522 ], [ 42.800463581501454, 42.534205855022329 ], [ 42.800388286848744, 42.534166144030131 ], [ 42.800309834649006, 42.534127344015829 ], [ 42.800228069279292, 42.53408937904176 ], [ 42.800142875856658, 42.534052191962431 ], [ 42.800053952236183, 42.534015649092538 ], [ 42.79996101879312, 42.533979634288073 ], [ 42.799863675487394, 42.533943993069769 ], [ 42.799651196613681, 42.533872278543619 ], [ 42.799410900523299, 42.533798757657721 ], [ 42.799151413830792, 42.53372524305221 ], [ 42.798626887044811, 42.533583355406655 ], [ 42.798406920484886, 42.533522230721772 ], [ 42.798179089442847, 42.533455225300564 ], [ 42.797978438603096, 42.533391369690563 ], [ 42.797862370430408, 42.533351640423049 ], [ 42.797752553030762, 42.533311720538642 ], [ 42.797648208587212, 42.533271325843003 ], [ 42.797548834957823, 42.533230262088175 ], [ 42.797453895918373, 42.533188300148431 ], [ 42.797363230913227, 42.533145365805879 ], [ 42.797276592080507, 42.533101339937467 ], [ 42.797193792824373, 42.533056127110292 ], [ 42.797103537403359, 42.533003735927572 ], [ 42.797013002546265, 42.532948630521858 ], [ 42.796921996382054, 42.53289069283548 ], [ 42.796830267562846, 42.5328297649435 ], [ 42.796643671027937, 42.532698296695678 ], [ 42.796449529532886, 42.53255163793213 ], [ 42.796291158597604, 42.532425532617182 ], [ 42.796118663590974, 42.532282863936267 ], [ 42.795945958730698, 42.532136041340237 ], [ 42.795484844541328, 42.531738918059247 ], [ 42.795217665011172, 42.531516510464463 ], [ 42.795074523733895, 42.531403170680427 ], [ 42.794910516831848, 42.531278360680368 ], [ 42.794366502003257, 42.530878974124683 ], [ 42.794174804343093, 42.530735626564123 ], [ 42.793997122920906, 42.530597534831045 ], [ 42.793841745556485, 42.530470265369352 ], [ 42.793747266394575, 42.530388735664758 ], [ 42.79365937702984, 42.530309241928684 ], [ 42.793577455574329, 42.530231221976294 ], [ 42.793501110975782, 42.530154300873242 ], [ 42.793429933118276, 42.530078057389282 ], [ 42.793363809738466, 42.530002359695686 ], [ 42.793302559418244, 42.52992699988701 ], [ 42.793246051475727, 42.529851816060479 ], [ 42.793177078861746, 42.529752075189251 ], [ 42.793111165883303, 42.529648435419837 ], [ 42.793048275598444, 42.529540839312489 ], [ 42.792988365583213, 42.529429212211546 ], [ 42.792931402512778, 42.52931349764679 ], [ 42.792877317011417, 42.529193556505355 ], [ 42.792826050304853, 42.529069259783959 ], [ 42.792777529418018, 42.528940432278645 ], [ 42.792732039144127, 42.528807975502843 ], [ 42.792689075520215, 42.528670573086707 ], [ 42.792648531253334, 42.528527883467348 ], [ 42.792610257845091, 42.528379386883877 ], [ 42.792574219504601, 42.528225027716481 ], [ 42.792540013410758, 42.528063176358415 ], [ 42.792507340789179, 42.527892429438133 ], [ 42.792475611792653, 42.527709727311681 ], [ 42.792456948955127, 42.52758626857819 ], [ 42.792441485158591, 42.527460373437755 ], [ 42.792429207928613, 42.527331946195417 ], [ 42.792420106799341, 42.527200868681497 ], [ 42.792414172945065, 42.527067045270798 ], [ 42.792411397503329, 42.526930277677231 ], [ 42.792411774785329, 42.526790381183552 ], [ 42.79241530593341, 42.526647115371226 ], [ 42.792421931917566, 42.526501394936034 ], [ 42.792431684528829, 42.526351729220316 ], [ 42.792444590775965, 42.526197696397219 ], [ 42.792460701292406, 42.526038687785558 ], [ 42.792480021330235, 42.525874518877103 ], [ 42.792502732636017, 42.525703519996618 ], [ 42.792559319182082, 42.525333829177512 ], [ 42.792654575402047, 42.524747397642365 ], [ 42.792686145209615, 42.524568581742862 ], [ 42.792716898184096, 42.524408251382269 ], [ 42.792751355649443, 42.524245086398537 ], [ 42.792787143522084, 42.52409263897426 ], [ 42.792824822963311, 42.523948526325462 ], [ 42.792864723678001, 42.523811510277689 ], [ 42.792910006294896, 42.523672216924041 ], [ 42.792958378034442, 42.523539125554414 ], [ 42.793010059741995, 42.52341163436671 ], [ 42.793065215598965, 42.523289333178795 ], [ 42.793124054660247, 42.523171782054597 ], [ 42.793186657640057, 42.523058832155883 ], [ 42.793253146655324, 42.522950265200549 ], [ 42.793323622456278, 42.522845916525725 ], [ 42.793390055687077, 42.522754757372283 ], [ 42.793460128961215, 42.522663592654354 ], [ 42.793533698009767, 42.522572612298667 ], [ 42.793610601280065, 42.522482013103264 ], [ 42.793690674851689, 42.522391990019671 ], [ 42.793773737394204, 42.522302748470636 ], [ 42.793859597941946, 42.522214490991999 ], [ 42.793948063161935, 42.522127418273371 ], [ 42.794038926278105, 42.522041732546946 ], [ 42.794131983298541, 42.52195762619327 ], [ 42.794227022902859, 42.521875292352824 ], [ 42.794323829255376, 42.521794914173988 ], [ 42.794422182809981, 42.521716676535398 ], [ 42.794521874483927, 42.521640743805733 ], [ 42.794622691547183, 42.521567280284202 ], [ 42.794724422963519, 42.521496436795417 ], [ 42.794806944339342, 42.521442464858339 ], [ 42.794893827192844, 42.521389884387041 ], [ 42.794985251940908, 42.521338584477853 ], [ 42.795081460713959, 42.52128843019922 ], [ 42.795182611269553, 42.521239331821519 ], [ 42.795289219058283, 42.521191032697047 ], [ 42.795401765319895, 42.521143314239687 ], [ 42.795520986631296, 42.521095862816203 ], [ 42.79573557433968, 42.521016881109759 ], [ 42.795980010944668, 42.520934314708285 ], [ 42.796223444789582, 42.520857086618655 ], [ 42.796850575288182, 42.520663961985719 ], [ 42.797029652251197, 42.520606335199567 ], [ 42.797188966575106, 42.52055268032359 ], [ 42.797363418202764, 42.520490374981421 ], [ 42.797523565082123, 42.52042891187476 ], [ 42.797672340587461, 42.520367162370363 ], [ 42.797811213788677, 42.520304511780395 ], [ 42.79817016268089, 42.520139304482591 ], [ 42.799044084463191, 42.51974740593468 ], [ 42.799267016205036, 42.519644613075506 ], [ 42.799466782014775, 42.519549943250432 ], [ 42.799706029599243, 42.519432204448947 ], [ 42.799924221910331, 42.51931936844052 ], [ 42.80012536632222, 42.519209361851445 ], [ 42.800311383335433, 42.519101125711749 ], [ 42.800409721283387, 42.519040827343275 ], [ 42.800503921994341, 42.518980717803636 ], [ 42.800594134967348, 42.518920700015222 ], [ 42.800680477376318, 42.518860696090421 ], [ 42.800763071544502, 42.518800620134989 ], [ 42.800841976268266, 42.518740427358992 ], [ 42.800917266505472, 42.518680063376593 ], [ 42.800989001209523, 42.518619478897129 ], [ 42.801057303585118, 42.518558562826207 ], [ 42.801122138505391, 42.518497345113552 ], [ 42.801183542615334, 42.518435787745865 ], [ 42.801241547441208, 42.518373859815441 ], [ 42.801296184666995, 42.518311525914569 ], [ 42.801347475739533, 42.518248764847108 ], [ 42.801395439861984, 42.518185549970369 ], [ 42.801440096142869, 42.518121857341086 ], [ 42.801486760400884, 42.518048772917474 ], [ 42.801530614342433, 42.517972443969889 ], [ 42.801571751396772, 42.517892705697101 ], [ 42.801610285102527, 42.51780934055251 ], [ 42.801646288446413, 42.51772221125821 ], [ 42.801679964249452, 42.517630845330245 ], [ 42.801711475141275, 42.517534805533998 ], [ 42.801741045859615, 42.517433410883079 ], [ 42.801781589442662, 42.517272545285415 ], [ 42.801819921461416, 42.517092433493943 ], [ 42.801855960025492, 42.516896521154585 ], [ 42.801951867166686, 42.51633284687717 ], [ 42.8019863641493, 42.516159210942831 ], [ 42.802021765867721, 42.516005766859273 ], [ 42.802058030552345, 42.515875338778898 ], [ 42.802106132442105, 42.515727984573459 ], [ 42.802156744654283, 42.515587038031676 ], [ 42.802280182447042, 42.515256976815714 ], [ 42.802335824665484, 42.515098081024838 ], [ 42.802379636062128, 42.514957068727774 ], [ 42.802412486094212, 42.514830183411242 ], [ 42.80242954092077, 42.51474764319422 ], [ 42.802441951400034, 42.514669179712364 ], [ 42.802449805324834, 42.51459423362315 ], [ 42.802453138474775, 42.514522444502767 ], [ 42.802451960907248, 42.514453421715864 ], [ 42.802446259613504, 42.514387050645929 ], [ 42.802436019146931, 42.514323147288529 ], [ 42.802421217459312, 42.514261577041012 ], [ 42.80239716279857, 42.514190790681425 ], [ 42.802365123915436, 42.514120362636703 ], [ 42.802325028474527, 42.51405013482065 ], [ 42.802276763049022, 42.513979906032183 ], [ 42.802220255575172, 42.513909545202502 ], [ 42.802155204626523, 42.513838658408744 ], [ 42.802081293790387, 42.513766897364803 ], [ 42.80199799815324, 42.513693750387667 ], [ 42.801923677065759, 42.513633457689444 ], [ 42.801842162224879, 42.51357132670099 ], [ 42.801752603801113, 42.513506704425467 ], [ 42.801653267444223, 42.513438336444359 ], [ 42.801460159229187, 42.513311946920005 ], [ 42.800960767068524, 42.51299558010124 ], [ 42.800823322792986, 42.512904473632581 ], [ 42.800703436656889, 42.512821087535087 ], [ 42.80057898414978, 42.512728810078976 ], [ 42.800468899754094, 42.512640216877244 ], [ 42.800371301293715, 42.512553789560556 ], [ 42.800285287200225, 42.512468717482967 ], [ 42.800185106095569, 42.512360406225056 ], [ 42.800084105744077, 42.512245307179327 ], [ 42.799981230181018, 42.512122225774839 ], [ 42.799874477125947, 42.511988769570067 ], [ 42.799683339723828, 42.511737944902507 ], [ 42.799232317957994, 42.511126226121263 ], [ 42.799106811149933, 42.510962815750595 ], [ 42.798990176227647, 42.510817110782298 ], [ 42.798731980039364, 42.51050452465909 ], [ 42.798472038283023, 42.510194857229955 ], [ 42.798210363761385, 42.509888124938968 ], [ 42.797946969402624, 42.509584340630504 ], [ 42.797681868070711, 42.509283518948806 ], [ 42.797415069011301, 42.508985673568048 ], [ 42.797146586366011, 42.508690817356076 ], [ 42.7968764294735, 42.508398961287291 ], [ 42.796742515632879, 42.508252475922902 ], [ 42.796427636938731, 42.507899762738006 ], [ 42.796265173769456, 42.507725162455593 ], [ 42.796169299418359, 42.507627524321819 ], [ 42.796077140463055, 42.507538322593838 ], [ 42.795986868778023, 42.507455790391511 ], [ 42.795897532485071, 42.507379063808393 ], [ 42.795819048548232, 42.507315934124883 ], [ 42.795736341716513, 42.507253453455455 ], [ 42.795649231775521, 42.507191485945334 ], [ 42.795557475314574, 42.507129858501585 ], [ 42.795460920427161, 42.507068461026826 ], [ 42.795359039926034, 42.507006952868913 ], [ 42.79525134294078, 42.506945033695409 ], [ 42.795137061143457, 42.506882263652059 ], [ 42.794938635274569, 42.506779000688908 ], [ 42.794712278208408, 42.506667693762999 ], [ 42.794492826066055, 42.506563978407605 ], [ 42.793965011560054, 42.506319086865581 ], [ 42.793701778441751, 42.506192917778563 ], [ 42.793456995842604, 42.506068867628869 ], [ 42.793346310348454, 42.50600965732265 ], [ 42.793241813243938, 42.505951469355566 ], [ 42.792342064848157, 42.505444691208467 ], [ 42.792028048136608, 42.505266281502557 ], [ 42.791681944571415, 42.505065667614438 ], [ 42.791375651345959, 42.504882836637755 ], [ 42.791063217203366, 42.504689230477815 ], [ 42.790776233474368, 42.504503124014811 ], [ 42.790509803777979, 42.50432133508653 ], [ 42.79038349023223, 42.504231509611046 ], [ 42.790261427640061, 42.504142148723552 ], [ 42.790127621757343, 42.504041089333789 ], [ 42.789993360044519, 42.503936434190521 ], [ 42.789858396213639, 42.503827989429318 ], [ 42.789722412973951, 42.50371550398183 ], [ 42.789585199802339, 42.503598805383298 ], [ 42.789446147926668, 42.503477383889418 ], [ 42.789304720256361, 42.503350768057857 ], [ 42.789160134544282, 42.503218260182052 ], [ 42.788884599757523, 42.502957993532974 ], [ 42.788583893755472, 42.50266429897399 ], [ 42.78829107415131, 42.50237143758968 ], [ 42.787641269575076, 42.501714046640089 ], [ 42.787430587698374, 42.501504494089666 ], [ 42.786923246055139, 42.50100745747298 ], [ 42.786694870587212, 42.50078096319605 ], [ 42.786457437427728, 42.500539196080126 ], [ 42.786250677014337, 42.500320301202898 ], [ 42.78614048040729, 42.500199236100613 ], [ 42.786036751884929, 42.500081736819922 ], [ 42.785938832565797, 42.499967057613532 ], [ 42.785846298292853, 42.499854698609454 ], [ 42.785758692929498, 42.499744100781001 ], [ 42.785675881661412, 42.499635083228831 ], [ 42.785597651595744, 42.499527367186793 ], [ 42.785523847241031, 42.499420737133633 ], [ 42.785462036965797, 42.49932708047929 ], [ 42.785401168334857, 42.499230679174431 ], [ 42.785281730477713, 42.49902881027603 ], [ 42.785164353768067, 42.49881315168691 ], [ 42.785046905287025, 42.498579799804446 ], [ 42.784943633303719, 42.498360623380293 ], [ 42.784833423934295, 42.498114095134241 ], [ 42.784420465344319, 42.497147008994425 ], [ 42.78437789813713, 42.497046530495361 ], [ 42.784334038766154, 42.496935989694862 ], [ 42.784240620369822, 42.496680045493157 ], [ 42.78414633626673, 42.496400157415977 ], [ 42.783906657958646, 42.495661172222853 ], [ 42.78383648167474, 42.495458724732579 ], [ 42.783773816416719, 42.495291652095233 ], [ 42.783736369418222, 42.495199788697924 ], [ 42.783700426146645, 42.495118236618524 ], [ 42.783665696980371, 42.495046340973985 ], [ 42.783631991436089, 42.494983706350141 ], [ 42.783599096444775, 42.494929956707196 ], [ 42.78356694348814, 42.49488499886634 ], [ 42.783535428195776, 42.494848686724289 ], [ 42.783504469859025, 42.494820927766582 ], [ 42.783480502120632, 42.494805370249011 ], [ 42.783455360174379, 42.494794495269417 ], [ 42.78342906443357, 42.49478831042623 ], [ 42.783401640175057, 42.494786823411999 ], [ 42.783373109281435, 42.494790034649334 ], [ 42.783343502274107, 42.494797941125817 ], [ 42.783312851017236, 42.494810536252956 ], [ 42.78328119137236, 42.494827803613795 ], [ 42.78324852550913, 42.494849750453589 ], [ 42.783214929282416, 42.49487633051131 ], [ 42.783180447700829, 42.494907509536439 ], [ 42.783145132298031, 42.494943240797305 ], [ 42.783109029775162, 42.494983476568287 ], [ 42.783072205900616, 42.495028146079008 ], [ 42.782996646122641, 42.495130471506172 ], [ 42.78291821766566, 42.495250743830518 ], [ 42.782838317790969, 42.495387024234411 ], [ 42.782757652138756, 42.495538109757256 ], [ 42.782677002371969, 42.495702540460364 ], [ 42.782597131461003, 42.495878765992536 ], [ 42.782518916431975, 42.496064867195045 ], [ 42.78244317976209, 42.496258885132903 ], [ 42.782370709727431, 42.496458796273913 ], [ 42.782304463640266, 42.496655712926248 ], [ 42.782242560450669, 42.4968544480299 ], [ 42.782185539420063, 42.497053276713906 ], [ 42.782133843948202, 42.497250638849941 ], [ 42.782087906702849, 42.49744486513822 ], [ 42.78204796565884, 42.497634905675064 ], [ 42.782014263765724, 42.497819604390322 ], [ 42.781986976266403, 42.497997999316965 ], [ 42.78196636930516, 42.498167934345588 ], [ 42.781952292423661, 42.498330121586875 ], [ 42.781944796536578, 42.498483948770122 ], [ 42.781943905057162, 42.498628927363889 ], [ 42.781949617389486, 42.498764559365412 ], [ 42.781961914738488, 42.498890585958925 ], [ 42.781980769846619, 42.499006712142446 ], [ 42.782006144550209, 42.499112710241342 ], [ 42.782027963936571, 42.499182796672493 ], [ 42.782053645485178, 42.499252862421834 ], [ 42.782083201313611, 42.499322943742555 ], [ 42.782116649524724, 42.499393079704909 ], [ 42.782154004636801, 42.499463307508272 ], [ 42.78219529643706, 42.499533679956187 ], [ 42.782240554776685, 42.499604248051973 ], [ 42.78228981536509, 42.49967506921552 ], [ 42.782343037242981, 42.499746097622406 ], [ 42.782400346842223, 42.499817509516625 ], [ 42.782461803496496, 42.499889382585579 ], [ 42.782527484304957, 42.499961808367914 ], [ 42.782597457274953, 42.500034860215074 ], [ 42.782671857284903, 42.500108682112902 ], [ 42.782750816011799, 42.500183405377065 ], [ 42.782834508890872, 42.500259197289836 ], [ 42.782978424884043, 42.500382852491938 ], [ 42.783136172593331, 42.500510770835213 ], [ 42.783309412823421, 42.500644309077664 ], [ 42.783501544570768, 42.500786089516652 ], [ 42.783675103953009, 42.500909984223249 ], [ 42.783872257291868, 42.501047358556974 ], [ 42.784553978555159, 42.501511950168265 ], [ 42.784813071347884, 42.501690943687578 ], [ 42.785067148541771, 42.501871676717911 ], [ 42.785289519245751, 42.502036523228213 ], [ 42.785406808866966, 42.502126910183868 ], [ 42.78551732013829, 42.502214813802773 ], [ 42.785621689911565, 42.50230073990474 ], [ 42.785720334365131, 42.502385033348709 ], [ 42.78581369984208, 42.502468080998668 ], [ 42.785901925377821, 42.502550011628728 ], [ 42.785985220662056, 42.502631021115974 ], [ 42.786063742151569, 42.502711261982626 ], [ 42.78618692531083, 42.502844345306322 ], [ 42.786310924398414, 42.502986083028574 ], [ 42.786436971529604, 42.503137876763205 ], [ 42.786567366841282, 42.503302488741035 ], [ 42.786682042318972, 42.503452860266925 ], [ 42.786806928476707, 42.503621463824651 ], [ 42.787234155351314, 42.504214538090018 ], [ 42.787404656749317, 42.50444672857418 ], [ 42.787584096415081, 42.504681294124836 ], [ 42.78775165428754, 42.504888180939865 ], [ 42.787850639796211, 42.505004092152454 ], [ 42.787948618958758, 42.505113935901512 ], [ 42.788046237967947, 42.505218437885588 ], [ 42.788143942592157, 42.505318071385439 ], [ 42.78824224182857, 42.505413346021598 ], [ 42.788341306557051, 42.505504419982685 ], [ 42.788441400918167, 42.505591533404115 ], [ 42.788542733858897, 42.505674869522181 ], [ 42.788620682950857, 42.505735678595492 ], [ 42.788702083903658, 42.505796312909709 ], [ 42.788787093274138, 42.505856888946049 ], [ 42.788875916439672, 42.505917553844739 ], [ 42.789065844266638, 42.506039729238225 ], [ 42.789275021067212, 42.506164872929936 ], [ 42.789479273543918, 42.506279991995868 ], [ 42.789710483489152, 42.506404313743616 ], [ 42.789947524570117, 42.506527485888313 ], [ 42.790589108820598, 42.506855532444646 ], [ 42.790779953907254, 42.50695585247739 ], [ 42.790949273866644, 42.507047536174426 ], [ 42.791139076245322, 42.507154478693444 ], [ 42.791312545834558, 42.507257304852679 ], [ 42.791473033791462, 42.507358002863597 ], [ 42.791622186599582, 42.50745761491477 ], [ 42.792363488461042, 42.507961239774005 ], [ 42.792669813440973, 42.508173957209998 ], [ 42.79283126542569, 42.508289788150542 ], [ 42.792979429014743, 42.508399335606704 ], [ 42.793117020581697, 42.508504609709796 ], [ 42.793245370837461, 42.508606634818584 ], [ 42.793377357265619, 42.508716298762465 ], [ 42.79350019899104, 42.508823702584642 ], [ 42.793614543051312, 42.50892941170121 ], [ 42.793720805328221, 42.509033815971257 ], [ 42.793819421989149, 42.509137351568164 ], [ 42.793910522905726, 42.509240165997696 ], [ 42.793994303469958, 42.509342481868728 ], [ 42.794070904866963, 42.509444471215289 ], [ 42.794132479515447, 42.509532933388485 ], [ 42.794192092722589, 42.509623839611301 ], [ 42.794249689078079, 42.509717104170107 ], [ 42.794305208621729, 42.509812632258459 ], [ 42.794358597410586, 42.509910330986784 ], [ 42.794409794867384, 42.510010088426725 ], [ 42.794458744030962, 42.51011179362002 ], [ 42.794505385822994, 42.510215326562346 ], [ 42.794549689673374, 42.510320621829862 ], [ 42.794591572052767, 42.510427493208908 ], [ 42.794630982995358, 42.510535803760384 ], [ 42.794667869075148, 42.510645411075444 ], [ 42.794702181635635, 42.510756175538411 ], [ 42.794733872747365, 42.510867936835503 ], [ 42.794762896691175, 42.510980540998958 ], [ 42.79478921414541, 42.511093825178854 ], [ 42.794812829025609, 42.511207850688166 ], [ 42.794833651599596, 42.511322226773324 ], [ 42.794851652527896, 42.511436783571824 ], [ 42.794866804934998, 42.511551350367945 ], [ 42.794879084441135, 42.511665754692729 ], [ 42.79488847274812, 42.511779824194114 ], [ 42.794894957607937, 42.51189338753683 ], [ 42.794898526709275, 42.512006275185257 ], [ 42.79489917704683, 42.512118295269474 ], [ 42.794896907429006, 42.512229308184921 ], [ 42.794891721136572, 42.512339150999125 ], [ 42.794883627247806, 42.512447668995819 ], [ 42.794872634999813, 42.512554702958923 ], [ 42.794858761543644, 42.512660110934519 ], [ 42.794842025215821, 42.512763751891832 ], [ 42.794822446628181, 42.512865489346318 ], [ 42.794791979822001, 42.512989551970911 ], [ 42.794752010153012, 42.513114857172752 ], [ 42.794702453580435, 42.513241681586493 ], [ 42.794643167288839, 42.513370380859456 ], [ 42.794574067660363, 42.513501184801726 ], [ 42.79449478832683, 42.513634817568892 ], [ 42.794404948540311, 42.513771927391687 ], [ 42.794303907679812, 42.513913490687642 ], [ 42.794214404556108, 42.514030801548166 ], [ 42.79411639033961, 42.514152777059479 ], [ 42.794008842544109, 42.514280695166995 ], [ 42.793889668522105, 42.514417049622438 ], [ 42.793660079501841, 42.514669246261874 ], [ 42.793084084483901, 42.5152854464245 ], [ 42.792930366577565, 42.515455580345346 ], [ 42.792795910565971, 42.515609860423808 ], [ 42.792658653614332, 42.515775045771427 ], [ 42.792536380871738, 42.515931442405972 ], [ 42.792427054098994, 42.516081662245277 ], [ 42.792329670059992, 42.516227097116818 ], [ 42.792248218808432, 42.516356798810385 ], [ 42.792165397519121, 42.516493212674433 ], [ 42.791991300541454, 42.516793389223579 ], [ 42.79183236774837, 42.517079892454376 ], [ 42.791471901526556, 42.517743528878235 ], [ 42.791295934033442, 42.518057172513302 ], [ 42.791135456842156, 42.518329140145227 ], [ 42.790981527390677, 42.518574441358076 ], [ 42.790857057865615, 42.518762354467484 ], [ 42.790723000018616, 42.518957274101915 ], [ 42.790577961097284, 42.519161237367882 ], [ 42.790419110155916, 42.519378228472156 ], [ 42.790118311927152, 42.519776632137074 ], [ 42.789386759890277, 42.520726031980637 ], [ 42.789195512025863, 42.520980378441337 ], [ 42.78902627170698, 42.521211253016418 ], [ 42.788773514753089, 42.521564882197161 ], [ 42.788495618928096, 42.521960927373357 ], [ 42.787631065749643, 42.523214198123796 ], [ 42.787338072135718, 42.523635661424848 ], [ 42.787072725978426, 42.52401151066222 ], [ 42.786827451559731, 42.524352177232423 ], [ 42.786745386945604, 42.524468958395296 ], [ 42.786657175332913, 42.524602487550681 ], [ 42.7863894590934, 42.525031549068281 ], [ 42.786298526236443, 42.525173655971635 ], [ 42.786215762525998, 42.525296691775551 ], [ 42.7861373897655, 42.525406117200895 ], [ 42.786083287442409, 42.525477168436282 ], [ 42.786029606400241, 42.525543872849475 ], [ 42.785975960780547, 42.525606711067425 ], [ 42.785922090342233, 42.525665985138943 ], [ 42.785867692586336, 42.525722021510141 ], [ 42.785812671844589, 42.525774909284088 ], [ 42.7857568743526, 42.52582479677573 ], [ 42.785700178192002, 42.525871792391662 ], [ 42.785649187847731, 42.52591083948753 ], [ 42.785595939702603, 42.525948489422653 ], [ 42.785540407475487, 42.525984762397883 ], [ 42.785482560050724, 42.526019677619885 ], [ 42.78542236880967, 42.526053252542347 ], [ 42.785359788999514, 42.526085513312061 ], [ 42.785294778523436, 42.526116479823244 ], [ 42.78522728651383, 42.526146179004499 ], [ 42.785157356158351, 42.52617459457656 ], [ 42.78508482787128, 42.526201798192616 ], [ 42.785009627700859, 42.526227815433444 ], [ 42.784931664376103, 42.526252679649268 ], [ 42.784767075235699, 42.526299066041162 ], [ 42.784589940168182, 42.526341273348251 ], [ 42.784433945150013, 42.52637308118932 ], [ 42.784267151073983, 42.526402578094917 ], [ 42.784087846292863, 42.526430070402739 ], [ 42.783892659445698, 42.526456079068545 ], [ 42.783714578827421, 42.526477073775688 ], [ 42.783514325047541, 42.526498420796841 ], [ 42.78279915660022, 42.526567197289602 ], [ 42.782514091767027, 42.526596682341385 ], [ 42.782225528804254, 42.526631087856956 ], [ 42.781970119369376, 42.526667404378813 ], [ 42.781827972245551, 42.526690787649066 ], [ 42.78169294649684, 42.526715569393602 ], [ 42.781564194146043, 42.526741904313887 ], [ 42.781441159650804, 42.526769905943233 ], [ 42.781323246235118, 42.526799717630823 ], [ 42.781210270670435, 42.526831390775122 ], [ 42.781101951312785, 42.52686500548463 ], [ 42.78099807403936, 42.526900626064219 ], [ 42.780834433235519, 42.526957267713442 ], [ 42.780344749697583, 42.527119870578311 ], [ 42.780200940499597, 42.527171259237015 ], [ 42.780079289143735, 42.527218395325377 ], [ 42.779955216326542, 42.52727225809479 ], [ 42.779901721069642, 42.527298299111322 ], [ 42.779853598334242, 42.527323900320127 ], [ 42.77981063830331, 42.527349176530286 ], [ 42.779772789825017, 42.527374162777143 ], [ 42.779739970565508, 42.52739891510339 ], [ 42.779712124314393, 42.527423473847946 ], [ 42.779684487593478, 42.527453698243129 ], [ 42.779662991731605, 42.527485130402219 ], [ 42.779647631519154, 42.527517780133486 ], [ 42.779638402900119, 42.527551659067576 ], [ 42.779635300730135, 42.527586775211013 ], [ 42.779638324381466, 42.527623146562611 ], [ 42.779647473354729, 42.52766078752061 ], [ 42.779662754259981, 42.527699718023264 ], [ 42.779684148440069, 42.527739915193322 ], [ 42.779711681563853, 42.527781445263265 ], [ 42.779745373372258, 42.527824335627024 ], [ 42.779785250588262, 42.527868622818154 ], [ 42.779831337853324, 42.527914333423062 ], [ 42.779883692665173, 42.527961528883822 ], [ 42.779942377644616, 42.528010263536522 ], [ 42.780007479077796, 42.528060611085721 ], [ 42.780130752390527, 42.528148480688756 ], [ 42.780273017735134, 42.528241652181237 ], [ 42.780435416116809, 42.528340879728795 ], [ 42.780620482401993, 42.528447714436069 ], [ 42.780796003568895, 42.528544830963774 ], [ 42.780997190018233, 42.528652760838931 ], [ 42.781658882762706, 42.52899781625689 ], [ 42.781879211071221, 42.52911453520511 ], [ 42.782084945552768, 42.529227713049551 ], [ 42.78225133326692, 42.529324940464164 ], [ 42.782367617025805, 42.529394278224196 ], [ 42.7824866148326, 42.52946262110023 ], [ 42.782608385163137, 42.52953000263475 ], [ 42.782732996099853, 42.529596460157812 ], [ 42.782860508584427, 42.529662026358153 ], [ 42.782991017053639, 42.529726750781762 ], [ 42.783124610084123, 42.529790676556857 ], [ 42.783261395402064, 42.529853856186854 ], [ 42.783401273426286, 42.529916248110219 ], [ 42.783544584392438, 42.529978009286921 ], [ 42.783842137315396, 42.530099908229118 ], [ 42.784155491937334, 42.530220144443817 ], [ 42.784486888626823, 42.530339578811528 ], [ 42.7847655004418, 42.530434772262147 ], [ 42.78505981025279, 42.530530953894463 ], [ 42.785372904193551, 42.530629136011576 ], [ 42.785710929817959, 42.530731249157135 ], [ 42.786007939707211, 42.530818359144895 ], [ 42.786340373766592, 42.530913720989666 ], [ 42.787444458947483, 42.531223922716997 ], [ 42.787851408846514, 42.531339608945437 ], [ 42.788249023008703, 42.531455457461419 ], [ 42.788605637227228, 42.531562872094405 ], [ 42.788969549429154, 42.531677055252537 ], [ 42.789308377853608, 42.53178859367636 ], [ 42.789627483084352, 42.531899255203214 ], [ 42.789929713208195, 42.532010033297603 ], [ 42.790415202829415, 42.532189376398712 ], [ 42.790961650630173, 42.532383944875953 ], [ 42.791496002417297, 42.532569293894902 ], [ 42.792838790214397, 42.533029405853803 ], [ 42.793216427708302, 42.533161012114405 ], [ 42.793554946786337, 42.533281085213844 ], [ 42.793923335485204, 42.533414776703381 ], [ 42.794265950390979, 42.533542681004626 ], [ 42.794588879567151, 42.533667075027154 ], [ 42.79489525820135, 42.533789170164688 ], [ 42.795265952773974, 42.53394313921504 ], [ 42.795616891536824, 42.53409628830665 ], [ 42.795950500247429, 42.534249679189017 ], [ 42.796268340065602, 42.534404030950526 ], [ 42.796421973143026, 42.53448187699081 ], [ 42.796572098265422, 42.53456018214942 ], [ 42.796718831396355, 42.53463900720481 ], [ 42.796862269316094, 42.534718404460847 ], [ 42.797002515916809, 42.534798431760592 ], [ 42.797139638034551, 42.534879127322561 ], [ 42.797273707246617, 42.534960533058083 ], [ 42.797404786676317, 42.535042688914181 ], [ 42.797761693670012, 42.535271623560959 ], [ 42.798069392657709, 42.535472710675172 ], [ 42.798350425924298, 42.535660692380851 ], [ 42.798610135709332, 42.535839185393385 ], [ 42.798855795731114, 42.536013293326917 ], [ 42.799085921526256, 42.536182079118653 ], [ 42.799302069063692, 42.536346687606141 ], [ 42.799505137077482, 42.536507805223792 ], [ 42.799699333764352, 42.536668967290097 ], [ 42.799881181434067, 42.536827501833635 ], [ 42.800051077015212, 42.536983753332748 ], [ 42.80020928928019, 42.537137971044373 ], [ 42.800356097012902, 42.537290431428204 ], [ 42.80049159264734, 42.537441238962721 ], [ 42.800615907387908, 42.537590538490001 ], [ 42.80072913691626, 42.537738446249996 ], [ 42.800812335307967, 42.5378580348562 ], [ 42.800889187896232, 42.537980659702498 ], [ 42.800959731382612, 42.538106384542772 ], [ 42.801024007177084, 42.538235277722649 ], [ 42.80108204707949, 42.538367403800144 ], [ 42.801133896259067, 42.538502862709187 ], [ 42.801179592740326, 42.53864174974283 ], [ 42.801219170263913, 42.538784178121311 ], [ 42.80125261913502, 42.538930041402715 ], [ 42.801280037449871, 42.539079700784121 ], [ 42.801301453619715, 42.539233317108092 ], [ 42.801316896133692, 42.539391083636531 ], [ 42.801326382510211, 42.539553159199897 ], [ 42.801329935531854, 42.53971986482297 ], [ 42.801327562948501, 42.539891498727933 ], [ 42.80131925717906, 42.540068448894019 ], [ 42.80130847550771, 42.540212446391955 ], [ 42.801293950322929, 42.54036033162744 ], [ 42.801275648348785, 42.54051242724794 ], [ 42.801253521848075, 42.540669155580922 ], [ 42.801227536969712, 42.540830786130961 ], [ 42.801197559055169, 42.540998205126719 ], [ 42.801163442770729, 42.541172221146141 ], [ 42.801124948573168, 42.541354071408165 ], [ 42.80105352034667, 42.541664825181748 ], [ 42.800966944584751, 42.54201310735931 ], [ 42.80087956075905, 42.54234733207403 ], [ 42.800664404183301, 42.543152033836016 ], [ 42.800559389784731, 42.543561141302021 ], [ 42.800466444744337, 42.543951876508757 ], [ 42.800427090668137, 42.544131498249357 ], [ 42.800391889405432, 42.544303276019598 ], [ 42.800359396221488, 42.544475023833513 ], [ 42.800330931185172, 42.544640641687408 ], [ 42.800306358524736, 42.544800910432407 ], [ 42.800285595679831, 42.544956378705479 ], [ 42.800268566961954, 42.545107642102295 ], [ 42.80025525242489, 42.545254922671013 ], [ 42.800245624091453, 42.545398532357424 ], [ 42.800239664967307, 42.545538713077065 ], [ 42.800225488516929, 42.545897643180474 ], [ 42.800202922262436, 42.546298549392013 ], [ 42.800176781927817, 42.54668341615853 ], [ 42.800108467773519, 42.547615600313222 ], [ 42.800078097290047, 42.548095215258463 ], [ 42.80006590425068, 42.548334952312338 ], [ 42.800056894524509, 42.548559961218047 ], [ 42.800050919973778, 42.548773974499845 ], [ 42.800047928024853, 42.548978975000502 ], [ 42.800048506808658, 42.549237954754048 ], [ 42.800054233621509, 42.549486295549265 ], [ 42.800065151576327, 42.549725753332922 ], [ 42.800081311893557, 42.549957471851265 ], [ 42.800102817668005, 42.550182712913909 ], [ 42.800129715250428, 42.550401857429307 ], [ 42.800162080942613, 42.550615508408789 ], [ 42.800199985181415, 42.550824123765985 ], [ 42.800230776088341, 42.550965364998397 ], [ 42.800267865086106, 42.551108897437501 ], [ 42.800311330450285, 42.551255025155925 ], [ 42.80036128983479, 42.551404144834642 ], [ 42.800417817143455, 42.551556511831635 ], [ 42.800481204059395, 42.551712943109003 ], [ 42.800551748833918, 42.551874172905045 ], [ 42.800629937250001, 42.552041318176791 ], [ 42.800698874967431, 42.552181120613618 ], [ 42.800773784161848, 42.552326869447917 ], [ 42.800855431829902, 42.552480067056976 ], [ 42.800945385690383, 42.552643658515734 ], [ 42.801118047886163, 42.552947461441789 ], [ 42.801547622047792, 42.553687183690627 ], [ 42.801662189922617, 42.55389002439491 ], [ 42.801762618191525, 42.554073171148978 ], [ 42.801866116805655, 42.554269490136456 ], [ 42.801958717828782, 42.55445423710713 ], [ 42.802041999752767, 42.554630567190266 ], [ 42.802116747800397, 42.554800154235771 ], [ 42.802190850732529, 42.554983201556297 ], [ 42.802255526075236, 42.555160708019251 ], [ 42.802311130468745, 42.555333649445295 ], [ 42.802357877713867, 42.555502699037667 ], [ 42.802395960801761, 42.555668602540003 ], [ 42.802425427675615, 42.555831622932615 ], [ 42.802446348828191, 42.55599214429639 ], [ 42.802458761207795, 42.556150465417424 ], [ 42.80245974489894, 42.556224423418058 ], [ 42.802455228541959, 42.556302837031474 ], [ 42.802445174953903, 42.55638641785589 ], [ 42.802429423266297, 42.556476520789481 ], [ 42.802410468841174, 42.556563269060696 ], [ 42.802386027317702, 42.556660173487103 ], [ 42.802283806586487, 42.557019529230281 ], [ 42.802245905689261, 42.557166059740979 ], [ 42.802228770811325, 42.557244266319962 ], [ 42.802215646836785, 42.557316510963702 ], [ 42.802206277956685, 42.557384216992098 ], [ 42.802200568497817, 42.55744809758437 ], [ 42.802198509713911, 42.557523736996835 ], [ 42.802202130926673, 42.557594899047032 ], [ 42.802211457967672, 42.557662097527519 ], [ 42.802226537687588, 42.557725663827419 ], [ 42.802247468583069, 42.557785950137479 ], [ 42.802274303092574, 42.557843059219756 ], [ 42.802307115913379, 42.557897153696786 ], [ 42.802345981946033, 42.557948355670661 ], [ 42.802405022265134, 42.558013502072733 ], [ 42.802473442280252, 42.558079891025571 ], [ 42.802550372896285, 42.558146672855656 ], [ 42.802634593115975, 42.558212785819549 ], [ 42.802724942308892, 42.55827728730231 ], [ 42.802819317084612, 42.558338642973759 ], [ 42.802915691663223, 42.558395536123896 ], [ 42.80301188579655, 42.558446677704111 ], [ 42.803093137225822, 42.558483669057566 ], [ 42.80317934860966, 42.558515565784127 ], [ 42.803270712301064, 42.558542440001474 ], [ 42.803367486353224, 42.558564365986648 ], [ 42.803469832129373, 42.558581396349162 ], [ 42.803578319637751, 42.558593636559905 ], [ 42.8036934813844, 42.558601149943527 ], [ 42.803816158352241, 42.558603991328106 ], [ 42.803919307751258, 42.558602947025776 ], [ 42.804028766969857, 42.558598985250903 ], [ 42.804145696997246, 42.558592067008483 ], [ 42.804272443819421, 42.558582055345283 ], [ 42.804507458997669, 42.558558619214374 ], [ 42.805056261779164, 42.558496412687326 ], [ 42.805192613494107, 42.558482913547607 ], [ 42.80531510375237, 42.558472558007878 ], [ 42.805430064351299, 42.558464857783001 ], [ 42.805537552033513, 42.558459862611095 ], [ 42.80563902110061, 42.558457506722199 ], [ 42.805735279762288, 42.558457773197475 ], [ 42.806764281918014, 42.55847672152035 ], [ 42.807665168494339, 42.558497049976133 ], [ 42.808496498291049, 42.558520090098291 ], [ 42.809275616217754, 42.558546356171078 ], [ 42.8100247572876, 42.558576694057294 ], [ 42.810741469466286, 42.558611106104919 ], [ 42.811431495030348, 42.55864987014705 ], [ 42.812098437402689, 42.558693190580108 ], [ 42.812757996235852, 42.558742271747683 ], [ 42.813398903721605, 42.558796463709342 ], [ 42.814023073990654, 42.558855930285198 ], [ 42.814631927615522, 42.558920806917385 ], [ 42.81522700695885, 42.558991264653706 ], [ 42.815519573980623, 42.559028611003342 ], [ 42.815808977944407, 42.559067387549852 ], [ 42.816095329167084, 42.559107609928638 ], [ 42.816378712527879, 42.559149289686559 ], [ 42.816659212843248, 42.55919244016939 ], [ 42.816936910091904, 42.559237073728987 ], [ 42.81748272112393, 42.559330162632996 ], [ 42.818044104653488, 42.559432733631894 ], [ 42.81862353644884, 42.559545235282734 ], [ 42.819224806466792, 42.559668402258815 ], [ 42.819847592459439, 42.559802091203458 ], [ 42.820504690799773, 42.559948977582515 ], [ 42.821206710693971, 42.560111412173242 ], [ 42.821981618390261, 42.560295856809006 ], [ 42.822308545634456, 42.560376034990981 ], [ 42.822640928045303, 42.560460430432322 ], [ 42.822979476968278, 42.560549222302761 ], [ 42.823325119567237, 42.560642654199192 ], [ 42.823678446259564, 42.560740880459385 ], [ 42.824041363618072, 42.560844425317171 ], [ 42.824415590682428, 42.560953776999142 ], [ 42.824803733550034, 42.561069698102465 ], [ 42.825465843083975, 42.561272503402385 ], [ 42.826200903384802, 42.561503569161189 ], [ 42.826905296336705, 42.561728964900972 ], [ 42.828617059604426, 42.562281165570162 ], [ 42.829507317797905, 42.562563916523779 ], [ 42.829958175020806, 42.562704301553161 ], [ 42.830382531427297, 42.562834140182773 ], [ 42.830787568532266, 42.562955628215896 ], [ 42.831177097230125, 42.563069906940733 ], [ 42.831396402028858, 42.563135186965688 ], [ 42.831620319499301, 42.563205210499881 ], [ 42.831849335333118, 42.563280130794155 ], [ 42.83208408924861, 42.563360156240606 ], [ 42.832324984917705, 42.563445416914924 ], [ 42.832573347645713, 42.563536375512285 ], [ 42.832830376894371, 42.563633470721314 ], [ 42.833097905370742, 42.563737394538698 ], [ 42.833552504748589, 42.563919683502171 ], [ 42.834059544781283, 42.564129607932507 ], [ 42.834543971602436, 42.564334542335729 ], [ 42.835703797783438, 42.564830024464435 ], [ 42.836291585179119, 42.565076759021274 ], [ 42.836580526526653, 42.56519540744371 ], [ 42.836852386932541, 42.565304923629562 ], [ 42.837111516866877, 42.565407060325072 ], [ 42.837360253946692, 42.565502735262534 ], [ 42.837605785596992, 42.565594630885762 ], [ 42.837843717803743, 42.56568101180698 ], [ 42.838075133248097, 42.565762273127397 ], [ 42.838300802222079, 42.565838684272727 ], [ 42.838521567671812, 42.565910527739639 ], [ 42.838737748957172, 42.565977902336627 ], [ 42.838949794374891, 42.566040948024444 ], [ 42.839158057166451, 42.566099770547929 ], [ 42.839446545474082, 42.566175869740349 ], [ 42.839728826999732, 42.56624390042716 ], [ 42.840005522700878, 42.566304010343657 ], [ 42.840277117306165, 42.56635630592703 ], [ 42.84054413728731, 42.566400884490335 ], [ 42.840806844328739, 42.566437785218589 ], [ 42.841065561993176, 42.566467054763841 ], [ 42.841193509272152, 42.566478837322848 ], [ 42.841320557185263, 42.566488722497589 ], [ 42.841446929424848, 42.566496723512046 ], [ 42.841572455936586, 42.566502825456894 ], [ 42.841697164679545, 42.566507029762299 ], [ 42.841821078805097, 42.566509335966622 ], [ 42.841944223806671, 42.566509746353759 ], [ 42.842066620400992, 42.566508260416001 ], [ 42.842188289336015, 42.56650487674554 ], [ 42.84230925004919, 42.566499596611379 ], [ 42.842429533090517, 42.566492416989121 ], [ 42.842549144567549, 42.56648333709537 ], [ 42.842668101514171, 42.566472357253069 ], [ 42.842786418653517, 42.566459474139407 ], [ 42.842904115485631, 42.56644468722309 ], [ 42.843021203050384, 42.56642799401228 ], [ 42.843137697226588, 42.566409393006822 ], [ 42.843253610271724, 42.566388881737694 ], [ 42.843508600429544, 42.566340355989738 ], [ 42.843771848667529, 42.566288014737687 ], [ 42.844029367079536, 42.566234645586448 ], [ 42.844275329463855, 42.566181465384425 ], [ 42.844502890496152, 42.566129994234906 ], [ 42.844712868834762, 42.566080092763663 ], [ 42.84490367756009, 42.566032138243855 ], [ 42.845074414682095, 42.565986358742926 ], [ 42.845221593441529, 42.565943785589056 ], [ 42.845348437739503, 42.56590359520996 ], [ 42.845454644692147, 42.56586588193376 ], [ 42.845540029249342, 42.565830714379047 ], [ 42.845604433172305, 42.565798160757403 ], [ 42.845628756823857, 42.565782870850683 ], [ 42.845647816674393, 42.565768245570673 ], [ 42.845661610169302, 42.565754288474096 ], [ 42.845670132318702, 42.565741003071082 ], [ 42.845673381784849, 42.565728392939747 ], [ 42.845671358540024, 42.565716458980575 ], [ 42.845666478687555, 42.565707987830017 ], [ 42.845658686337543, 42.56569961318376 ], [ 42.845634346662123, 42.565683130559599 ], [ 42.845598284758971, 42.565666974049797 ], [ 42.84555039504977, 42.565651096631207 ], [ 42.845490617661994, 42.565635468345988 ], [ 42.845418631673155, 42.565619998489261 ], [ 42.845334076738055, 42.565604609117763 ], [ 42.845236325818192, 42.565589183946244 ], [ 42.845052641338718, 42.565564376675312 ], [ 42.84482545684596, 42.565538021154524 ], [ 42.844048148002244, 42.56545899461937 ], [ 42.843797240029289, 42.56543200948574 ], [ 42.843594556628076, 42.56540759864064 ], [ 42.843426569758293, 42.565384153232564 ] ] ] ] } }
]
}
