{
"type": "FeatureCollection",
"name": "ტიბაანი",
"crs": { "type": "name", "properties": { "name": "urn:ogc:def:crs:OGC:1.3:CRS84" } },
"features": [
{ "type": "Feature", "properties": { "OBJECTID": 15, "NAME_GEO": "ტიბაანი", "NAME_ENG": "Tibaani", "Location": "Kakheti", "MoreInfo": "https://www.sakpatenti.gov.ge/media/django-summernote/2025-11-19/2762ff84-871f-4d84-ac6a-8ca2a5afe8ef.pdf" }, "geometry": { "type": "MultiPolygon", "coordinates": [ [ [ [ 45.991202601552217, 41.583040903709865 ], [ 45.991677466478045, 41.585709044257477 ], [ 45.993057683154198, 41.588052129185797 ], [ 45.993161895479965, 41.588154056405699 ], [ 45.993516798485459, 41.58851049053613 ], [ 45.993804387881319, 41.588800963323841 ], [ 45.993928855856524, 41.588931054826972 ], [ 45.994044276694105, 41.589055031101942 ], [ 45.994152983363108, 41.589175440841402 ], [ 45.994254786223358, 41.589292126278274 ], [ 45.994350301968758, 41.589405795463612 ], [ 45.994439910626006, 41.589516900887851 ], [ 45.994525119400052, 41.589627418305156 ], [ 45.99460477692493, 41.589735969684732 ], [ 45.994679063269814, 41.589842798474784 ], [ 45.994748101157143, 41.589948085568437 ], [ 45.994812021999451, 41.590052030697542 ], [ 45.994870872639879, 41.59015471723189 ], [ 45.994924718387352, 41.590256259004995 ], [ 45.994973606198137, 41.590356746589819 ], [ 45.995017438529494, 41.590457017601061 ], [ 45.995057359130477, 41.590560611861903 ], [ 45.995093451600845, 41.590667739419921 ], [ 45.995125809030355, 41.590778681396486 ], [ 45.995154494154342, 41.590893617394414 ], [ 45.995179664788694, 41.591013136919017 ], [ 45.995201434843672, 41.591137783017935 ], [ 45.995219950248178, 41.591268386689848 ], [ 45.995232697248809, 41.591379553331493 ], [ 45.995243505667716, 41.591496282452148 ], [ 45.99525981661651, 41.591752283766418 ], [ 45.995268864153111, 41.592001108005547 ], [ 45.995283352931892, 41.592610996879394 ], [ 45.995290111309409, 41.592778117276367 ], [ 45.9952988012326, 41.592927728170778 ], [ 45.995304715740751, 41.593034446750437 ], [ 45.995308207434825, 41.593146061870925 ], [ 45.995308055626325, 41.59338937766082 ], [ 45.995300402125999, 41.593631270408245 ], [ 45.995271405596725, 41.594260540658837 ], [ 45.995267121213416, 41.594444644102332 ], [ 45.995267324021, 41.59460967209867 ], [ 45.995273673840352, 41.594795245304404 ], [ 45.995286911133981, 41.594968020976026 ], [ 45.995307295284796, 41.595131289877152 ], [ 45.995335044070039, 41.595286728149432 ], [ 45.99538456511786, 41.59552097772368 ], [ 45.995427172729698, 41.595710870220351 ], [ 45.9954689229303, 41.595883366523907 ], [ 45.995510857708595, 41.596042482904252 ], [ 45.995554925093735, 41.596195130783848 ], [ 45.995600711508402, 41.596339383512607 ], [ 45.995648640571879, 41.596476572278199 ], [ 45.995698979578954, 41.596607459469368 ], [ 45.995753458632223, 41.596736015756342 ], [ 45.995810920542866, 41.596859008587501 ], [ 45.995871532844433, 41.596976798594369 ], [ 45.995935426630986, 41.597089639538545 ], [ 45.99600276205431, 41.597197802042842 ], [ 45.996073604240657, 41.597301385516388 ], [ 45.996148048905155, 41.597400527833472 ], [ 45.996226173226106, 41.597495331900525 ], [ 45.996323247252448, 41.597604121893831 ], [ 45.996424829908555, 41.59771081819553 ], [ 45.996530278497666, 41.597814748127632 ], [ 45.996638998448503, 41.59791532596612 ], [ 45.996750324020681, 41.598011942286796 ], [ 45.996863813895082, 41.598104224410889 ], [ 45.996978971030416, 41.598191765917427 ], [ 45.997095357104882, 41.598274233736561 ], [ 45.997164497100563, 41.598320056807751 ], [ 45.997236871199441, 41.598365268119544 ], [ 45.997312596935217, 41.598409941405414 ], [ 45.997391831725857, 41.598454168967166 ], [ 45.997474682169489, 41.598498015624692 ], [ 45.997561471303193, 41.598541653305446 ], [ 45.997748200656595, 41.598628967450118 ], [ 45.997941134024778, 41.598711830149945 ], [ 45.99815953799208, 41.598799217230606 ], [ 45.998391727255253, 41.598887288509275 ], [ 45.998821659520104, 41.599045684952237 ], [ 45.999000144193843, 41.599110631912112 ], [ 45.999179682808219, 41.599173558139888 ], [ 45.999360048524373, 41.599234383637771 ], [ 45.999541022997342, 41.59929303464051 ], [ 45.999722379495864, 41.599349438357862 ], [ 45.999903932316236, 41.599403536956316 ], [ 46.000085487341018, 41.599455271775959 ], [ 46.000266858975245, 41.599504592190435 ], [ 46.000447751982456, 41.599551418805142 ], [ 46.000628119381652, 41.599595741222821 ], [ 46.000807798552046, 41.599637520329736 ], [ 46.000986640139516, 41.59967672140116 ], [ 46.001164487604541, 41.59971331067657 ], [ 46.00134121692701, 41.599747262219616 ], [ 46.001516699301256, 41.59977855103697 ], [ 46.001690815603368, 41.599807157456048 ], [ 46.001880472499366, 41.599834040215846 ], [ 46.002074852508962, 41.599855797866645 ], [ 46.002274364288823, 41.59987247636095 ], [ 46.00247954367309, 41.599884120538675 ], [ 46.002690736688677, 41.599890761578649 ], [ 46.002909043127893, 41.599892442995191 ], [ 46.003135459053659, 41.599889174070441 ], [ 46.003371494848771, 41.599880934368038 ], [ 46.00357394169135, 41.599870400565997 ], [ 46.00378588012412, 41.599856379735058 ], [ 46.004009460674801, 41.599838732345205 ], [ 46.004248868482001, 41.599817130837963 ], [ 46.004702233712685, 41.599770605354841 ], [ 46.005531153761957, 41.599677739666667 ], [ 46.005856019178047, 41.599642699847337 ], [ 46.006186576124392, 41.599610008794237 ], [ 46.006483732580293, 41.599584386188809 ], [ 46.00681196111907, 41.599561584637904 ], [ 46.00711869884131, 41.599546772403393 ], [ 46.007265909029186, 41.59954226979773 ], [ 46.007409502396897, 41.599539687493923 ], [ 46.007549848479954, 41.599539021365985 ], [ 46.007687230428118, 41.599540268043079 ], [ 46.00790955534837, 41.599545864273487 ], [ 46.008157095259051, 41.599555949675967 ], [ 46.008989387151281, 41.599601929336622 ], [ 46.009303822370065, 41.599616540257138 ], [ 46.0094658756881, 41.599621948363747 ], [ 46.009617776934064, 41.599625248563711 ], [ 46.009762206522126, 41.599626500218925 ], [ 46.009900566119974, 41.59962571176041 ], [ 46.010170439984769, 41.599619238773371 ], [ 46.010452064807922, 41.599606832451677 ], [ 46.010748222587779, 41.599588376376303 ], [ 46.011064297062148, 41.599563539360339 ], [ 46.011358194491137, 41.599536600665665 ], [ 46.011686118366711, 41.599503257645281 ], [ 46.012961122198583, 41.599362845209455 ], [ 46.013307234360127, 41.599325203026353 ], [ 46.013668131246497, 41.599283454589539 ], [ 46.014047415731049, 41.599237186076806 ], [ 46.014452060487841, 41.599185547652269 ], [ 46.015244663034807, 41.599079377600226 ], [ 46.016889946361317, 41.598851530653405 ], [ 46.017317243345069, 41.598795208831959 ], [ 46.017795253830236, 41.598736211677206 ], [ 46.019359939879209, 41.59855509639047 ], [ 46.019924537921511, 41.598487426916812 ], [ 46.020467240722169, 41.598417698152801 ], [ 46.020955719484242, 41.598349169879491 ], [ 46.021258691146869, 41.598303158087035 ], [ 46.021548644073086, 41.59825614159886 ], [ 46.021827635698848, 41.598207786976189 ], [ 46.022097003884674, 41.59815786172927 ], [ 46.022358221317923, 41.598106085317021 ], [ 46.022611726872597, 41.598052362919042 ], [ 46.022858223771188, 41.597996546917386 ], [ 46.023098240452299, 41.597938515561516 ], [ 46.023563257271171, 41.59782006035411 ], [ 46.024005952786332, 41.597702524469753 ], [ 46.024429960827085, 41.597584942645703 ], [ 46.024837368566388, 41.597466734437063 ], [ 46.025230518139608, 41.597347206300036 ], [ 46.025609822548375, 41.597226217787778 ], [ 46.025976214251742, 41.597103470685731 ], [ 46.026330347356357, 41.59697874490783 ], [ 46.026674388133216, 41.596851233097027 ], [ 46.027007042771459, 41.596721368435794 ], [ 46.027328680979622, 41.596589006306992 ], [ 46.027639581726348, 41.596454030819302 ], [ 46.027940045344629, 41.596316311472883 ], [ 46.028230209989133, 41.596175781361609 ], [ 46.028510247149498, 41.596032357064082 ], [ 46.02878029733693, 41.595885968942433 ], [ 46.028922165870327, 41.595805506789247 ], [ 46.029065062947396, 41.595721834120191 ], [ 46.029209178779951, 41.595634841142818 ], [ 46.02935474746598, 41.595544386145889 ], [ 46.029501946072536, 41.595450363055377 ], [ 46.029651191471309, 41.595352504222305 ], [ 46.029957480262638, 41.595144193497354 ], [ 46.030269465998771, 41.594922649864635 ], [ 46.03060263365429, 41.594677224037426 ], [ 46.030965331385083, 41.594401968315196 ], [ 46.031417839159893, 41.594051148327004 ], [ 46.031654519776957, 41.593864364913287 ], [ 46.031889309419327, 41.593674803070428 ], [ 46.03212210976406, 41.59348254295525 ], [ 46.032352818949384, 41.593287668359963 ], [ 46.032581339886406, 41.593090261233151 ], [ 46.032807567235054, 41.59289041260535 ], [ 46.033031399242965, 41.592688212574778 ], [ 46.033252730619239, 41.592483754875012 ], [ 46.033471480981454, 41.592277115002062 ], [ 46.033687523824554, 41.592068410299987 ], [ 46.033900755181719, 41.591857741697964 ], [ 46.0341110723176, 41.59164521191618 ], [ 46.034318372485757, 41.591430922774691 ], [ 46.034522550658593, 41.591214983320349 ], [ 46.034723505410646, 41.590997502568086 ], [ 46.034921132934777, 41.590778590455415 ], [ 46.035075072130134, 41.590602541800386 ], [ 46.035227791946262, 41.590420813208851 ], [ 46.035379622013593, 41.590233011707518 ], [ 46.035530981153819, 41.590038620120175 ], [ 46.035682137610038, 41.589837309072564 ], [ 46.035833922118613, 41.589627986620613 ], [ 46.035987062470184, 41.589409651814869 ], [ 46.036142638957557, 41.589180765500863 ], [ 46.036269702546953, 41.588988815749843 ], [ 46.036400285539351, 41.588787193787915 ], [ 46.036678722959273, 41.588344497322048 ], [ 46.036939539336721, 41.587917899028703 ], [ 46.037561875435173, 41.586886394376918 ], [ 46.037731637915627, 41.586609562511185 ], [ 46.037886822545651, 41.586360673340131 ], [ 46.038052492559338, 41.586100470882911 ], [ 46.03821127068526, 41.585857298069193 ], [ 46.038365770733797, 41.585627153767597 ], [ 46.038517422511404, 41.585407919211015 ], [ 46.038733453899646, 41.585102795242626 ], [ 46.038976989053317, 41.58476329243701 ], [ 46.039987687164107, 41.583369196772921 ], [ 46.040380348012626, 41.582817279214709 ], [ 46.040522631730013, 41.582612238210977 ], [ 46.040668419918262, 41.582397261948032 ], [ 46.040819105990536, 41.582170304883974 ], [ 46.040977286543644, 41.581927454201825 ], [ 46.041282236991584, 41.581448847761337 ], [ 46.041855935309776, 41.580532475503311 ], [ 46.042091593735975, 41.580159428929598 ], [ 46.042339992129023, 41.579773739208548 ], [ 46.042567847844403, 41.579429481660846 ], [ 46.042703184082875, 41.579230196999639 ], [ 46.042835507334978, 41.579039484587042 ], [ 46.042965732181152, 41.578856029199677 ], [ 46.043094472152738, 41.578678966897336 ], [ 46.043222419850316, 41.578507353756422 ], [ 46.043349798570794, 41.578340900425395 ], [ 46.043476954917473, 41.578179153403134 ], [ 46.04360415928123, 41.57802176886522 ], [ 46.04416429457887, 41.577333566203926 ], [ 46.044430673348423, 41.577011343162482 ], [ 46.044701538174756, 41.576693811086372 ], [ 46.044828565770409, 41.576549561004498 ], [ 46.044952045180892, 41.576412638823378 ], [ 46.045083781513654, 41.576270429011785 ], [ 46.045213337818794, 41.576134696094456 ], [ 46.04534140660229, 41.576004716813131 ], [ 46.045468470579102, 41.575879999496522 ], [ 46.045595076668356, 41.575760017659967 ], [ 46.045721417529613, 41.575644592111928 ], [ 46.045847780473125, 41.575533462635256 ], [ 46.04597439141348, 41.57542642991806 ], [ 46.046179232707559, 41.575259948664851 ], [ 46.046388794895861, 41.575095963194137 ], [ 46.046602709614753, 41.574934764161895 ], [ 46.046820609461264, 41.574776626905432 ], [ 46.047042111464293, 41.57462182780688 ], [ 46.047266878794431, 41.574470603199188 ], [ 46.04749455665462, 41.574323190482041 ], [ 46.047724804370624, 41.574179809815419 ], [ 46.047957095814226, 41.574040783932361 ], [ 46.04819129783214, 41.57390618429055 ], [ 46.048427094329519, 41.573776192102656 ], [ 46.048664189328754, 41.573650971286888 ], [ 46.048902268882657, 41.573530686828398 ], [ 46.049141080785965, 41.573415464420769 ], [ 46.049380357319542, 41.573305434404794 ], [ 46.049619850879218, 41.573200709826274 ], [ 46.049782021287108, 41.573133904773506 ], [ 46.049949988640961, 41.573069190255183 ], [ 46.050124116532892, 41.573006427817624 ], [ 46.050304886713313, 41.572945442796609 ], [ 46.050492605627561, 41.572886123374261 ], [ 46.050688293445639, 41.572828138637973 ], [ 46.050892889611717, 41.572771209745348 ], [ 46.051107840116494, 41.572714933419121 ], [ 46.051288366484926, 41.572670087203228 ], [ 46.051478261739739, 41.572624956862128 ], [ 46.051896015565617, 41.572531529568444 ], [ 46.052299349858785, 41.572446618400548 ], [ 46.05327702742369, 41.572246643774783 ], [ 46.053539705062498, 41.572190966879134 ], [ 46.053775671876934, 41.572139133468617 ], [ 46.054022277677738, 41.572082521920322 ], [ 46.054252421922513, 41.572026872338569 ], [ 46.054469893193669, 41.571971268273906 ], [ 46.05467668862174, 41.571915195183287 ], [ 46.055445173132185, 41.571696925128165 ], [ 46.056225418908966, 41.571468347591285 ], [ 46.057018646632571, 41.571229104334932 ], [ 46.05782641814119, 41.570978724958088 ], [ 46.058649815380619, 41.570716882139735 ], [ 46.059491847119887, 41.570442625484588 ], [ 46.060355235237267, 41.570155071097851 ], [ 46.061243874906232, 41.569852919740512 ], [ 46.061769789073033, 41.569674108846925 ], [ 46.062359948321806, 41.56947684343703 ], [ 46.064220791656076, 41.568864454332761 ], [ 46.064838447335667, 41.568659803330348 ], [ 46.065374308336587, 41.568479873229379 ], [ 46.065861522453766, 41.568313534875308 ], [ 46.066499127718551, 41.568090658580424 ], [ 46.067089654442299, 41.567877608376307 ], [ 46.067644893747229, 41.567670125896633 ], [ 46.068170679746501, 41.567466023653559 ], [ 46.068460945136621, 41.567349712025852 ], [ 46.068743576996368, 41.567233703910063 ], [ 46.069019100746061, 41.567117784610247 ], [ 46.06928792853094, 41.56700178010901 ], [ 46.069550503356737, 41.566885497181744 ], [ 46.069807056242936, 41.566768833742188 ], [ 46.070057862203249, 41.566651664773559 ], [ 46.070303149748121, 41.566533881901726 ], [ 46.070543430464568, 41.566415233602186 ], [ 46.070778569863243, 41.566295781506781 ], [ 46.071008730894725, 41.566175442163839 ], [ 46.071234055056756, 41.566054140426118 ], [ 46.071454690965865, 41.565931796574702 ], [ 46.071670733706945, 41.565808357508615 ], [ 46.071882290236225, 41.565683762809286 ], [ 46.072089454392675, 41.565557956682682 ], [ 46.072245957155353, 41.565463119106774 ], [ 46.072422937061781, 41.565359095766532 ], [ 46.07310974316232, 41.564967138675698 ], [ 46.073397262199187, 41.564798929252127 ], [ 46.073549503159491, 41.564706522889779 ], [ 46.073689230551373, 41.564618778198621 ], [ 46.073819099656788, 41.564534025717187 ], [ 46.073940415588183, 41.564451409317172 ], [ 46.074077214472425, 41.564353313457531 ], [ 46.074204042674502, 41.564256563487859 ], [ 46.07432171267876, 41.564160538461543 ], [ 46.074430736866859, 41.564064818388275 ], [ 46.074531646984425, 41.563968921844115 ], [ 46.074624590418537, 41.563872694350977 ], [ 46.074709801840847, 41.56377589324336 ], [ 46.074787447238322, 41.563678328736927 ], [ 46.074861049931279, 41.563578902361073 ], [ 46.074930232312497, 41.56348167538016 ], [ 46.074995132692905, 41.563386452854971 ], [ 46.075055817803651, 41.563293135090085 ], [ 46.075112364852728, 41.563201603376385 ], [ 46.075164766727468, 41.563111861389423 ], [ 46.075213043326286, 41.563023878324451 ], [ 46.075257202779781, 41.562937636997006 ], [ 46.075297292568273, 41.562853034286185 ], [ 46.075333266240449, 41.562770160702321 ], [ 46.075365122556114, 41.562689012658055 ], [ 46.075392863946277, 41.562609591034779 ], [ 46.075416488015122, 41.562531894957239 ], [ 46.075435994853926, 41.562455928930689 ], [ 46.075451383339285, 41.56238169657064 ], [ 46.075462652347127, 41.562309201492148 ], [ 46.075470660489025, 41.562216959885561 ], [ 46.075471283715558, 41.562122195994995 ], [ 46.075464524436285, 41.56202476388183 ], [ 46.07545036863845, 41.561924467319393 ], [ 46.075428809516374, 41.561821182970284 ], [ 46.075399773181495, 41.561714502595883 ], [ 46.075363158797408, 41.56160405603822 ], [ 46.075318783213355, 41.561489282054907 ], [ 46.075272330689849, 41.561382464589421 ], [ 46.075219107482226, 41.561270806019856 ], [ 46.075158617851869, 41.561153263438911 ], [ 46.075089778681956, 41.561027723072904 ], [ 46.074962511165438, 41.560809820943959 ], [ 46.074697882508801, 41.560377494572947 ], [ 46.074592627847849, 41.560200540888232 ], [ 46.074534583477281, 41.560104803066189 ], [ 46.074471838851615, 41.560009892761528 ], [ 46.074404363267085, 41.559915765217603 ], [ 46.074332122333381, 41.559822370307295 ], [ 46.074255081779597, 41.559729665107419 ], [ 46.074173187747718, 41.559637582557684 ], [ 46.074086384056635, 41.559546060122408 ], [ 46.073994607212143, 41.55945502812763 ], [ 46.073897925377132, 41.559364546272754 ], [ 46.073796117848929, 41.559274393228833 ], [ 46.07368908123955, 41.559184479876038 ], [ 46.073576687838823, 41.559094696603978 ], [ 46.073458830723652, 41.559004957926398 ], [ 46.073335291217113, 41.55891509202943 ], [ 46.073205856982632, 41.558824947754864 ], [ 46.073070251408417, 41.558734330407241 ], [ 46.072839985349127, 41.558588033889464 ], [ 46.07259121548384, 41.558438757014862 ], [ 46.072321383755103, 41.558284955371967 ], [ 46.0720252605065, 41.5581236412552 ], [ 46.071761727506505, 41.557985029596054 ], [ 46.07146423241651, 41.557832551132201 ], [ 46.07047614129975, 41.557338090053911 ], [ 46.070118714310851, 41.557156835991591 ], [ 46.069775075814448, 41.556977598925513 ], [ 46.069471688611195, 41.556813097761633 ], [ 46.069316891974609, 41.556726143816576 ], [ 46.069169759902053, 41.556641173825334 ], [ 46.069029494509103, 41.556557726863062 ], [ 46.068895558044169, 41.556475481894594 ], [ 46.06876737135876, 41.556394079535082 ], [ 46.068644734415734, 41.55631338925761 ], [ 46.068527362258628, 41.556233220974725 ], [ 46.068415032977477, 41.556153426344878 ], [ 46.068307154085936, 41.556073563231401 ], [ 46.068204010557515, 41.555993825355699 ], [ 46.068105468738814, 41.555914107687492 ], [ 46.068011419238708, 41.55583432208379 ], [ 46.067921748936755, 41.555754372328799 ], [ 46.06783639692101, 41.555674201352574 ], [ 46.067755288913638, 41.555593741400052 ], [ 46.067678368799598, 41.55551293535536 ], [ 46.067605520544689, 41.555431655501778 ], [ 46.067536769669047, 41.555349923227276 ], [ 46.067472075808048, 41.555267691175963 ], [ 46.067411405865052, 41.555184916427535 ], [ 46.067354725529746, 41.555101555171696 ], [ 46.067302015042294, 41.55501757337052 ], [ 46.067253252230152, 41.554932936107285 ], [ 46.067208417363048, 41.554847611144311 ], [ 46.067141860513615, 41.554706595532792 ], [ 46.067080668663415, 41.554560248278449 ], [ 46.067024704621289, 41.554408249106444 ], [ 46.066973811389992, 41.554250167136374 ], [ 46.066927886207175, 41.554085734013476 ], [ 46.06688665981536, 41.553914036211566 ], [ 46.06684992770181, 41.553734232560792 ], [ 46.066817423806491, 41.553545020393052 ], [ 46.066794465807817, 41.553387217749105 ], [ 46.066773778279824, 41.553221056984768 ], [ 46.066755139299509, 41.553044782858699 ], [ 46.066738175916647, 41.552854893236415 ], [ 46.066712922598619, 41.5525037114623 ], [ 46.06666281906049, 41.551673742943862 ], [ 46.066647149354509, 41.551460026269993 ], [ 46.06663050450382, 41.551267580988551 ], [ 46.066610888977998, 41.551076842194789 ], [ 46.066589018569623, 41.55089809035178 ], [ 46.066564566663288, 41.550728670469049 ], [ 46.066537322425084, 41.550567135245501 ], [ 46.066510782173111, 41.550408153322643 ], [ 46.06648553790523, 41.550229820942761 ], [ 46.066418296821794, 41.549662900072363 ], [ 46.066393512732439, 41.549470874259306 ], [ 46.066367556962028, 41.549298304014421 ], [ 46.066339731104343, 41.549142236954985 ], [ 46.066318770994144, 41.549040527633835 ], [ 46.066296264926251, 41.548943311917654 ], [ 46.066272050335876, 41.548849890554209 ], [ 46.066246010673595, 41.54875981066111 ], [ 46.066217993870119, 41.548672573748526 ], [ 46.06618794836546, 41.548588033476058 ], [ 46.066155788722106, 41.548505951944009 ], [ 46.06612144489501, 41.548426152358516 ], [ 46.06607473014386, 41.548326814679371 ], [ 46.066022558982546, 41.548224126453192 ], [ 46.065964547176847, 41.548117322020538 ], [ 46.065899959058541, 41.548005043603041 ], [ 46.06583096665031, 41.547890684779794 ], [ 46.065752673595583, 41.547765796247148 ], [ 46.06553406955647, 41.547430670568623 ], [ 46.065433954212835, 41.547281861877281 ], [ 46.065329652054714, 41.547133099992145 ], [ 46.065221171664589, 41.546984394730153 ], [ 46.065108519242038, 41.546835756830632 ], [ 46.064991704568037, 41.54668719609851 ], [ 46.064870733856552, 41.546538724172869 ], [ 46.064745619330047, 41.546390353537404 ], [ 46.064616369599676, 41.54624209580814 ], [ 46.064482989561753, 41.546093955429342 ], [ 46.064345497579723, 41.545945953833822 ], [ 46.064203905889826, 41.545798104404319 ], [ 46.064058229169831, 41.545650423202737 ], [ 46.063908482038109, 41.545502922688293 ], [ 46.063754680400038, 41.545355620712286 ], [ 46.063596842528632, 41.545208533302286 ], [ 46.063434986740752, 41.545061679187327 ], [ 46.063268990216052, 41.544914951399825 ], [ 46.063099012408543, 41.544768494364014 ], [ 46.062925076443541, 41.544622327664285 ], [ 46.062747207902284, 41.544476474464872 ], [ 46.062565431122437, 41.544330955239147 ], [ 46.06237978010477, 41.544185794874501 ], [ 46.062190286481353, 41.544041020081544 ], [ 46.061996986693202, 41.543896658426952 ], [ 46.061799879533332, 41.543752708101209 ], [ 46.061599043957294, 41.54360923050541 ], [ 46.061394526052375, 41.543466256719718 ], [ 46.061186376758734, 41.543323821382465 ], [ 46.060974639793628, 41.543181957397117 ], [ 46.060759385436633, 41.543040709131475 ], [ 46.060540674332032, 41.542900118340299 ], [ 46.060318580382287, 41.542760231159789 ], [ 46.060212248079687, 41.542695255539925 ], [ 46.060103246508461, 41.542631262795943 ], [ 46.059991522412922, 41.542568221886057 ], [ 46.059877011704934, 41.542506099165706 ], [ 46.059759661114498, 41.542444862691653 ], [ 46.059639383572474, 41.542384466420145 ], [ 46.059516093297098, 41.542324869699364 ], [ 46.059389694799698, 41.542266024760522 ], [ 46.059260278604853, 41.542207968589658 ], [ 46.059127530625751, 41.542150555450903 ], [ 46.058851452616985, 41.542037409622921 ], [ 46.058560127047308, 41.541926035604106 ], [ 46.058251472927004, 41.541815638179884 ], [ 46.057991411876905, 41.541727750371741 ], [ 46.057716373455257, 41.54163909992743 ], [ 46.057423478363887, 41.541548751248882 ], [ 46.057106980353119, 41.541454930367024 ], [ 46.056828391056364, 41.541374908707475 ], [ 46.05651642123739, 41.541287392849448 ], [ 46.055476453428007, 41.541002053317399 ], [ 46.055091360489669, 41.540895035842489 ], [ 46.054714114375969, 41.540787365032635 ], [ 46.054376111700797, 41.540687354050661 ], [ 46.054029231570787, 41.540580051952006 ], [ 46.053706822496764, 41.54047496280505 ], [ 46.053403729509924, 41.540370404658859 ], [ 46.053117224106245, 41.540265428977385 ], [ 46.052839125745408, 41.540156815953125 ], [ 46.052574649812179, 41.540046362580966 ], [ 46.052322588023458, 41.539933563900043 ], [ 46.052082108284594, 41.539818046600615 ], [ 46.05185231990793, 41.539699372145648 ], [ 46.051741343028063, 41.539638799604198 ], [ 46.051632898679863, 41.539577361618726 ], [ 46.051526928770301, 41.539515024500233 ], [ 46.051423390935106, 41.539451763422733 ], [ 46.051322245192878, 41.53938755263745 ], [ 46.051292409708573, 41.53936786815423 ], [ 46.048568718303549, 41.53926079693489 ], [ 46.045842685655401, 41.539353933417281 ], [ 46.045108752832938, 41.539852477540059 ], [ 46.042741918126005, 41.541043066820102 ], [ 46.040887378028685, 41.541839270605763 ], [ 46.038100496410202, 41.542721805874351 ], [ 46.035930933797488, 41.54328695354117 ], [ 46.032530222018437, 41.544720463310064 ], [ 46.026763229627228, 41.547422068103771 ], [ 46.024095636450596, 41.549316418930303 ], [ 46.021136287059143, 41.552460340245581 ], [ 46.01858919930833, 41.555444652658188 ], [ 46.016957328086832, 41.557251717306968 ], [ 46.015941786141852, 41.558663614561063 ], [ 46.013899609291393, 41.560786019425592 ], [ 46.01237001813103, 41.562514175903985 ], [ 46.009604902306229, 41.564876686238485 ], [ 46.001978170023214, 41.568294819306516 ], [ 45.999096646799636, 41.569878693111917 ], [ 45.996733855178604, 41.571457997781202 ], [ 45.995090208285966, 41.572563393573951 ], [ 45.993353475978076, 41.574371027158428 ], [ 45.992654466644254, 41.576169680002465 ], [ 45.991755002986686, 41.578437696135452 ], [ 45.991173998151474, 41.581170596942933 ], [ 45.991202601552217, 41.583040903709865 ] ] ] ] } }
]
}
