{
"type": "FeatureCollection",
"name": "წარაფი",
"crs": { "type": "name", "properties": { "name": "urn:ogc:def:crs:OGC:1.3:CRS84" } },
"features": [
{ "type": "Feature", "properties": { "OBJECTID": 22, "NAME_GEO": "წარაფი", "NAME_ENG": "Tsarapi", "Location": "Kakheti", "MoreInfo": "https://www.sakpatenti.gov.ge/media/django-summernote/2025-11-19/fc81b707-896e-4f5e-9512-ddf96041134b.pdf" }, "geometry": { "type": "MultiPolygon", "coordinates": [ [ [ [ 45.902998519001351, 41.695222868552435 ], [ 45.903383129240304, 41.694986293766966 ], [ 45.903765479715723, 41.694760183601772 ], [ 45.903974802405955, 41.694636399341611 ], [ 45.904020179955801, 41.694609564450545 ], [ 45.904581201081527, 41.694261892266731 ], [ 45.904839555690373, 41.694097912142723 ], [ 45.905268188723461, 41.693818020918727 ], [ 45.905614512096484, 41.693581740242003 ], [ 45.905815919407949, 41.693427664046041 ], [ 45.906243159980818, 41.693062033329362 ], [ 45.90655767362923, 41.692811679482361 ], [ 45.906972580057051, 41.69247964944455 ], [ 45.907437949903041, 41.69210893959702 ], [ 45.907922351755111, 41.691733303769162 ], [ 45.90808678882054, 41.691621398292924 ], [ 45.908131018454526, 41.691668966129221 ], [ 45.908172015303634, 41.691713091793197 ], [ 45.90819830815574, 41.691696196697734 ], [ 45.908257165128262, 41.691658376721676 ], [ 45.908367203907638, 41.691587612500108 ], [ 45.908753208590319, 41.691222523505822 ], [ 45.908864502739029, 41.691117251988231 ], [ 45.90924480403141, 41.690718745347056 ], [ 45.909655807979078, 41.690260908339148 ], [ 45.910059626421898, 41.689856358243894 ], [ 45.910176402433436, 41.689760949753634 ], [ 45.910221640517506, 41.689730868277941 ], [ 45.910260926922895, 41.689704797017015 ], [ 45.910307333110843, 41.689621204539968 ], [ 45.910817200954938, 41.689034500279583 ], [ 45.910946968988135, 41.68885513263605 ], [ 45.911070258976885, 41.688608443659419 ], [ 45.911292992985047, 41.688281704196633 ], [ 45.911515955513657, 41.687962798587805 ], [ 45.911763326729535, 41.68750904384931 ], [ 45.911892408101714, 41.687289959567188 ], [ 45.912052823961268, 41.687035003666622 ], [ 45.912166541843874, 41.686859770106111 ], [ 45.912253871238008, 41.686747389777842 ], [ 45.912343207154834, 41.686632471484607 ], [ 45.912509458414419, 41.686425070736455 ], [ 45.912664070606091, 41.686142373358003 ], [ 45.912882454244212, 41.685883037828837 ], [ 45.912911546695355, 41.685824576292411 ], [ 45.91293947204543, 41.685768555917257 ], [ 45.913032319414548, 41.685596234410191 ], [ 45.913262367228256, 41.685227325038774 ], [ 45.91387233828025, 41.684297859483763 ], [ 45.914370492873992, 41.683555230452264 ], [ 45.915061337658337, 41.682505906822442 ], [ 45.915151934713862, 41.682378996890471 ], [ 45.915235933979368, 41.682261326602969 ], [ 45.91564043380491, 41.681648058134321 ], [ 45.91575953364984, 41.681523262440592 ], [ 45.915811497127358, 41.681419930389723 ], [ 45.915988214325694, 41.681068521277979 ], [ 45.916218824871819, 41.680733107456618 ], [ 45.916287052015001, 41.680613400429309 ], [ 45.916403683621368, 41.680408010768254 ], [ 45.916442133805823, 41.680340511675979 ], [ 45.916837260835372, 41.679923441791153 ], [ 45.917018375626014, 41.679622737981845 ], [ 45.917234274362322, 41.67933897501311 ], [ 45.917421194089975, 41.679093297742547 ], [ 45.917582848251968, 41.678880826376478 ], [ 45.917746576616963, 41.678701359813985 ], [ 45.917790744858358, 41.678647505290108 ], [ 45.917889118035099, 41.67852746645751 ], [ 45.917905478178952, 41.678507790517727 ], [ 45.917906717136056, 41.678506204390516 ], [ 45.917926312342416, 41.678481683843891 ], [ 45.918157555999208, 41.678192151826657 ], [ 45.91830144105829, 41.677952360728803 ], [ 45.918669281914397, 41.67742210383706 ], [ 45.918748294430166, 41.677296814788839 ], [ 45.918841541625788, 41.677171411876571 ], [ 45.918914217622941, 41.676942772556977 ], [ 45.919031494381365, 41.676496661825837 ], [ 45.919124879877295, 41.676043356246041 ], [ 45.919143048372668, 41.675986196370644 ], [ 45.919169186181996, 41.675822104209544 ], [ 45.919217385976403, 41.675536780940298 ], [ 45.91924802373682, 41.67537657082034 ], [ 45.919252829552178, 41.675351267627441 ], [ 45.919251501745215, 41.675333939692251 ], [ 45.91924103916844, 41.675198107112458 ], [ 45.919219087631802, 41.674980942757671 ], [ 45.919221288864954, 41.674806368663333 ], [ 45.919170376045386, 41.674571692049078 ], [ 45.919232658640723, 41.67451206266059 ], [ 45.919285104330527, 41.674461879248305 ], [ 45.919337134000308, 41.674412014386256 ], [ 45.919492833179248, 41.674184421777973 ], [ 45.919822760656473, 41.673925531244549 ], [ 45.920082438635738, 41.673744752837869 ], [ 45.920194414372951, 41.673678059863747 ], [ 45.920324348586909, 41.673602846419698 ], [ 45.920259824433224, 41.673568235634811 ], [ 45.920200985737679, 41.673536371474512 ], [ 45.920178865256347, 41.673514166082718 ], [ 45.920177464639558, 41.673512826240319 ], [ 45.920174844226906, 41.673510190142935 ], [ 45.920119209882671, 41.673454476650974 ], [ 45.920112018295434, 41.673447193486382 ], [ 45.92011141000205, 41.673446657933759 ], [ 45.920110739083619, 41.673445942741608 ], [ 45.920105742356348, 41.673440938800752 ], [ 45.920074360114022, 41.673409485246722 ], [ 45.920036172362437, 41.673385201730596 ], [ 45.92001435144423, 41.673371370459883 ], [ 45.920012290818896, 41.67337008093417 ], [ 45.920000834376118, 41.673362786868303 ], [ 45.919969739062992, 41.67334304014657 ], [ 45.919702305833439, 41.673173055969286 ], [ 45.91967587758927, 41.673156244143485 ], [ 45.919362441153858, 41.672957129213898 ], [ 45.91931255612959, 41.672925463178778 ], [ 45.919236668037634, 41.672877297039371 ], [ 45.919228909338933, 41.672872360186346 ], [ 45.919228060180728, 41.672871781520286 ], [ 45.919275677916865, 41.672832760418544 ], [ 45.919359574572475, 41.672764131153777 ], [ 45.919362009441834, 41.672762175161033 ], [ 45.919438127898026, 41.672699912992549 ], [ 45.919439552653188, 41.672698730678206 ], [ 45.919645521975433, 41.672530182128511 ], [ 45.919661435073003, 41.672517219749714 ], [ 45.919662266923282, 41.672516582599883 ], [ 45.919629671100402, 41.672492659512962 ], [ 45.919624997213447, 41.672489229199911 ], [ 45.919565328682545, 41.672445391974023 ], [ 45.918992630952623, 41.672025110479574 ], [ 45.918974360570786, 41.672011700967786 ], [ 45.918913661041785, 41.671967106043041 ], [ 45.918904434818053, 41.671960334456152 ], [ 45.918899095882821, 41.671956594183854 ], [ 45.918386822441647, 41.671603244233928 ], [ 45.918374387645386, 41.671594696833971 ], [ 45.918330106198397, 41.671564156500089 ], [ 45.918162746780972, 41.67144871728911 ], [ 45.918160865787826, 41.671447381259227 ], [ 45.918138785857764, 41.671432155602282 ], [ 45.918135266664727, 41.671429661743048 ], [ 45.91806514612739, 41.671381403700614 ], [ 45.918058897462785, 41.671377040162447 ], [ 45.918056714265077, 41.671375571439171 ], [ 45.918005215217924, 41.671340089721411 ], [ 45.91800400254494, 41.671339288773495 ], [ 45.918098270273283, 41.671277738175775 ], [ 45.918399583861664, 41.671081228836137 ], [ 45.918376794833542, 41.671066819524711 ], [ 45.918376186577156, 41.671066283962318 ], [ 45.918375400708413, 41.671065929960172 ], [ 45.918368726421974, 41.671056976244756 ], [ 45.918338375387393, 41.671021866104546 ], [ 45.918335687413879, 41.671018690080636 ], [ 45.918334466422415, 41.671017303744456 ], [ 45.918323474941538, 41.671004646597716 ], [ 45.918280481500553, 41.670954820864054 ], [ 45.91817727515528, 41.670835356303435 ], [ 45.918176114867997, 41.67083401451579 ], [ 45.918170740872789, 41.670827797550203 ], [ 45.918136482397607, 41.670788215047111 ], [ 45.918135321472128, 41.670786828228898 ], [ 45.918112909312832, 41.670760886830131 ], [ 45.918096055802174, 41.670741476167954 ], [ 45.91809534215367, 41.670741977256633 ], [ 45.918051845405564, 41.670775065345261 ], [ 45.91706612332581, 41.6698729978892 ], [ 45.91667947497384, 41.669511657190299 ], [ 45.915792252295084, 41.668682965933584 ], [ 45.915317300811267, 41.668497826587242 ], [ 45.914438416098946, 41.667602496123529 ], [ 45.913638206316236, 41.666717882237734 ], [ 45.913570260215344, 41.666640151033327 ], [ 45.912922782300846, 41.665898430749522 ], [ 45.912023392102569, 41.664996398785618 ], [ 45.911933654419862, 41.664906319692818 ], [ 45.911889181416399, 41.664857403942818 ], [ 45.911728923284002, 41.66468132634197 ], [ 45.911467337677387, 41.664393824161252 ], [ 45.911419754495178, 41.664341510206022 ], [ 45.911408042993877, 41.66432872298207 ], [ 45.911372375478813, 41.664278115926074 ], [ 45.91131268403722, 41.664193382448211 ], [ 45.911191767969456, 41.664021630749396 ], [ 45.911063009862005, 41.663838862395131 ], [ 45.91104273497524, 41.663810785973631 ], [ 45.910850594809105, 41.663545474660033 ], [ 45.910715722764955, 41.663359151526507 ], [ 45.910695634044586, 41.663331478883471 ], [ 45.910674134992377, 41.663301745787265 ], [ 45.910623298216528, 41.663231533214095 ], [ 45.910619254944123, 41.6632258907999 ], [ 45.910604353130566, 41.663205399807239 ], [ 45.910599228261013, 41.663198352753639 ], [ 45.910595307631439, 41.663192889508132 ], [ 45.910594451064476, 41.663191770411771 ], [ 45.910593715867229, 41.66319074042444 ], [ 45.910584787994061, 41.663179417224157 ], [ 45.910569806013733, 41.663160395913991 ], [ 45.910564364462708, 41.663153548622418 ], [ 45.910531466097879, 41.663111836346097 ], [ 45.910515168533593, 41.663088952413823 ], [ 45.910501015879262, 41.663069113888469 ], [ 45.910487721065671, 41.663050484519019 ], [ 45.910481594873346, 41.663041931305052 ], [ 45.910468462472856, 41.663034829687923 ], [ 45.910465254435962, 41.663033053688757 ], [ 45.910280678636454, 41.662933501498514 ], [ 45.910253007000925, 41.662908951235153 ], [ 45.910113070083888, 41.662784951328867 ], [ 45.910102437489556, 41.662771975282439 ], [ 45.910098621366473, 41.662769663664299 ], [ 45.910083961815353, 41.662760727647466 ], [ 45.910048703438875, 41.662713449537044 ], [ 45.910006518638887, 41.662669018447552 ], [ 45.909855034644707, 41.66250966684828 ], [ 45.909777295652596, 41.662418230042391 ], [ 45.909711648892561, 41.662341063738076 ], [ 45.909346412973584, 41.66208256905955 ], [ 45.909228490486008, 41.661999150840977 ], [ 45.909214963297266, 41.661989575258765 ], [ 45.909205317907485, 41.661982716121727 ], [ 45.909090371099502, 41.661944309547174 ], [ 45.909021353517701, 41.662007409513457 ], [ 45.908940329816517, 41.662169096648768 ], [ 45.908748308998604, 41.662500724024497 ], [ 45.908770654428139, 41.662577918026287 ], [ 45.9087710318232, 41.66257913099593 ], [ 45.908793943719154, 41.662658166961208 ], [ 45.908551737602586, 41.662893274792751 ], [ 45.908507389336911, 41.662878583567171 ], [ 45.908470372888438, 41.662928324950975 ], [ 45.908285535504454, 41.663015037704653 ], [ 45.908253630050694, 41.663026773851115 ], [ 45.908249570048625, 41.663028472242388 ], [ 45.908206346155652, 41.663046782905802 ], [ 45.908108703099266, 41.662953430634467 ], [ 45.907936838112455, 41.662834994507534 ], [ 45.907664241043676, 41.662651151762496 ], [ 45.907525832514303, 41.662562894666465 ], [ 45.907407115546206, 41.662448451515999 ], [ 45.907338075930618, 41.662381803868556 ], [ 45.907232231731705, 41.662285903532407 ], [ 45.907221425335422, 41.662277612262919 ], [ 45.907209374335537, 41.662270501735208 ], [ 45.906894459131763, 41.661916667545086 ], [ 45.906830402328943, 41.661824129985661 ], [ 45.906759438680588, 41.66174867023647 ], [ 45.906707679341089, 41.661693640086781 ], [ 45.906378348733014, 41.661326407558015 ], [ 45.906312091813753, 41.661269600070526 ], [ 45.906284089883542, 41.661247032999185 ], [ 45.906222561719325, 41.661154835430516 ], [ 45.906184643443495, 41.661106045885028 ], [ 45.90613119387573, 41.661037473157066 ], [ 45.906116378066265, 41.661017324061916 ], [ 45.906101165916503, 41.660998889432328 ], [ 45.905951853247849, 41.660783536566271 ], [ 45.905798671718166, 41.660579157575647 ], [ 45.905732238303187, 41.660475379271233 ], [ 45.905517108908661, 41.660234333897414 ], [ 45.90548524640667, 41.660231927841835 ], [ 45.905448911054023, 41.660193168454995 ], [ 45.905457689212987, 41.660176751468789 ], [ 45.905358922547769, 41.660079757786498 ], [ 45.905284637104849, 41.660006980348705 ], [ 45.905202248852682, 41.659925935139469 ], [ 45.905175994729191, 41.659890879233515 ], [ 45.905041236843417, 41.659749583724818 ], [ 45.905043568261327, 41.659740243048404 ], [ 45.90504373957566, 41.659739611204472 ], [ 45.90504663300284, 41.659727518946028 ], [ 45.905046974370315, 41.659726165197377 ], [ 45.905047200057027, 41.659725127607125 ], [ 45.905050793388504, 41.659707265312178 ], [ 45.905004904221379, 41.659702402561095 ], [ 45.904977949414011, 41.659672704126628 ], [ 45.904921219466189, 41.659610198586272 ], [ 45.90482040857286, 41.659409954458582 ], [ 45.904772225696796, 41.659327018367456 ], [ 45.904762317366547, 41.65930989286165 ], [ 45.90466841383202, 41.659225515218374 ], [ 45.904620747763431, 41.659140863648965 ], [ 45.904679826151039, 41.659092661159917 ], [ 45.904675044191613, 41.659085673284729 ], [ 45.90467443111995, 41.65908477740328 ], [ 45.904641588821733, 41.659068102616303 ], [ 45.904607996537585, 41.659045038702182 ], [ 45.904580285513902, 41.659025981671995 ], [ 45.904568978486466, 41.659018242617464 ], [ 45.904298917771087, 41.659257913074249 ], [ 45.904125680880753, 41.65941370221168 ], [ 45.903940684278595, 41.659546706516537 ], [ 45.903878452262902, 41.659507572044461 ], [ 45.903743586251068, 41.659607395135744 ], [ 45.903655468555506, 41.659666183596919 ], [ 45.903650110327781, 41.659690995169889 ], [ 45.90364508593828, 41.659713912632945 ], [ 45.90354266079418, 41.659797447834421 ], [ 45.903425274007809, 41.659893305130716 ], [ 45.903264382735031, 41.660000267667932 ], [ 45.903199526207665, 41.660043380803437 ], [ 45.903163685740708, 41.659988359038692 ], [ 45.903013469631929, 41.660047049510595 ], [ 45.902747502646676, 41.660065171458868 ], [ 45.902561187218787, 41.660054610295873 ], [ 45.90245869696534, 41.660094911104153 ], [ 45.902152573452206, 41.660170406771115 ], [ 45.902034250325499, 41.660203670857427 ], [ 45.901822980406443, 41.660233881199517 ], [ 45.901759711954057, 41.660244555609189 ], [ 45.901688295199442, 41.660256599935856 ], [ 45.901622930681867, 41.660267696032797 ], [ 45.901499648498401, 41.660296445397627 ], [ 45.901473068393067, 41.660302643583094 ], [ 45.901391513109871, 41.660321662158701 ], [ 45.901151056030592, 41.660338949848196 ], [ 45.900946032300993, 41.660360642958338 ], [ 45.900765947272795, 41.660413664999048 ], [ 45.900631735537672, 41.66045317697332 ], [ 45.900418338776163, 41.660563609361951 ], [ 45.900340805322344, 41.660641002030616 ], [ 45.900292394957496, 41.660666420904818 ], [ 45.900245902175762, 41.660786398973713 ], [ 45.900159707188799, 41.660905967413534 ], [ 45.900084106318175, 41.660997125586441 ], [ 45.900012877346761, 41.661083115443617 ], [ 45.899986970621413, 41.661115968938198 ], [ 45.899974242803125, 41.66113229123652 ], [ 45.899918411121632, 41.66120391938734 ], [ 45.899870506892093, 41.661270046072971 ], [ 45.899788129747641, 41.661383549598575 ], [ 45.899793106280939, 41.661443362612196 ], [ 45.89981376772284, 41.66168940908161 ], [ 45.899762263518511, 41.661786007793886 ], [ 45.899738687187444, 41.661843927671299 ], [ 45.899677969622466, 41.661943075413433 ], [ 45.899588457359009, 41.66201434645302 ], [ 45.899412379308508, 41.662191722617067 ], [ 45.899292051872344, 41.662197843253814 ], [ 45.899206771470276, 41.662202113331283 ], [ 45.899214220470498, 41.66224542408402 ], [ 45.899102870378776, 41.662344292120061 ], [ 45.899053774219134, 41.66236569597929 ], [ 45.898978660829933, 41.662398441463239 ], [ 45.89893835280084, 41.662416014281192 ], [ 45.89888776247782, 41.66244027869157 ], [ 45.898627516538724, 41.662641730273407 ], [ 45.898442853119739, 41.662750493179978 ], [ 45.898441331675912, 41.662852735288126 ], [ 45.898272423623339, 41.662954394278088 ], [ 45.898197308529802, 41.66301172585478 ], [ 45.898010548949173, 41.663090781123877 ], [ 45.897865649715541, 41.663135327257095 ], [ 45.897759407829831, 41.663161196835048 ], [ 45.897726582066824, 41.663175999654015 ], [ 45.897610763205265, 41.663217165842887 ], [ 45.897475755484884, 41.663264786705291 ], [ 45.897397487412853, 41.663298408757974 ], [ 45.8971928959716, 41.66337363882046 ], [ 45.896987036808149, 41.663335929793853 ], [ 45.896967351109851, 41.663310908677701 ], [ 45.896744176577769, 41.66342330201519 ], [ 45.896422051023237, 41.66366301603032 ], [ 45.896434983567261, 41.663833328858871 ], [ 45.896403724193114, 41.663935127342597 ], [ 45.896266356292223, 41.664098551026235 ], [ 45.896245764518717, 41.664142440910446 ], [ 45.896223715767839, 41.664189539660512 ], [ 45.896154743803443, 41.664263937219332 ], [ 45.896059155617216, 41.6643670460126 ], [ 45.89593461859576, 41.664451062042815 ], [ 45.895975031216125, 41.664463582070944 ], [ 45.896026086400411, 41.664632922192745 ], [ 45.896024060516943, 41.664742373829007 ], [ 45.896021968844643, 41.664855744049333 ], [ 45.896054768982218, 41.665155198406225 ], [ 45.896066369052654, 41.665181813911943 ], [ 45.896069285801985, 41.665188591504858 ], [ 45.896005839654954, 41.665381792292429 ], [ 45.89597094787036, 41.665472945582167 ], [ 45.895966834245357, 41.665566110691955 ], [ 45.895920100002307, 41.665634838624392 ], [ 45.895857094939991, 41.665729948956404 ], [ 45.895771335073981, 41.665829965315076 ], [ 45.895756981870576, 41.66584737074551 ], [ 45.895582901292528, 41.665958028097506 ], [ 45.895483217820242, 41.666037166278926 ], [ 45.89539877517165, 41.666115284929724 ], [ 45.89531961852019, 41.666271498611174 ], [ 45.895266848709049, 41.666339218562747 ], [ 45.895147778723164, 41.666492024009578 ], [ 45.894912427873919, 41.666940517053852 ], [ 45.894701228287261, 41.667116448035145 ], [ 45.894454227896112, 41.667148949584728 ], [ 45.894499330717188, 41.667183455887205 ], [ 45.894375320310047, 41.667271339140562 ], [ 45.894300734303094, 41.667289393239393 ], [ 45.894143668318776, 41.667310610984231 ], [ 45.894105780566491, 41.667315724519625 ], [ 45.893938667139032, 41.667413850384996 ], [ 45.893885910747407, 41.667430610337583 ], [ 45.893779543963511, 41.667464401619128 ], [ 45.893767231621723, 41.667473099112335 ], [ 45.893451675266171, 41.667694964667497 ], [ 45.893401935913168, 41.667650901478062 ], [ 45.89327055385376, 41.667757485457088 ], [ 45.893232659003679, 41.667788178814035 ], [ 45.893180629139437, 41.667830420978014 ], [ 45.893141466841229, 41.667869365615672 ], [ 45.892950738115701, 41.66812336060633 ], [ 45.892830874780394, 41.668316052151603 ], [ 45.892710758815703, 41.66848181441901 ], [ 45.892644914683771, 41.668571946093174 ], [ 45.892571887376079, 41.668655153043844 ], [ 45.89246994600051, 41.668771415213769 ], [ 45.892299647291239, 41.668965533640964 ], [ 45.892281476859047, 41.668984994856373 ], [ 45.892272361921762, 41.668994748211404 ], [ 45.89213155719262, 41.669276186015395 ], [ 45.892080937075818, 41.669330969869996 ], [ 45.891954139648249, 41.669468197484065 ], [ 45.891579493792356, 41.669526723063775 ], [ 45.891547074217513, 41.669523416771305 ], [ 45.891360558022271, 41.669504507545142 ], [ 45.891319814240596, 41.669489916854239 ], [ 45.891277017374648, 41.669474531435256 ], [ 45.891230039554671, 41.669460844728022 ], [ 45.890883530535021, 41.669360220282854 ], [ 45.890684190386203, 41.669295473358396 ], [ 45.890558488318426, 41.669248214659916 ], [ 45.890448376798496, 41.669216507315646 ], [ 45.890248223278498, 41.669127536941851 ], [ 45.890103649554369, 41.669088079923917 ], [ 45.889957699159751, 41.669053317055109 ], [ 45.889550417224484, 41.669145099612194 ], [ 45.889371610738635, 41.669197463396628 ], [ 45.889348278912529, 41.669221647761773 ], [ 45.889260228902707, 41.66931343549372 ], [ 45.889198007909336, 41.669505767286921 ], [ 45.889156046233182, 41.669655789266145 ], [ 45.889153642208868, 41.669664409606931 ], [ 45.88912422366348, 41.669770064832697 ], [ 45.889070748251726, 41.669938910531116 ], [ 45.889076754899278, 41.669969488065405 ], [ 45.888971559767015, 41.670172915588317 ], [ 45.888936058824285, 41.670207597147098 ], [ 45.888927266244458, 41.670216207449151 ], [ 45.888880112521655, 41.670262387460198 ], [ 45.888858420231642, 41.670283541677485 ], [ 45.888807824640878, 41.670313033879239 ], [ 45.888630801666302, 41.670416219454765 ], [ 45.888584503422848, 41.670443221205069 ], [ 45.888453473837309, 41.670519640396407 ], [ 45.888242131208763, 41.670591168759373 ], [ 45.887711703276196, 41.670625936067282 ], [ 45.887552010808299, 41.670625305867972 ], [ 45.887298340683905, 41.670624304875844 ], [ 45.887206116983542, 41.670623940503717 ], [ 45.886719272039237, 41.670587030872909 ], [ 45.88666158226382, 41.67060247271155 ], [ 45.886602755690269, 41.670618238538061 ], [ 45.886422120388815, 41.67069538125277 ], [ 45.886200484734779, 41.670835574003718 ], [ 45.886140669099404, 41.67083180190307 ], [ 45.886105802505327, 41.6708559394378 ], [ 45.886050596640011, 41.670864201207053 ], [ 45.885702755955087, 41.670916151003254 ], [ 45.885640046994652, 41.67091163533977 ], [ 45.885578719992381, 41.670907154028647 ], [ 45.885309110795774, 41.670969938759647 ], [ 45.885255747817006, 41.670968053010249 ], [ 45.885038467014724, 41.671009852896653 ], [ 45.884830837989604, 41.671107331756723 ], [ 45.884614459747837, 41.671245814665923 ], [ 45.884579141964338, 41.671337958500622 ], [ 45.884574735358278, 41.67134952145193 ], [ 45.884563597486554, 41.671378339692815 ], [ 45.884518670627912, 41.671536399058979 ], [ 45.884481451656335, 41.671660802758815 ], [ 45.884537527795956, 41.671672170430739 ], [ 45.884592639316679, 41.67168327528811 ], [ 45.884655607679775, 41.671711072768652 ], [ 45.88481601616656, 41.671748703368522 ], [ 45.884940725253834, 41.671784807222124 ], [ 45.885054538046539, 41.671841035554984 ], [ 45.885189670868428, 41.67191894168014 ], [ 45.885335426226121, 41.672000548779394 ], [ 45.885489044554348, 41.672086103250216 ], [ 45.885666086344692, 41.672171477007964 ], [ 45.885734050866475, 41.672204369413585 ], [ 45.885973627624651, 41.672281424588427 ], [ 45.886154874209545, 41.672327314266553 ], [ 45.88631046687312, 41.6723596207054 ], [ 45.886405412401267, 41.672384558565348 ], [ 45.886500389638044, 41.672407424479118 ], [ 45.886610833056963, 41.672410535618816 ], [ 45.886695268385921, 41.672435554319335 ], [ 45.886866953893431, 41.672489352775514 ], [ 45.886970145952127, 41.672541788121364 ], [ 45.887030452609658, 41.672563705213214 ], [ 45.887038846008274, 41.672566928006496 ], [ 45.88712306405273, 41.672576095650356 ], [ 45.887228450266228, 41.672587081370459 ], [ 45.887334013879936, 41.672619727592696 ], [ 45.887453333789765, 41.672691808467448 ], [ 45.887517344040454, 41.672760308214997 ], [ 45.887621226355613, 41.672854170094823 ], [ 45.887703750125382, 41.672932344438351 ], [ 45.887813257300024, 41.673059578866912 ], [ 45.887891321922403, 41.673189127729678 ], [ 45.887934557189126, 41.67327562170388 ], [ 45.888010383234374, 41.673434550771695 ], [ 45.888083060043421, 41.673552251813121 ], [ 45.888123613512491, 41.673644621017957 ], [ 45.888135653178537, 41.673747028248563 ], [ 45.888165755061912, 41.67383938813218 ], [ 45.888224439790214, 41.673896129384765 ], [ 45.888176230263518, 41.673893529639614 ], [ 45.888182250482423, 41.673938203133659 ], [ 45.888187199538827, 41.673974868627958 ], [ 45.88820511126422, 41.673975720975449 ], [ 45.888230835841348, 41.673976873219637 ], [ 45.888228969464208, 41.674103256599032 ], [ 45.888237021144562, 41.674278201407049 ], [ 45.888263576684629, 41.674444626636202 ], [ 45.888277058809166, 41.674612594028886 ], [ 45.888312272118057, 41.674727161770967 ], [ 45.888336694311597, 41.674878201400674 ], [ 45.888343342034233, 41.674985964424806 ], [ 45.888348638684306, 41.675074102517826 ], [ 45.888393547985494, 41.67534333641629 ], [ 45.88845591058562, 41.675676115207082 ], [ 45.888457987410781, 41.675687357964939 ], [ 45.888485840878232, 41.676079084423662 ], [ 45.888493071593444, 41.67638913583815 ], [ 45.888494919123566, 41.676468343958064 ], [ 45.888489313898134, 41.676510652870761 ], [ 45.888467818313565, 41.6766729234172 ], [ 45.88842904143128, 41.676849671274447 ], [ 45.888352189293784, 41.677236757801275 ], [ 45.888279140748679, 41.677620932599169 ], [ 45.888212578371657, 41.677935162513052 ], [ 45.888134298465317, 41.678218588755961 ], [ 45.888080429943294, 41.67838135705172 ], [ 45.887949469496043, 41.678634431163886 ], [ 45.887822061285128, 41.678870679535734 ], [ 45.887781409025543, 41.678933052123007 ], [ 45.887741465095516, 41.67899451851931 ], [ 45.887736778622404, 41.67901193831819 ], [ 45.887729063399071, 41.679040640319265 ], [ 45.887707806131623, 41.679076202207042 ], [ 45.887677268895672, 41.67912714774689 ], [ 45.887677039772811, 41.679127960150737 ], [ 45.887672048613418, 41.679145067053433 ], [ 45.88766648402482, 41.679164159934992 ], [ 45.887658913057209, 41.679190248773338 ], [ 45.887648792640803, 41.679293097327985 ], [ 45.887648444623274, 41.679294000720517 ], [ 45.887597501286976, 41.679442470004631 ], [ 45.88756479691903, 41.679571793539566 ], [ 45.887555638639775, 41.679731559170918 ], [ 45.887555531501938, 41.679732505738002 ], [ 45.887534796619008, 41.679880426434885 ], [ 45.887534750165678, 41.67988141756851 ], [ 45.887525309623925, 41.680020649308567 ], [ 45.887525204341543, 41.680021730966928 ], [ 45.887508489245597, 41.68018677902694 ], [ 45.887508502858275, 41.680187769696651 ], [ 45.887508106326862, 41.680438708995375 ], [ 45.887508116845837, 41.680439474512859 ], [ 45.887503046182339, 41.680638794504773 ], [ 45.887503059176382, 41.68063974014396 ], [ 45.887498623627067, 41.680859050859347 ], [ 45.887498637858684, 41.680860086559377 ], [ 45.887501140361081, 41.68095468081367 ], [ 45.887504613804325, 41.681086008195329 ], [ 45.887506638457523, 41.681162526299957 ], [ 45.887506648357977, 41.681163246786895 ], [ 45.887508843467657, 41.681235556384649 ], [ 45.887514198713191, 41.68141979910957 ], [ 45.887514210470179, 41.68142065468777 ], [ 45.88753018872152, 41.681765906305841 ], [ 45.88751591992002, 41.682117741457567 ], [ 45.887515932296125, 41.682118642066079 ], [ 45.887533273660587, 41.68254120855633 ], [ 45.887533283561808, 41.68254192904309 ], [ 45.887538458759529, 41.68273490994472 ], [ 45.887540768390338, 41.682824286978338 ], [ 45.887538054054112, 41.682864145177149 ], [ 45.887535969624771, 41.682894759089606 ], [ 45.887531227206189, 41.68296496055352 ], [ 45.887491872183361, 41.68313067875971 ], [ 45.88749188332195, 41.683131489307229 ], [ 45.887493173014967, 41.683216595868707 ], [ 45.887536034311935, 41.683319125249881 ], [ 45.887535987238238, 41.683320071352547 ], [ 45.887529769292719, 41.683431536444878 ], [ 45.887529480702952, 41.683432394342312 ], [ 45.887464150518092, 41.683657714545404 ], [ 45.88746392199625, 41.683658571978782 ], [ 45.887423474679153, 41.683819164566366 ], [ 45.887423607813332, 41.683820109277335 ], [ 45.887442247445904, 41.68393494018445 ], [ 45.887617327981332, 41.68417227456451 ], [ 45.88761752057048, 41.684173173780792 ], [ 45.887653935004494, 41.684326732724912 ], [ 45.887654067524267, 41.684327632405072 ], [ 45.887700520709288, 41.68457775929911 ], [ 45.887779513469319, 41.684712614937808 ], [ 45.887779825584921, 41.684713468195206 ], [ 45.887807306783138, 41.684784838421784 ], [ 45.887868605522506, 41.684944037995237 ], [ 45.887868677356607, 41.684944893108721 ], [ 45.88788895400338, 41.685143746919536 ], [ 45.887889264884336, 41.685144510115727 ], [ 45.887951356333375, 41.685317190645151 ], [ 45.887951609621332, 41.685318134426872 ], [ 45.888014475470477, 41.685529629256138 ], [ 45.888014487235786, 41.685530484833592 ], [ 45.888015196257939, 41.685577676220774 ], [ 45.888017584662776, 41.685729516380711 ], [ 45.888088547857755, 41.685909423961348 ], [ 45.888088918816763, 41.68591018669261 ], [ 45.888238811121944, 41.686211349375263 ], [ 45.888321002138362, 41.686552260816256 ], [ 45.888321135291974, 41.686553205525527 ], [ 45.888358260916, 41.686758233877434 ], [ 45.888358094326925, 41.686759225938879 ], [ 45.888342972680363, 41.68690030290378 ], [ 45.888342984450588, 41.686901158480943 ], [ 45.888344841516812, 41.686996843853919 ], [ 45.888448897002952, 41.687105880220152 ], [ 45.888449207280793, 41.687106598384034 ], [ 45.888519838070714, 41.687266512607742 ], [ 45.888531330020299, 41.687446744548048 ], [ 45.888593768041744, 41.687626852776418 ], [ 45.888593840508712, 41.687627752919298 ], [ 45.888614649703456, 41.687878167643944 ], [ 45.888667372433787, 41.68798093550442 ], [ 45.888667624503846, 41.687981789223194 ], [ 45.888712514776742, 41.688135327214653 ], [ 45.888712526552382, 41.688136182791574 ], [ 45.888715271883456, 41.688309456840976 ], [ 45.88883100031309, 41.68859849813888 ], [ 45.888988648464782, 41.688816419775584 ], [ 45.889164221801586, 41.689079417784903 ], [ 45.889347503206899, 41.689265075548128 ], [ 45.889485320167914, 41.689377767700229 ], [ 45.8896483170601, 41.689486481804622 ], [ 45.889799242119665, 41.689582409093809 ], [ 45.889926595462143, 41.689624566620239 ], [ 45.890016312025402, 41.68966485380917 ], [ 45.89009137568776, 41.689679494318547 ], [ 45.890114675972768, 41.689687032871056 ], [ 45.890169409437995, 41.689704740066098 ], [ 45.890250624588191, 41.689742841165646 ], [ 45.890331603723219, 41.689776890873148 ], [ 45.89041570746415, 41.689793532748702 ], [ 45.890446949529391, 41.689819636233416 ], [ 45.890498155288469, 41.689901562794056 ], [ 45.890533959116894, 41.68996628006299 ], [ 45.890600612743654, 41.689980643141652 ], [ 45.890507097391065, 41.690044761090803 ], [ 45.890420458119962, 41.69010682162272 ], [ 45.890355342865909, 41.690143548794211 ], [ 45.890292706872295, 41.690175682052278 ], [ 45.890164215838197, 41.690227771580197 ], [ 45.889954804636695, 41.690314041532297 ], [ 45.889763656751214, 41.690396738022685 ], [ 45.889485184839927, 41.690528916503311 ], [ 45.889197004703277, 41.690658118746839 ], [ 45.889063598004348, 41.69068584233969 ], [ 45.888989479203779, 41.690699485827565 ], [ 45.888989224754397, 41.690699594979542 ], [ 45.888901059465702, 41.690737304861941 ], [ 45.88884983799506, 41.690796067486318 ], [ 45.888772327514161, 41.690830804503911 ], [ 45.888598380562549, 41.690939333282159 ], [ 45.888417755210043, 41.69104295775972 ], [ 45.888250278120701, 41.691141709303665 ], [ 45.888147298051202, 41.691220326839719 ], [ 45.888069640469993, 41.691235697610566 ], [ 45.888014958185707, 41.691243956284026 ], [ 45.887971350476683, 41.691288652852812 ], [ 45.887727913818097, 41.691482338245983 ], [ 45.887356064569893, 41.69181072314413 ], [ 45.887317918825296, 41.691838368419177 ], [ 45.887083713178598, 41.692008099033067 ], [ 45.88706534771044, 41.692026974511947 ], [ 45.886745632150678, 41.692354415460393 ], [ 45.886586686326176, 41.692556104881142 ], [ 45.886527597828255, 41.692631083053421 ], [ 45.886375978458275, 41.692834776463677 ], [ 45.886258318023252, 41.692991280281255 ], [ 45.886121502030356, 41.693173181074719 ], [ 45.886039517106575, 41.693282182135562 ], [ 45.885793518886494, 41.693649404356243 ], [ 45.885528194822811, 41.694009567534835 ], [ 45.885462639837193, 41.694097080510495 ], [ 45.885291588992352, 41.694325914861267 ], [ 45.885253353870461, 41.694377009916089 ], [ 45.884990694530572, 41.694686623700036 ], [ 45.884935230740339, 41.694751991449365 ], [ 45.884912518636668, 41.694781490506578 ], [ 45.884828848804929, 41.694890166793861 ], [ 45.884824420520239, 41.694895785243894 ], [ 45.884809246564487, 41.694915448215667 ], [ 45.884755758096347, 41.694984852926694 ], [ 45.884736041719606, 41.695010403623698 ], [ 45.884710174156851, 41.695052126043848 ], [ 45.884749781402441, 41.695071976126734 ], [ 45.884743173136854, 41.695079522647198 ], [ 45.884751260026412, 41.695086216553335 ], [ 45.884756255343781, 41.695086808585678 ], [ 45.884805254833807, 41.695102058507473 ], [ 45.884813464678565, 41.695091682255629 ], [ 45.884821082974398, 41.695081986084524 ], [ 45.885591511473173, 41.695405798534168 ], [ 45.885595500276068, 41.695407479128981 ], [ 45.885721629554602, 41.695460504149864 ], [ 45.885773634112169, 41.695423219563125 ], [ 45.885785058395378, 41.695415025186065 ], [ 45.885792498047728, 41.695409833838795 ], [ 45.885875927279244, 41.695350600056194 ], [ 45.885895445880003, 41.695336758917108 ], [ 45.885905384183275, 41.695329746896149 ], [ 45.885911297698925, 41.695322810937128 ], [ 45.885943650113461, 41.695285272456275 ], [ 45.885991202168547, 41.695230053089325 ], [ 45.886072087022868, 41.695261269272791 ], [ 45.88613623937713, 41.695286039300598 ], [ 45.886156867183757, 41.695296103204853 ], [ 45.886191831776273, 41.695313172093748 ], [ 45.886240830301197, 41.695337068149271 ], [ 45.8863103960175, 41.695370983492573 ], [ 45.886337304420572, 41.695383340749679 ], [ 45.886445965072916, 41.695433167108185 ], [ 45.886685237241203, 41.695542918150068 ], [ 45.886939455320771, 41.695664577709124 ], [ 45.886962741783442, 41.695675701790201 ], [ 45.887124358519912, 41.695757453962045 ], [ 45.887201144109433, 41.695796356957416 ], [ 45.887225287271789, 41.695808600248313 ], [ 45.887361007951746, 41.695877311694645 ], [ 45.88733568186138, 41.695914526105284 ], [ 45.887954780023108, 41.696195266557908 ], [ 45.888202617627449, 41.696307019843921 ], [ 45.888263248723774, 41.696337760524436 ], [ 45.888376541212558, 41.696387729380589 ], [ 45.888550774273192, 41.696464698346375 ], [ 45.888560819112328, 41.696469799713554 ], [ 45.888682080145735, 41.696531145564933 ], [ 45.888711245362479, 41.696545871668981 ], [ 45.88861238031636, 41.696640444298993 ], [ 45.888590792570952, 41.696661102194597 ], [ 45.888551819008981, 41.696697746869312 ], [ 45.888537345599147, 41.696711414341408 ], [ 45.888506381388083, 41.69674061131682 ], [ 45.888378370579069, 41.696861214194584 ], [ 45.888373387519231, 41.696865891331029 ], [ 45.888339692229174, 41.696897496233674 ], [ 45.888323615723927, 41.696912572158773 ], [ 45.88820562181251, 41.697023189689517 ], [ 45.888188952477527, 41.697038855633799 ], [ 45.888168724050374, 41.69705788167991 ], [ 45.888186269956648, 41.69706661798174 ], [ 45.888187783165279, 41.697067416917761 ], [ 45.888204119376901, 41.697075577110411 ], [ 45.888225719306249, 41.697086353686089 ], [ 45.88857283794804, 41.697259982535854 ], [ 45.888575862524249, 41.697261445306587 ], [ 45.888593106888514, 41.697270093807234 ], [ 45.888696753417939, 41.697321983361626 ], [ 45.888781279495682, 41.697364248090587 ], [ 45.888983973555973, 41.697465630445762 ], [ 45.889059787327824, 41.697503548927301 ], [ 45.889180374988719, 41.697563818604635 ], [ 45.889367436167639, 41.697655683730382 ], [ 45.889371973396756, 41.697657900369528 ], [ 45.889554860855348, 41.697747725875494 ], [ 45.889810218064156, 41.697876891048644 ], [ 45.890132624006569, 41.698040033182927 ], [ 45.890145086822834, 41.698046151486722 ], [ 45.890552616032274, 41.698246642636946 ], [ 45.890556541948506, 41.698248098370058 ], [ 45.890558172895368, 41.698248716221862 ], [ 45.890564756766409, 41.698251187163187 ], [ 45.890583662245909, 41.698258246261666 ], [ 45.890598521644577, 41.698263850556764 ], [ 45.890607702148642, 41.698267247108241 ], [ 45.890613862954972, 41.698269541185205 ], [ 45.890640378708966, 41.698279423538182 ], [ 45.890646358024924, 41.698281628949843 ], [ 45.890654753722643, 41.698284761369678 ], [ 45.890670337240252, 41.69829058521853 ], [ 45.890680544760798, 41.698294379119773 ], [ 45.89076054974376, 41.69833541643991 ], [ 45.89080369929254, 41.698357554463819 ], [ 45.89090603619151, 41.698410082651428 ], [ 45.891203783872363, 41.698579988040052 ], [ 45.891396023966529, 41.698689643559504 ], [ 45.891539810809917, 41.698771662861162 ], [ 45.891633402847887, 41.698826149711813 ], [ 45.891652484763178, 41.698837260420504 ], [ 45.891713983957303, 41.69887835058887 ], [ 45.891770266243164, 41.698915878402836 ], [ 45.891929045589116, 41.699021739522351 ], [ 45.892028163780068, 41.699089063185077 ], [ 45.892029134459769, 41.699089731176194 ], [ 45.892041205695421, 41.69909792392518 ], [ 45.892205472557329, 41.699209461513526 ], [ 45.892243870602492, 41.699235553932539 ], [ 45.892252726306253, 41.699241519872182 ], [ 45.892453125720905, 41.699380383042225 ], [ 45.892530786465635, 41.699434227281088 ], [ 45.892535272560487, 41.699437074682216 ], [ 45.892566703257245, 41.699459032845347 ], [ 45.892595951009397, 41.699479566833581 ], [ 45.892600500931053, 41.699482683946755 ], [ 45.892674881239358, 41.699533941533765 ], [ 45.892964414264092, 41.699739168572385 ], [ 45.89305404837615, 41.699802737054277 ], [ 45.893087361368899, 41.699826076531586 ], [ 45.893237969834182, 41.699931729107973 ], [ 45.893241003988031, 41.699933867206198 ], [ 45.893422012196638, 41.700060719922909 ], [ 45.893464852295402, 41.700090740477663 ], [ 45.893650149014192, 41.700223459078856 ], [ 45.89391981062191, 41.700416588669235 ], [ 45.894001139871278, 41.700479140162876 ], [ 45.894224842900002, 41.700651279944459 ], [ 45.894395448832555, 41.70078172478437 ], [ 45.894410269465858, 41.700793138405537 ], [ 45.894481802757561, 41.700851217256989 ], [ 45.894569472681944, 41.70091592570359 ], [ 45.894605034768858, 41.700880341380149 ], [ 45.894685638941759, 41.700799461391291 ], [ 45.894769800600493, 41.700715130981351 ], [ 45.894883834282666, 41.700600934823846 ], [ 45.894930074653729, 41.700555404565797 ], [ 45.894996103717872, 41.700489544465611 ], [ 45.895056441273063, 41.700429267969199 ], [ 45.89522592792067, 41.700257985441141 ], [ 45.895263295585188, 41.70022265705569 ], [ 45.895322655042534, 41.70016121712635 ], [ 45.89537177699512, 41.700115529132269 ], [ 45.895426597286722, 41.700056106058291 ], [ 45.895446840205473, 41.70003388114467 ], [ 45.895524155612009, 41.699984640796416 ], [ 45.895598253814576, 41.699937407012023 ], [ 45.895775033780744, 41.699850192310173 ], [ 45.89611629474841, 41.699690269216887 ], [ 45.896463724074358, 41.699515975840804 ], [ 45.89675436045416, 41.699380224277441 ], [ 45.896962585183402, 41.699264210131552 ], [ 45.897107439287701, 41.699163011488963 ], [ 45.89719548986001, 41.699090808396271 ], [ 45.897407564943499, 41.69879372243259 ], [ 45.897631856081368, 41.698467808273577 ], [ 45.897787907929334, 41.698247358513193 ], [ 45.897990443631507, 41.698033795949307 ], [ 45.898140631686132, 41.697953495617014 ], [ 45.89816902312014, 41.697938322073618 ], [ 45.898200460110708, 41.697930420399643 ], [ 45.898213573770747, 41.69792712041054 ], [ 45.898251537849973, 41.697917591477498 ], [ 45.898449715518282, 41.697822819638439 ], [ 45.898498892492093, 41.69779932765249 ], [ 45.89878458907679, 41.697662848468774 ], [ 45.899082466128235, 41.697534510190927 ], [ 45.899302871872756, 41.69743956296827 ], [ 45.899581080349748, 41.69732290629463 ], [ 45.899827374405163, 41.697197176591459 ], [ 45.900054758559264, 41.697085735481238 ], [ 45.900249953298378, 41.696941175107533 ], [ 45.900634663528002, 41.696718929919761 ], [ 45.901032493156471, 41.696515540341878 ], [ 45.901498993408232, 41.6962212703341 ], [ 45.901839548047107, 41.696008869887727 ], [ 45.902160754414396, 41.695796620325474 ], [ 45.902412738241729, 41.695623058182854 ], [ 45.902784615969395, 41.695386585392129 ], [ 45.902998519001351, 41.695222868552435 ] ] ] ] } }
]
}
