{
"type": "FeatureCollection",
"name": "ხაშმი-საფერავი",
"crs": { "type": "name", "properties": { "name": "urn:ogc:def:crs:OGC:1.3:CRS84" } },
"features": [
{ "type": "Feature", "properties": { "OBJECTID": 19, "NAME_GEO": "ხაშმის საფერავი", "NAME_ENG": "Khashmi", "Location": "Kakheti", "MoreInfo": "https://www.sakpatenti.gov.ge/media/django-summernote/2025-11-19/0e762df6-9ab1-49b9-ab68-996f6ec8fe0a.pdf" }, "geometry": { "type": "MultiPolygon", "coordinates": [ [ [ [ 45.192964596162703, 41.755278788729527 ], [ 45.193021957900513, 41.755130340909986 ], [ 45.193142972393886, 41.754802423333579 ], [ 45.193196055791596, 41.75466636639711 ], [ 45.193313363340685, 41.754380007064981 ], [ 45.193357418171765, 41.754279473721688 ], [ 45.193399630166745, 41.754188981817485 ], [ 45.19346280591737, 41.754063029877287 ], [ 45.193547524296783, 41.753903395781393 ], [ 45.193648737588219, 41.753721989001242 ], [ 45.193764687426345, 41.753526151400713 ], [ 45.193897994635492, 41.753311104774539 ], [ 45.194077479445049, 41.753030345620367 ], [ 45.194294724804742, 41.752694732435444 ], [ 45.194371609542749, 41.752582338514095 ], [ 45.194443991189452, 41.752482080154429 ], [ 45.19457988209038, 41.752303955437753 ], [ 45.194694562206706, 41.752165371427346 ], [ 45.19482177403038, 41.752024032411342 ], [ 45.194877910448632, 41.75196594801195 ], [ 45.19493214507122, 41.751913015242053 ], [ 45.195051761297449, 41.751805830083569 ], [ 45.195183362093253, 41.751699107218997 ], [ 45.195281978311137, 41.75162584562311 ], [ 45.195389586387144, 41.751551763420871 ], [ 45.195507222118636, 41.751476140061719 ], [ 45.195637231145525, 41.751397463740389 ], [ 45.195750311132784, 41.751333266128526 ], [ 45.19587497397071, 41.751267130157409 ], [ 45.196014114733636, 41.751197470112643 ], [ 45.196180738589611, 41.751117768751207 ], [ 45.196336014880536, 41.751047544844653 ], [ 45.196511325456164, 41.750973670133334 ], [ 45.196698791596681, 41.750898793477191 ], [ 45.197040174525995, 41.750766396630908 ], [ 45.197208205923907, 41.750702498740473 ], [ 45.197394420968834, 41.750634753978503 ], [ 45.198230684940683, 41.750344968747243 ], [ 45.198427952868585, 41.750274175966709 ], [ 45.198603331203977, 41.750208526783645 ], [ 45.198948602237188, 41.750075701408157 ], [ 45.199169152303206, 41.749985979243554 ], [ 45.199364392471331, 41.749901529167694 ], [ 45.199526700380957, 41.749827225653931 ], [ 45.199713993011862, 41.749735828130419 ], [ 45.199876446679717, 41.749650616323343 ], [ 45.200040534955178, 41.749557809392606 ], [ 45.200184857055753, 41.749469435711127 ], [ 45.200328505616433, 41.749373841164108 ], [ 45.200456368995638, 41.749281046347676 ], [ 45.200557202908627, 41.749201174156518 ], [ 45.200656116745833, 41.749116595439261 ], [ 45.200752944937364, 41.74902744649652 ], [ 45.20084749439593, 41.748933909613385 ], [ 45.200929250521583, 41.748846746799813 ], [ 45.201019746284047, 41.748743602728474 ], [ 45.20107856179051, 41.748672984469117 ], [ 45.201139225547401, 41.748596507455673 ], [ 45.201274409189068, 41.748415354083036 ], [ 45.201388266457307, 41.748250046213272 ], [ 45.201562178228848, 41.747979732194494 ], [ 45.201632593017855, 41.747867658125323 ], [ 45.201708460921743, 41.747741804447486 ], [ 45.202031813050887, 41.747186996003897 ], [ 45.202116379206402, 41.747049813881603 ], [ 45.202196380733504, 41.746926828547423 ], [ 45.202324833113337, 41.746734429611379 ], [ 45.202399223996828, 41.746626249005658 ], [ 45.202472190276325, 41.746525614273068 ], [ 45.202541586271479, 41.746436326575576 ], [ 45.202645832603068, 41.746310221364894 ], [ 45.202739700443061, 41.746203246451792 ], [ 45.20283018863973, 41.746107436273675 ], [ 45.202919274136633, 41.746020767064024 ], [ 45.203022369012871, 41.745928172506119 ], [ 45.203117718767835, 41.745849488540607 ], [ 45.203185560804961, 41.74579769238192 ], [ 45.203253959147474, 41.745748427984346 ], [ 45.2033228369949, 41.745701747723828 ], [ 45.203392133153841, 41.745657694941755 ], [ 45.203494870630124, 41.745597429633442 ], [ 45.203605680686586, 41.745538021812145 ], [ 45.203678634420484, 41.745501757086238 ], [ 45.203755594134357, 41.745465840989105 ], [ 45.203922880148944, 41.745394437973552 ], [ 45.204003788507357, 41.745362853403513 ], [ 45.20408961399513, 41.745331464503039 ], [ 45.204279846132167, 41.745267895982693 ], [ 45.204466159973421, 41.745212802559173 ], [ 45.204682214084094, 41.74515638226093 ], [ 45.204871582377137, 41.745112355119822 ], [ 45.205096568870765, 41.745065617820515 ], [ 45.205295661847195, 41.745028494549032 ], [ 45.205572411147401, 41.744981754793855 ], [ 45.205676875615211, 41.744966538666226 ], [ 45.205794174520356, 41.744953417918715 ], [ 45.205918221660063, 41.744942568248497 ], [ 45.20626530070183, 41.744916196335765 ], [ 45.206370794348643, 41.744905848749077 ], [ 45.206464179409778, 41.744894384330728 ], [ 45.206570067649338, 41.744877714695576 ], [ 45.206666567591476, 41.744858004852063 ], [ 45.206755620277796, 41.74483485592107 ], [ 45.206838175000257, 41.744808013112632 ], [ 45.206961851815308, 41.744761009533619 ], [ 45.207076591849457, 41.744712660959991 ], [ 45.207182498409189, 41.744662924899011 ], [ 45.207279547486699, 41.744611811326145 ], [ 45.207367731880986, 41.744559320276778 ], [ 45.207446981983985, 41.744505492428743 ], [ 45.207517258206508, 41.74445035309175 ], [ 45.207578525777173, 41.744393929366218 ], [ 45.20768068650171, 41.744289016035907 ], [ 45.207714621326225, 41.74424993609756 ], [ 45.207742421503056, 41.744213902620736 ], [ 45.207765850038932, 41.744178267948278 ], [ 45.207783734977909, 41.744144348332725 ], [ 45.207796252031926, 41.744111805694033 ], [ 45.207803466789784, 41.74408046427763 ], [ 45.207805610197852, 41.744054808283877 ], [ 45.207804650164469, 41.744027484390159 ], [ 45.207800582478733, 41.743998304356353 ], [ 45.207793357839641, 41.743966896279538 ], [ 45.20777071856174, 41.743899635536145 ], [ 45.207726176297811, 41.743794629752401 ], [ 45.207691495471828, 41.743724549931585 ], [ 45.207644631439592, 41.743648756417898 ], [ 45.207590235691754, 41.743572341493291 ], [ 45.207476782110994, 41.743423312856748 ], [ 45.207402412355165, 41.743325356579739 ], [ 45.207335400185563, 41.743241093928461 ], [ 45.207271195577633, 41.743164810935646 ], [ 45.20720843562399, 41.743094925721266 ], [ 45.207102913824599, 41.742985139693452 ], [ 45.207002509449424, 41.742888403691886 ], [ 45.206904055709529, 41.74280167364055 ], [ 45.206806312814273, 41.742723882637598 ], [ 45.206757403361017, 41.742688482815197 ], [ 45.206704412783942, 41.74265288765443 ], [ 45.206583365775359, 41.74257925911224 ], [ 45.206471238454135, 41.742517101125635 ], [ 45.206236130266326, 41.742393026777343 ], [ 45.206136864164726, 41.742339020191125 ], [ 45.205934063988792, 41.742229395838933 ], [ 45.205703729294903, 41.742111910416071 ], [ 45.20547860322057, 41.742001720846638 ], [ 45.20492227069272, 41.741734621703429 ], [ 45.204633567032523, 41.741590661949978 ], [ 45.204488292671918, 41.741514700065622 ], [ 45.204353945933228, 41.741441492739604 ], [ 45.204228194464378, 41.741369766052898 ], [ 45.204109835833805, 41.741298829526109 ], [ 45.204081147324601, 41.741279781895201 ], [ 45.204050853210262, 41.74125689289157 ], [ 45.203918856005266, 41.741142949115513 ], [ 45.203886359225436, 41.741117523082835 ], [ 45.203856134275526, 41.741096683913256 ], [ 45.203819278517585, 41.741075577278409 ], [ 45.203782762617813, 41.741059636483513 ], [ 45.20374583751839, 41.741048536801266 ], [ 45.203708103588866, 41.741042165450729 ], [ 45.203661888029103, 41.74103895168745 ], [ 45.203623981348777, 41.741033852413537 ], [ 45.203587295453175, 41.741025748908157 ], [ 45.20355175452621, 41.741014623292621 ], [ 45.203517259868057, 41.74100044692014 ], [ 45.203483753701249, 41.740983201879864 ], [ 45.20345105175339, 41.740962800229589 ], [ 45.203418997392149, 41.740939147673032 ], [ 45.203387368820522, 41.740912078873222 ], [ 45.20334173711462, 41.740866322660139 ], [ 45.203294885834971, 41.740811352553173 ], [ 45.203245986096562, 41.740746687237774 ], [ 45.203108048773686, 41.740553189978492 ], [ 45.203062099159226, 41.740496467205269 ], [ 45.203018367177741, 41.74044965998079 ], [ 45.202877634230568, 41.740306306129234 ], [ 45.202736819302501, 41.740153129135386 ], [ 45.202594412902094, 41.739988500479079 ], [ 45.202447542545166, 41.73980910250593 ], [ 45.202324574159832, 41.739652258294399 ], [ 45.202190556659772, 41.739475728619652 ], [ 45.201772574421369, 41.73890845308437 ], [ 45.201626702127015, 41.738713287194514 ], [ 45.201489263085534, 41.738534667629743 ], [ 45.201361081162041, 41.738374226861254 ], [ 45.201027855665259, 41.737971199757411 ], [ 45.200242657886918, 41.737035686403772 ], [ 45.200045274169824, 41.736796623940911 ], [ 45.199868831717019, 41.736579358758121 ], [ 45.199560227028329, 41.736193378065757 ], [ 45.199269766895867, 41.735825221583113 ], [ 45.198994211759938, 41.735470778827171 ], [ 45.1987316754185, 41.735127623961048 ], [ 45.198497849942839, 41.734816424634346 ], [ 45.198259070209964, 41.73449275405352 ], [ 45.198013790822124, 41.734154516198956 ], [ 45.19775947856207, 41.733798223340941 ], [ 45.197498588267273, 41.733427486639137 ], [ 45.197219618508647, 41.73302612384785 ], [ 45.196546047162649, 41.732042848846639 ], [ 45.19643255852403, 41.73187908156234 ], [ 45.196168630105412, 41.731505779884444 ], [ 45.196048591134925, 41.731330869013604 ], [ 45.195917199984805, 41.731128010369176 ], [ 45.195860199839949, 41.73103403934541 ], [ 45.195807975111208, 41.730943381066766 ], [ 45.195790630812503, 41.730907546208876 ], [ 45.195756651790823, 41.730818876203735 ], [ 45.195738704934179, 41.730780199727583 ], [ 45.195713796368921, 41.73074240068658 ], [ 45.195699530035476, 41.73072666348525 ], [ 45.195683810702818, 41.730712746386288 ], [ 45.195650764452708, 41.730690071475401 ], [ 45.195594565146379, 41.730658086612522 ], [ 45.195533399081178, 41.730627408995339 ], [ 45.195461049867447, 41.730598066303621 ], [ 45.195389392810213, 41.730573320506466 ], [ 45.195216662897657, 41.730518216900812 ], [ 45.195133099238369, 41.730487741046908 ], [ 45.195026827934996, 41.730442888733677 ], [ 45.194919070798846, 41.730392930923671 ], [ 45.194808934432892, 41.730337457503296 ], [ 45.194694856974785, 41.730275682091118 ], [ 45.194579276842532, 41.730209163275681 ], [ 45.19445362111081, 41.73013317963381 ], [ 45.193964054102466, 41.729822353739948 ], [ 45.19385177860358, 41.729753061631534 ], [ 45.193749780730215, 41.729692340341515 ], [ 45.193630267242639, 41.729624640962399 ], [ 45.193516324812904, 41.72956419178864 ], [ 45.19340568929001, 41.729509793300998 ], [ 45.193297190203332, 41.729460876428767 ], [ 45.193202499313806, 41.72941469240714 ], [ 45.193175775938919, 41.729404983559583 ], [ 45.193150664598939, 41.729399162157335 ], [ 45.193122305419514, 41.72939608886626 ], [ 45.193080660700922, 41.729394513253162 ], [ 45.193048782609019, 41.729393608458345 ], [ 45.19302976014243, 41.729394598768458 ], [ 45.19299949303074, 41.72940165351929 ], [ 45.192950305633651, 41.729420946438587 ], [ 45.192885497751341, 41.729449824779984 ], [ 45.192788300410001, 41.729502245212068 ], [ 45.192712699052244, 41.729547003044694 ], [ 45.192552321723767, 41.729653825740023 ], [ 45.192478818881462, 41.729698809582018 ], [ 45.192324396714191, 41.729778771854853 ], [ 45.192272298799935, 41.729808070823637 ], [ 45.192228096150359, 41.729836280214421 ], [ 45.192183862480967, 41.729867407936162 ], [ 45.192139152615333, 41.729901762775505 ], [ 45.192093137582674, 41.729939981117226 ], [ 45.192008505087323, 41.730016603539973 ], [ 45.191828045269588, 41.730190113914304 ], [ 45.191744456329921, 41.730272163869088 ], [ 45.191556485674646, 41.730468218469106 ], [ 45.191506433686015, 41.730517059954323 ], [ 45.191459309145785, 41.730560113990606 ], [ 45.191320471040136, 41.730677118499365 ], [ 45.19127693884284, 41.730718066926926 ], [ 45.191234313093126, 41.730762218550268 ], [ 45.191192195793178, 41.730809981152824 ], [ 45.191149887067326, 41.730862144919975 ], [ 45.19107090062915, 41.730969814579638 ], [ 45.190925671331499, 41.73118511094026 ], [ 45.190863255310262, 41.731273467848695 ], [ 45.190793390756937, 41.731363272818847 ], [ 45.190724626923725, 41.731440710091825 ], [ 45.190642303899196, 41.731523292147934 ], [ 45.190439116397833, 41.731717627254319 ], [ 45.1903270797999, 41.731826460829446 ], [ 45.190007319742634, 41.732131332165785 ], [ 45.18991078147814, 41.732226787599181 ], [ 45.189826532632289, 41.7323134992888 ], [ 45.189735874461405, 41.732412041493767 ], [ 45.189655339299101, 41.732506041759777 ], [ 45.189583404137984, 41.732597284222045 ], [ 45.189519345473137, 41.732686697819595 ], [ 45.18944783551116, 41.732800830993355 ], [ 45.189418000023252, 41.732844152004326 ], [ 45.189389176005101, 41.73288059713488 ], [ 45.189356710073312, 41.732917574273081 ], [ 45.189320288239088, 41.732955445117192 ], [ 45.189279258358965, 41.732994891673052 ], [ 45.189193655701175, 41.733070403910489 ], [ 45.189011872710118, 41.733221354619339 ], [ 45.188959323294632, 41.733262995217267 ], [ 45.188847052565663, 41.733344157051555 ], [ 45.188800926958251, 41.733379379380963 ], [ 45.18875584000449, 41.73341822083232 ], [ 45.188719857962965, 41.733455381002621 ], [ 45.188699286777492, 41.733481063351142 ], [ 45.188678753783321, 41.733510761890813 ], [ 45.18861447907527, 41.733618724508659 ], [ 45.188586833982576, 41.733660548328558 ], [ 45.188520594069828, 41.73374751680899 ], [ 45.188434678177437, 41.733851448127716 ], [ 45.188364871776805, 41.733936514664435 ], [ 45.188342482485247, 41.733960252596511 ], [ 45.188320518968801, 41.733980324845191 ], [ 45.188277546993255, 41.734013171128829 ], [ 45.188225267665302, 41.734047208066492 ], [ 45.188176890997511, 41.734074059945868 ], [ 45.188120905453175, 41.734100241525127 ], [ 45.188056171769055, 41.734126403167359 ], [ 45.187971062442429, 41.734157248461656 ], [ 45.187902183727765, 41.734179296958843 ], [ 45.187823690640052, 41.734200350535815 ], [ 45.1877398201623, 41.734219805981787 ], [ 45.187583190788629, 41.734253206934397 ], [ 45.187499390746694, 41.734269227690056 ], [ 45.187284188047329, 41.734304229779532 ], [ 45.187223450707883, 41.734316670257996 ], [ 45.187169809783931, 41.734330141264664 ], [ 45.187075291322977, 41.734358427897639 ], [ 45.18699180821406, 41.734387626025992 ], [ 45.186934882678557, 41.734412115224835 ], [ 45.186875361473561, 41.734443427877146 ], [ 45.186815412018909, 41.734479683379526 ], [ 45.18665023678723, 41.734586227236406 ], [ 45.186596983182902, 41.734616476635161 ], [ 45.186547120699281, 41.734640960476298 ], [ 45.186482919618783, 41.734668743441425 ], [ 45.186416179492888, 41.734695509987546 ], [ 45.186275458069076, 41.734745849982993 ], [ 45.186125833339588, 41.734791664659348 ], [ 45.1859686232808, 41.734832548331759 ], [ 45.185893189297595, 41.734848245432055 ], [ 45.185809056167976, 41.734861343596073 ], [ 45.185708512925558, 41.734872891981851 ], [ 45.185491070300316, 41.734892326494567 ], [ 45.185396643339878, 41.734902377665222 ], [ 45.185298192614283, 41.734916546078075 ], [ 45.185211692857976, 41.734933862033444 ], [ 45.185075365846828, 41.734968547277006 ], [ 45.184931932553646, 41.735010572856133 ], [ 45.18482978369159, 41.73504354819655 ], [ 45.184731048988205, 41.735077913153866 ], [ 45.184635802922323, 41.735113641496682 ], [ 45.18454410435659, 41.735150712422872 ], [ 45.184456014546448, 41.735189100622684 ], [ 45.184371567113857, 41.735228788937036 ], [ 45.184290801699056, 41.735269761998325 ], [ 45.184213749515123, 41.735312000849348 ], [ 45.184093859022951, 41.735384885518791 ], [ 45.183953333216564, 41.735479237243865 ], [ 45.183844921284695, 41.735557197678993 ], [ 45.183737805290697, 41.735639763059311 ], [ 45.183632105210457, 41.735726843125732 ], [ 45.183527960187462, 41.735818321468415 ], [ 45.183472725984899, 41.735872660206077 ], [ 45.183338628609839, 41.736017527011924 ], [ 45.183296345401459, 41.736057144546962 ], [ 45.183255111983883, 41.736090432919873 ], [ 45.183202700618985, 41.736126502471322 ], [ 45.183140730621581, 41.736163924784719 ], [ 45.183075123827933, 41.736199967570272 ], [ 45.182937460920819, 41.736272056991204 ], [ 45.182820159815911, 41.736332637034245 ], [ 45.182691190503235, 41.736395366583309 ], [ 45.18254733956465, 41.73646186297092 ], [ 45.182371881272218, 41.736539866348842 ], [ 45.182247154240457, 41.736590905584947 ], [ 45.182014145725844, 41.736677786080875 ], [ 45.181923814859083, 41.736712920722987 ], [ 45.181833720019263, 41.736751192085279 ], [ 45.181755335518616, 41.736788688259963 ], [ 45.18164510776996, 41.736847461700634 ], [ 45.181537949688838, 41.736909582619333 ], [ 45.181434682460022, 41.736974575054987 ], [ 45.181336063539177, 41.737041962249023 ], [ 45.181276863664408, 41.737085458056242 ], [ 45.181217847561115, 41.737131471921387 ], [ 45.18109995269814, 41.737231385038363 ], [ 45.180981399908077, 41.737342515580679 ], [ 45.180860000226005, 41.737466908895115 ], [ 45.180816938130022, 41.737515252789628 ], [ 45.180772677664493, 41.737569825144263 ], [ 45.180724946437678, 41.737633354171798 ], [ 45.18058524021022, 41.737826740453905 ], [ 45.180537732468245, 41.73788690040368 ], [ 45.180492241361648, 41.737939346208655 ], [ 45.180419648590998, 41.738013385779844 ], [ 45.180249641960252, 41.738173555186393 ], [ 45.180181283664005, 41.738244875030816 ], [ 45.1800860688504, 41.738356782272838 ], [ 45.179999211378011, 41.738469076256671 ], [ 45.179920997666912, 41.738581386362 ], [ 45.179851631378121, 41.738693418657135 ], [ 45.179803856285012, 41.738785818633104 ], [ 45.179781990524809, 41.73882221710479 ], [ 45.179766875468196, 41.73884162397519 ], [ 45.179723724187824, 41.738889657745311 ], [ 45.179705893611555, 41.738917660702185 ], [ 45.179696366819741, 41.738947410652742 ], [ 45.17968704207091, 41.739003483458397 ], [ 45.179679494539975, 41.73905475091226 ], [ 45.179675571800225, 41.739111285437893 ], [ 45.179675017796271, 41.739176137230885 ], [ 45.17967928345174, 41.739372047907985 ], [ 45.179676281987803, 41.73943423382876 ], [ 45.179669306417473, 41.739489668856947 ], [ 45.179650846292901, 41.739586993918984 ], [ 45.179631602854677, 41.739661312535411 ], [ 45.179609531642313, 41.739722951808659 ], [ 45.179580628682125, 41.739785950112932 ], [ 45.179544666864331, 41.739850811293174 ], [ 45.179501138833146, 41.739918456658067 ], [ 45.179452984297818, 41.739985218431791 ], [ 45.179395663768261, 41.74005811750262 ], [ 45.179213297733035, 41.740272046209824 ], [ 45.17913892384243, 41.740355750507447 ], [ 45.179056170966092, 41.740442810337036 ], [ 45.17896375248543, 41.740534600361926 ], [ 45.178857936151601, 41.740634834579147 ], [ 45.178679454513237, 41.740802267278532 ], [ 45.17857538252737, 41.740893475235545 ], [ 45.178522424433076, 41.740935970019088 ], [ 45.178470888263369, 41.74097430670713 ], [ 45.178419919530491, 41.741009119825556 ], [ 45.178369047698204, 41.741040726253757 ], [ 45.178209553012323, 41.741126425604634 ], [ 45.178041195578338, 41.741224649286025 ], [ 45.177887494539164, 41.741322239350971 ], [ 45.177747128209745, 41.741420038262454 ], [ 45.177681730724245, 41.741469165788061 ], [ 45.177619435291099, 41.741518511856285 ], [ 45.177511165520229, 41.741611759124183 ], [ 45.177365510356339, 41.741747684552998 ], [ 45.177306716487301, 41.741805788022042 ], [ 45.177244289765454, 41.741872338489358 ], [ 45.177048447590799, 41.742096604783761 ], [ 45.176974936581153, 41.742177496121109 ], [ 45.176899277862645, 41.742254142082658 ], [ 45.176826152251614, 41.742320465597828 ], [ 45.176762161061149, 41.742373403120844 ], [ 45.176690389539885, 41.742429709506226 ], [ 45.176502270781512, 41.742568808351535 ], [ 45.176429518388481, 41.742622816574496 ], [ 45.176387941856696, 41.742650010594318 ], [ 45.176344102667549, 41.742674839212683 ], [ 45.176305934407935, 41.742694142284115 ], [ 45.176269938629872, 41.742709684261435 ], [ 45.176235402922678, 41.742721738252868 ], [ 45.17617317258604, 41.742738109453263 ], [ 45.176120917096874, 41.74274574468842 ], [ 45.176090223145486, 41.742746122290022 ], [ 45.176055683217037, 41.742743002026927 ], [ 45.175942661213313, 41.742722186873053 ], [ 45.175878962376373, 41.742709029590401 ], [ 45.175810111028248, 41.742690423674446 ], [ 45.175740104649798, 41.74266809235904 ], [ 45.175547783120749, 41.742602167279998 ], [ 45.17548784784038, 41.742584263610404 ], [ 45.175433129928756, 41.742570445656284 ], [ 45.175191170356086, 41.742523153016506 ], [ 45.175101333781413, 41.7424998130288 ], [ 45.175003786742742, 41.742469225918022 ], [ 45.17490908946121, 41.742435766535827 ], [ 45.174666010687986, 41.742345265783975 ], [ 45.174594161176792, 41.742320615448925 ], [ 45.174528713830078, 41.742300147234445 ], [ 45.174241549952718, 41.74220959634313 ], [ 45.174116494663195, 41.742174056668439 ], [ 45.174049456443662, 41.742158006756789 ], [ 45.173986126770274, 41.742145374777486 ], [ 45.173925313191369, 41.742135925655731 ], [ 45.173866404508864, 41.74212956574614 ], [ 45.17379638813523, 41.742124906028657 ], [ 45.173757678365796, 41.742126406603212 ], [ 45.173717278104384, 41.742131181087878 ], [ 45.173676083022592, 41.742139125446485 ], [ 45.173635200163034, 41.742150027239894 ], [ 45.173595724351735, 41.742163602893136 ], [ 45.173558920808496, 41.742179427164366 ], [ 45.173525889857984, 41.742197023721964 ], [ 45.173497529786594, 41.742215916540289 ], [ 45.17348391354745, 41.742227511182158 ], [ 45.173471512022438, 41.742240916210775 ], [ 45.173449714101551, 41.742273896973877 ], [ 45.173433673338103, 41.742308732605657 ], [ 45.17339983437595, 41.742397500598273 ], [ 45.17337721802064, 41.742440111137896 ], [ 45.173352119171284, 41.742475483735134 ], [ 45.173321602640797, 41.742513621562381 ], [ 45.173197340013878, 41.7426526997236 ], [ 45.17314884574003, 41.742712132089295 ], [ 45.173120280318621, 41.742752753772898 ], [ 45.173091281993798, 41.742799227993196 ], [ 45.173003072338609, 41.742958453574126 ], [ 45.172968098401334, 41.743017216093641 ], [ 45.172929201541677, 41.743073802093512 ], [ 45.172889024069242, 41.743122420553412 ], [ 45.172858608518723, 41.743153583929519 ], [ 45.17282234372113, 41.743186714231534 ], [ 45.172670711838464, 41.743310768649827 ], [ 45.172609659056263, 41.743365919679164 ], [ 45.172523202555347, 41.743461962173662 ], [ 45.172482735282578, 41.743499565280942 ], [ 45.172452083757179, 41.743521334531238 ], [ 45.172414705482666, 41.743542999477242 ], [ 45.172274475217229, 41.743609779235747 ], [ 45.172222180232289, 41.743638176746828 ], [ 45.172149403538924, 41.743683080647379 ], [ 45.172096862435289, 41.743717535721991 ], [ 45.172051512924959, 41.74375009482533 ], [ 45.172012547557024, 41.743781478839281 ], [ 45.171977432694149, 41.743813173224908 ], [ 45.171943374480847, 41.743846951154289 ], [ 45.171910573230591, 41.743882614173188 ], [ 45.171879271177936, 41.743919898913965 ], [ 45.171845322589881, 41.743965964089178 ], [ 45.171812474066719, 41.744018223569796 ], [ 45.171779903256017, 41.744077683774513 ], [ 45.171739896470925, 41.744158419865222 ], [ 45.171714801834284, 41.744217627486336 ], [ 45.171667904385508, 41.74434923224252 ], [ 45.171645082589009, 41.744401640620019 ], [ 45.171607941620202, 41.744466649646292 ], [ 45.171513999898394, 41.744607273103703 ], [ 45.171480325139086, 41.744668796582623 ], [ 45.171437480480293, 41.744769418989947 ], [ 45.1714223522739, 41.744813382525685 ], [ 45.171410814445984, 41.744854783597447 ], [ 45.171394361195695, 41.744933699218066 ], [ 45.171385988014258, 41.745002849033554 ], [ 45.171385333862595, 41.745065299589299 ], [ 45.17139243181515, 41.745121720961819 ], [ 45.17140265470907, 41.74516018659304 ], [ 45.171417782793327, 41.745199791504717 ], [ 45.171437842714084, 41.745240602307391 ], [ 45.17146288891167, 41.745282735108312 ], [ 45.17149283577681, 41.745326103564175 ], [ 45.171528016678778, 41.745371239490915 ], [ 45.171568738199753, 41.745418550445905 ], [ 45.171616105448862, 41.745469323683459 ], [ 45.171641649082403, 41.745493588388605 ], [ 45.171672880257269, 41.745519204657199 ], [ 45.171813196222693, 41.745621724092913 ], [ 45.171841422859615, 41.745645860443631 ], [ 45.171864843653886, 41.74566913389333 ], [ 45.171908573573262, 41.7457182560494 ], [ 45.171935078713837, 41.745754821096604 ], [ 45.171949902660224, 41.74578123284293 ], [ 45.171962463375536, 41.745808633347032 ], [ 45.171972530992605, 41.745836515856084 ], [ 45.171979921357753, 41.74586437805219 ], [ 45.171983388801429, 41.745886935555134 ], [ 45.171984566867792, 41.745912406666591 ], [ 45.171980277502286, 41.745997832468255 ], [ 45.171977163336678, 41.746041408795485 ], [ 45.171970492662119, 41.746089900195088 ], [ 45.171930761318237, 41.74629814619292 ], [ 45.17192535011624, 41.74634810205292 ], [ 45.171924054480805, 41.746393514897157 ], [ 45.171926647221383, 41.746492581495339 ], [ 45.171930701625598, 41.746525966409045 ], [ 45.17193721505172, 41.74655554756341 ], [ 45.171953003063926, 41.746600179149162 ], [ 45.171976226915348, 41.746647306268642 ], [ 45.172007024553629, 41.746697235851606 ], [ 45.172046123215594, 41.746751159337876 ], [ 45.172066773441244, 41.746775337596304 ], [ 45.172091022150369, 41.746799043895685 ], [ 45.172119096057564, 41.746822503070682 ], [ 45.17215146769081, 41.746846111621991 ], [ 45.172221722753925, 41.746890055375943 ], [ 45.172368281738763, 41.746971234227857 ], [ 45.172427428873185, 41.747006227988258 ], [ 45.172484723984169, 41.747045303796099 ], [ 45.172530514551298, 41.747083711412778 ], [ 45.172569678789841, 41.747124144743296 ], [ 45.172649560550418, 41.747215493248312 ], [ 45.17268370773656, 41.747250300160808 ], [ 45.172817666689369, 41.747364488431096 ], [ 45.17293251104303, 41.747470119782449 ], [ 45.172994581550242, 41.747534225971776 ], [ 45.173020762276792, 41.747565922928779 ], [ 45.17304238000311, 41.747596326132026 ], [ 45.173059754658176, 41.747625887256739 ], [ 45.173073023987421, 41.747654844784435 ], [ 45.173083424625986, 41.747685971929002 ], [ 45.173091098524139, 41.747719280186494 ], [ 45.173096052984349, 41.747754802872564 ], [ 45.173098299003819, 41.747792605722474 ], [ 45.173097847262284, 41.747832636479316 ], [ 45.173094708196707, 41.747875200466609 ], [ 45.173080233725763, 41.74796940639218 ], [ 45.173065840724689, 41.748025892427769 ], [ 45.173044058050671, 41.748086851687432 ], [ 45.173014529704531, 41.748153642066711 ], [ 45.172972753544876, 41.748236478037256 ], [ 45.172954416345242, 41.74826822490013 ], [ 45.172931078452208, 41.748302784985142 ], [ 45.172846683868841, 41.748412472035213 ], [ 45.172818124073842, 41.748452164067395 ], [ 45.172794011318821, 41.748491152258353 ], [ 45.172776233584038, 41.748527514367751 ], [ 45.172752515991441, 41.748588303540934 ], [ 45.17273607383553, 41.748640584512337 ], [ 45.172725678855343, 41.74868829251416 ], [ 45.172721211677391, 41.74873220683812 ], [ 45.172723903276015, 41.748780159073299 ], [ 45.172735477761123, 41.748833699444027 ], [ 45.172752045690885, 41.748884394181644 ], [ 45.172799993906871, 41.749011472020321 ], [ 45.172818609257817, 41.749060907183036 ], [ 45.172841764431588, 41.749111904542815 ], [ 45.172869689351096, 41.749164980756063 ], [ 45.172902908709688, 41.749221134813098 ], [ 45.172971853991072, 41.749324867106679 ], [ 45.173151416081083, 41.749576122334332 ], [ 45.173196668818349, 41.749645857923269 ], [ 45.173233500747045, 41.74970921388131 ], [ 45.173267908800092, 41.749778696479169 ], [ 45.173293723581011, 41.749844773848459 ], [ 45.173311399259099, 41.74990862073097 ], [ 45.173321103484099, 41.749970866470875 ], [ 45.173325784162593, 41.750068149130172 ], [ 45.173322182859145, 41.750170475622419 ], [ 45.173310329207943, 41.750276804686166 ], [ 45.17329039457357, 41.750385575137443 ], [ 45.173255216988167, 41.750529686134385 ], [ 45.173237154613567, 41.750589131112704 ], [ 45.1732177858581, 41.750643609765248 ], [ 45.173196366388261, 41.750694983170369 ], [ 45.173172998424029, 41.750742798118075 ], [ 45.173147497745269, 41.750787430479058 ], [ 45.173119738629886, 41.750829093007944 ], [ 45.173087189109985, 41.750870886142827 ], [ 45.17304731558616, 41.750915755399625 ], [ 45.173001063173757, 41.750963156222191 ], [ 45.172922994011905, 41.751039104135792 ], [ 45.172884233099886, 41.751075098810645 ], [ 45.172838834480288, 41.751113995622362 ], [ 45.172642600737213, 41.75127158443501 ], [ 45.172567370631704, 41.751339912372906 ], [ 45.172475058324117, 41.751432559730517 ], [ 45.172412659153217, 41.751499910854555 ], [ 45.172361076140199, 41.751562565654041 ], [ 45.172319895745957, 41.751621492121458 ], [ 45.172292621429015, 41.751670710635942 ], [ 45.172268416310452, 41.751727455339662 ], [ 45.172249006805984, 41.751784221671258 ], [ 45.172204650984391, 41.751930092539091 ], [ 45.17217453569414, 41.752007775768028 ], [ 45.172155190022288, 41.752045278600555 ], [ 45.172091208202055, 41.752154952454447 ], [ 45.17207585825998, 41.752190228148777 ], [ 45.172066906262266, 41.752222417450596 ], [ 45.172062366102608, 41.752264482683465 ], [ 45.172063877909935, 41.752311724213506 ], [ 45.172071060867509, 41.752364315546089 ], [ 45.172086586492497, 41.752441634955566 ], [ 45.172106408983964, 41.75252088534279 ], [ 45.172131547485201, 41.752594087632389 ], [ 45.172158884573498, 41.752651446819087 ], [ 45.172218614637487, 41.752753662109818 ], [ 45.17224028703982, 41.752794106415685 ], [ 45.17231008635823, 41.752922446827654 ], [ 45.172334997206747, 41.752974249554455 ], [ 45.172354106463352, 41.753029509778187 ], [ 45.172359412190509, 41.753055151200485 ], [ 45.172361986302356, 41.753079898717097 ], [ 45.172361484848807, 41.753121760642472 ], [ 45.172355875945655, 41.753175233112827 ], [ 45.172351158612557, 41.753199133194464 ], [ 45.172342903330268, 41.753225579471753 ], [ 45.172306508737968, 41.753312235953736 ], [ 45.172295095944335, 41.753344068675247 ], [ 45.172287905390199, 41.753375559101428 ], [ 45.172286473395999, 41.753404116302981 ], [ 45.172290014935193, 41.753435744656848 ], [ 45.172297552873289, 41.753469831346912 ], [ 45.172309134800216, 41.753506627597645 ], [ 45.172325045831506, 41.75354704539447 ], [ 45.172344734098544, 41.7535839744966 ], [ 45.17237325164151, 41.753622845780477 ], [ 45.172406744262737, 41.753660399066149 ], [ 45.172502607198844, 41.753759191330943 ], [ 45.172528346011788, 41.753789855018837 ], [ 45.172548548447786, 41.753818386039185 ], [ 45.172589951201608, 41.753887820455716 ], [ 45.172625299262897, 41.753956492048957 ], [ 45.172639808273665, 41.75399159504353 ], [ 45.172652360319276, 41.754031656655691 ], [ 45.172681502465245, 41.754160708208175 ], [ 45.172692940559244, 41.754203848297067 ], [ 45.172706164596349, 41.754241936347917 ], [ 45.172721632369409, 41.754275685030372 ], [ 45.172753114189213, 41.754332015527666 ], [ 45.172785790729471, 41.75438304897466 ], [ 45.172819980876696, 41.754429283881443 ], [ 45.172855823435633, 41.754470899278232 ], [ 45.172913238887077, 41.754526690820697 ], [ 45.172979201970193, 41.754580242923318 ], [ 45.173052155196615, 41.75463028792327 ], [ 45.173130074022403, 41.754675434566735 ], [ 45.173165271861258, 41.754692316579089 ], [ 45.173206162401797, 41.754708576619201 ], [ 45.173390181423954, 41.75476763390683 ], [ 45.173431925248515, 41.754783129681606 ], [ 45.173467760015775, 41.754798847829527 ], [ 45.173545038199997, 41.754837293012237 ], [ 45.173606989736918, 41.754871343344 ], [ 45.173659566797895, 41.754904279227972 ], [ 45.173703643092757, 41.754936711835462 ], [ 45.173729122682147, 41.754960518573455 ], [ 45.173750978061335, 41.754987898478227 ], [ 45.173769445773061, 41.755019141221034 ], [ 45.17378490159777, 41.755054873125623 ], [ 45.173795390375759, 41.75508733127338 ], [ 45.173804713754286, 41.755124757669343 ], [ 45.173837521787526, 41.755294050451461 ], [ 45.173849337147004, 41.75533488314052 ], [ 45.173863233116762, 41.755370226486839 ], [ 45.173880144934991, 41.755402086745406 ], [ 45.173900097090566, 41.755430177453768 ], [ 45.17392336367184, 41.755454881895758 ], [ 45.173950134062601, 41.755476397037036 ], [ 45.173991606593972, 41.755503458967105 ], [ 45.174037141710315, 41.75553958482562 ], [ 45.174077394468384, 41.755581288627226 ], [ 45.174112789434503, 41.755628996668065 ], [ 45.174144020769695, 41.755683635626241 ], [ 45.174165392546335, 41.755730420063777 ], [ 45.174185712858396, 41.755783812760157 ], [ 45.174252494666433, 41.755999987815329 ], [ 45.174285993617332, 41.756089259890928 ], [ 45.174313999200599, 41.756157245829669 ], [ 45.174342255287179, 41.756233766458038 ], [ 45.174425006065313, 41.75648397640844 ], [ 45.174456198677241, 41.756572924972083 ], [ 45.174489302018429, 41.75665715003138 ], [ 45.174523251876245, 41.75673234242926 ], [ 45.17461518651978, 41.756917144418239 ], [ 45.174689179689913, 41.757050701902372 ], [ 45.174726651171191, 41.757111357814551 ], [ 45.174764507064943, 41.757167805938373 ], [ 45.174803193040518, 41.757220710315487 ], [ 45.174842979549275, 41.75727044072314 ], [ 45.174885357033816, 41.757317011104362 ], [ 45.174986903028937, 41.757418775712701 ], [ 45.175028107291958, 41.757465574804293 ], [ 45.175068337917374, 41.757519257646955 ], [ 45.175108642301211, 41.757580136090397 ], [ 45.175149504662677, 41.757648442678615 ], [ 45.175207116642355, 41.757751275633545 ], [ 45.175267660816061, 41.757864456781235 ], [ 45.175322015423966, 41.757975158693299 ], [ 45.175370268738867, 41.758083564086903 ], [ 45.175412470348824, 41.758189784581496 ], [ 45.17544866868738, 41.758293948910712 ], [ 45.175478868592549, 41.758396078689806 ], [ 45.175503083405012, 41.758496225243412 ], [ 45.175521321601011, 41.758594420087128 ], [ 45.17552712699144, 41.758641663966337 ], [ 45.175530543468057, 41.7586946877109 ], [ 45.17553450316899, 41.758919243443366 ], [ 45.175538661255331, 41.758969388302127 ], [ 45.175545230351425, 41.759014789070406 ], [ 45.175567495602067, 41.759122465763085 ], [ 45.175593032032722, 41.759213921172126 ], [ 45.17560755355828, 41.759253907357582 ], [ 45.175657128851881, 41.759375875190081 ], [ 45.175674335085596, 41.759433374155797 ], [ 45.175688245378382, 41.759498414349707 ], [ 45.175717170522205, 41.759708369283054 ], [ 45.175729702185151, 41.759780411849405 ], [ 45.175746117845193, 41.759846139941196 ], [ 45.175766788262678, 41.759904760370198 ], [ 45.175810910327101, 41.759991101008936 ], [ 45.175824417275727, 41.76002859376365 ], [ 45.175832632910328, 41.760081695709026 ], [ 45.17583306968713, 41.760105969915308 ], [ 45.175831056552049, 41.760128674340748 ], [ 45.175824858887545, 41.76016613690031 ], [ 45.175817600886333, 41.760191510931691 ], [ 45.175807110437304, 41.760212451239155 ], [ 45.17579313575424, 41.760228824002212 ], [ 45.175773061994228, 41.760242982256031 ], [ 45.175735935739709, 41.760262274482002 ], [ 45.175703427231916, 41.760275237592943 ], [ 45.175662946623675, 41.760284664109442 ], [ 45.175621314168474, 41.760290342741484 ], [ 45.175520878072206, 41.760299933791913 ], [ 45.175474276134373, 41.760307820382046 ], [ 45.175453024826332, 41.760313680390688 ], [ 45.175434597801811, 41.760320761941252 ], [ 45.175418682623842, 41.760329188007837 ], [ 45.175405126736806, 41.760339039887683 ], [ 45.175388920433448, 41.76035453511961 ], [ 45.175373058055349, 41.760373080508693 ], [ 45.175341691288473, 41.760420163143969 ], [ 45.175328907805422, 41.760446413854261 ], [ 45.175318772780081, 41.760476910043245 ], [ 45.175297572085022, 41.760582282423435 ], [ 45.17528683995554, 41.760635620471717 ], [ 45.175278135759079, 41.760691513424078 ], [ 45.17526644512138, 41.760813485671186 ], [ 45.175261759368958, 41.760943849896407 ], [ 45.175260985983684, 41.761173351329532 ], [ 45.175263023501465, 41.761274026198016 ], [ 45.175270672076032, 41.761386310684259 ], [ 45.1753102029394, 41.76173969916195 ], [ 45.175321152861436, 41.761858238489566 ], [ 45.175326764421065, 41.761963705940019 ], [ 45.175327057198693, 41.762059770051273 ], [ 45.175319138637668, 41.762227118475302 ], [ 45.175302592275607, 41.762426807213984 ], [ 45.175293683349601, 41.762502592503097 ], [ 45.175280515933686, 41.762586845497282 ], [ 45.175227018300745, 41.762865065281524 ], [ 45.175209349112336, 41.762967920153635 ], [ 45.175196329088166, 41.763069282671914 ], [ 45.175190002806737, 41.763160978537769 ], [ 45.175189736482629, 41.763227150932345 ], [ 45.175193421468947, 41.763301055245428 ], [ 45.175216421945819, 41.763533601637675 ], [ 45.175222427102874, 41.76361129346855 ], [ 45.175224755225202, 41.763679926226025 ], [ 45.175223414212709, 41.763742408270119 ], [ 45.17522090344972, 41.76385559449664 ], [ 45.175217988625882, 41.763901629391825 ], [ 45.175210678947401, 41.763948931973445 ], [ 45.175198623949136, 41.763990289941901 ], [ 45.175182174211798, 41.764028541778572 ], [ 45.175160828746193, 41.764068361995427 ], [ 45.175134616267549, 41.764109696503724 ], [ 45.175103573899513, 41.764152486697846 ], [ 45.175075547544672, 41.764185995042496 ], [ 45.175043073188874, 41.764219382256861 ], [ 45.175005952884831, 41.764252854899752 ], [ 45.174963792997858, 41.764286770244674 ], [ 45.174917685192064, 41.764320431281071 ], [ 45.174865032845752, 41.764355888354245 ], [ 45.174722399116298, 41.764443806834976 ], [ 45.174680759523632, 41.764466060778055 ], [ 45.174563956256577, 41.764520812817736 ], [ 45.174532014303409, 41.764539508605289 ], [ 45.17450626167745, 41.764558525541702 ], [ 45.174466417083913, 41.764596396677796 ], [ 45.174430086735079, 41.764639666684729 ], [ 45.1744005446958, 41.764683658647826 ], [ 45.174379390572966, 41.764725535631186 ], [ 45.174369838912803, 41.764759512047071 ], [ 45.174367495014032, 41.76479848273182 ], [ 45.174370812101785, 41.76483679631859 ], [ 45.174385414744684, 41.764932760305129 ], [ 45.174386454012343, 41.764982901780499 ], [ 45.174367716919043, 41.765116384719903 ], [ 45.17436624881455, 41.765161124878851 ], [ 45.174369811997202, 41.765211231898093 ], [ 45.174397672991049, 41.765378472719874 ], [ 45.17440453646271, 41.765440221719849 ], [ 45.174404006505839, 41.765500857864211 ], [ 45.174400343480919, 41.765528515012683 ], [ 45.174394368154267, 41.76555483722575 ], [ 45.17437947223933, 41.765624758004989 ], [ 45.174370617478651, 41.765653570527334 ], [ 45.174356487838999, 41.765679488087443 ], [ 45.174347631700591, 41.765689578593701 ], [ 45.174337459453056, 41.765697910221597 ], [ 45.174317857346388, 41.765708389021036 ], [ 45.174291674828979, 41.765717231314177 ], [ 45.17419750552682, 41.765736252866013 ], [ 45.174133906474843, 41.765746933437043 ], [ 45.174019315475043, 41.765760353695136 ], [ 45.173885419744757, 41.7657736922705 ], [ 45.173735004274143, 41.76578245037566 ], [ 45.173591999677377, 41.765786745812164 ], [ 45.173263255355131, 41.765792354426466 ], [ 45.173109655188554, 41.765797964955141 ], [ 45.172979227423227, 41.765806742393373 ], [ 45.172860815205354, 41.765819297169735 ], [ 45.172720808996971, 41.765838572909921 ], [ 45.172654668097515, 41.765850370653006 ], [ 45.172581760898225, 41.765866582960228 ], [ 45.172350717599578, 41.765927502963017 ], [ 45.172269763746705, 41.765947187643896 ], [ 45.172193089823431, 41.765962614534587 ], [ 45.17212273998139, 41.765972924913385 ], [ 45.172021966210991, 41.765981219995538 ], [ 45.17190829648483, 41.765984039996177 ], [ 45.171800001326886, 41.765982517664462 ], [ 45.171550965524879, 41.765974579886837 ], [ 45.171435183640114, 41.765973952880039 ], [ 45.171320324593054, 41.765972450698442 ], [ 45.171059746895956, 41.765961001011469 ], [ 45.170946066476731, 41.765960701841742 ], [ 45.170877998651285, 41.765964205052256 ], [ 45.170815545483762, 41.765970853236908 ], [ 45.170757456135469, 41.765980784269985 ], [ 45.170703116119952, 41.765994108056219 ], [ 45.17062611548063, 41.766014889066845 ], [ 45.17060498619518, 41.766023181692532 ], [ 45.170588623552995, 41.766032407571274 ], [ 45.170570081093594, 41.766048961201726 ], [ 45.170554240334162, 41.766071269914505 ], [ 45.170540935295669, 41.766098897115981 ], [ 45.170525252169604, 41.766142125321366 ], [ 45.170519457629439, 41.766164646095234 ], [ 45.17051699161842, 41.76619020270256 ], [ 45.170522120231787, 41.766287846619775 ], [ 45.170519377705062, 41.766328016644017 ], [ 45.170510449695406, 41.766362568254806 ], [ 45.170483002415807, 41.766440208158393 ], [ 45.170475204507461, 41.766475835329778 ], [ 45.170473157082306, 41.766511368401559 ], [ 45.170475313568325, 41.766551118632229 ], [ 45.170494820745773, 41.766671221856534 ], [ 45.170504346909979, 41.766715343970183 ], [ 45.170519068347922, 41.766764132120279 ], [ 45.17057790346913, 41.766918284772323 ], [ 45.170596207782971, 41.766971600829557 ], [ 45.170609367496439, 41.767021207321626 ], [ 45.170616829138723, 41.767066637607464 ], [ 45.170625730087686, 41.767158985173893 ], [ 45.170627535852724, 41.767223884445187 ], [ 45.170622835057088, 41.767281893993911 ], [ 45.17061116953434, 41.767333554921599 ], [ 45.170597207747349, 41.767371316006795 ], [ 45.17057321115734, 41.767424169755252 ], [ 45.170543284955492, 41.767479944272516 ], [ 45.170503579278225, 41.767540035051816 ], [ 45.170461102764627, 41.767596484783127 ], [ 45.170352389252642, 41.767732989021916 ], [ 45.170300464624084, 41.767805872513541 ], [ 45.170221889210154, 41.767934968702384 ], [ 45.17014295097237, 41.768081682218522 ], [ 45.170072968532679, 41.768224357179371 ], [ 45.169909706353316, 41.768572502385943 ], [ 45.169819104894707, 41.768750298148142 ], [ 45.169770799306292, 41.768834685217925 ], [ 45.169712964532842, 41.768926727003425 ], [ 45.169647443002269, 41.769024328437162 ], [ 45.169455240655026, 41.769301915905537 ], [ 45.169398572594822, 41.769389131641589 ], [ 45.169350940864952, 41.769468000728843 ], [ 45.16930083706643, 41.769560330835482 ], [ 45.169260166101672, 41.769647755307105 ], [ 45.169228113305948, 41.769732035326633 ], [ 45.169204344209902, 41.76981407389799 ], [ 45.169182174370711, 41.769911350895988 ], [ 45.169167313390147, 41.769992063115126 ], [ 45.169158050899597, 41.770065549759394 ], [ 45.169154250551827, 41.770133485437086 ], [ 45.169155870064287, 41.770187554025092 ], [ 45.169167496858705, 41.770328880544298 ], [ 45.169167518564294, 41.770423236301113 ], [ 45.169157034895584, 41.770635064525507 ], [ 45.169155815707938, 41.770729260878554 ], [ 45.169162376184197, 41.770919172425529 ], [ 45.169168093179593, 41.770996392931515 ], [ 45.169175804972298, 41.771067633438079 ], [ 45.169185095043034, 41.771127312905939 ], [ 45.16922103528524, 41.771320176905128 ], [ 45.169230672428384, 41.771397891518404 ], [ 45.169238734458901, 41.771483777819775 ], [ 45.169253934903331, 41.771725258025995 ], [ 45.169257841979409, 41.771831116308427 ], [ 45.169261249350953, 41.7720819082178 ], [ 45.169267933675485, 41.772206625807421 ], [ 45.169286826433179, 41.772407615778981 ], [ 45.169307251457091, 41.772563489114752 ], [ 45.169333047921626, 41.772703448127004 ], [ 45.169365078968987, 41.772830858365268 ], [ 45.169378545244761, 41.772871120612301 ], [ 45.169419850791414, 41.772978419793297 ], [ 45.169429560847718, 41.7730109559458 ], [ 45.169435667777023, 41.773040468350082 ], [ 45.16944259188088, 41.773105256444694 ], [ 45.169442360049132, 41.773164379768509 ], [ 45.169438746832043, 41.773192731991315 ], [ 45.169431447643234, 41.773224079980338 ], [ 45.169396480010604, 41.773329273189589 ], [ 45.169385596682368, 41.773369411005959 ], [ 45.169372982659432, 41.773440474272924 ], [ 45.169365178884995, 41.773515129651862 ], [ 45.169362096029744, 41.77359417529722 ], [ 45.169363667328945, 41.773679210954235 ], [ 45.169373916980682, 41.773814833449435 ], [ 45.169413802080591, 41.774144338765325 ], [ 45.169426231808906, 41.774293999071205 ], [ 45.169454624751864, 41.774805204550141 ], [ 45.169489375583403, 41.775336314210669 ], [ 45.169530755517272, 41.775891550130318 ], [ 45.16957932235232, 41.7764783972017 ], [ 45.169633217265243, 41.777078124461852 ], [ 45.169696319062375, 41.77773698979211 ], [ 45.169768897469005, 41.778460362738613 ], [ 45.169879382766403, 41.779531406851909 ], [ 45.16991019075234, 41.779813282507924 ], [ 45.170003290527937, 41.780618018325477 ], [ 45.170029089322618, 41.780869103645152 ], [ 45.170049070748007, 41.781094475345888 ], [ 45.170062913711284, 41.781288322587898 ], [ 45.170088900338925, 41.781715937716392 ], [ 45.17010212839358, 41.781895121535662 ], [ 45.170105794359323, 41.781967249619512 ], [ 45.170105485157443, 41.782048776094264 ], [ 45.170091880378401, 41.782308542979472 ], [ 45.170089196365481, 41.782395335758679 ], [ 45.170090169336099, 41.782471621854619 ], [ 45.170094964419633, 41.782540229222818 ], [ 45.170108448604083, 41.782627751045844 ], [ 45.170118265011212, 41.782668420252939 ], [ 45.17013019834561, 41.78270732815669 ], [ 45.17014432016925, 41.782744686315091 ], [ 45.170160658334176, 41.782780559536512 ], [ 45.170179261235511, 41.782815045024037 ], [ 45.170200166385463, 41.782848220181265 ], [ 45.170237110769136, 41.782905216713822 ], [ 45.170250306990965, 41.782921080111599 ], [ 45.170264072840929, 41.782933917210705 ], [ 45.170285889577677, 41.782949557064363 ], [ 45.170310978587636, 41.7829639238767 ], [ 45.170338170798388, 41.782976343853591 ], [ 45.1703660987097, 41.782986193935308 ], [ 45.170388082948968, 41.78299145024593 ], [ 45.170413831776742, 41.782995030168969 ], [ 45.170506231299882, 41.783000284667082 ], [ 45.170601111585228, 41.783005294920066 ], [ 45.170707380692868, 41.783006185482293 ], [ 45.170802598486119, 41.783004141682007 ], [ 45.171079333025844, 41.782994666178432 ], [ 45.171270927504217, 41.782989707879487 ], [ 45.171471060130969, 41.782982082153723 ], [ 45.171681854653691, 41.782971710124031 ], [ 45.171907542818509, 41.782958386345001 ], [ 45.172319838112642, 41.782929701952831 ], [ 45.17326027793213, 41.782857587948591 ], [ 45.173696116899187, 41.782828688372973 ], [ 45.174890326007777, 41.782760841802855 ], [ 45.176045644826281, 41.782699911160947 ], [ 45.177167944313126, 41.782645590435251 ], [ 45.178261294203317, 41.782597684231007 ], [ 45.178384032367987, 41.782589930540318 ], [ 45.178652045698861, 41.782566227375767 ], [ 45.178758741695844, 41.782559862790798 ], [ 45.178826710323328, 41.782558242036636 ], [ 45.178889872110076, 41.782559030895285 ], [ 45.178949508716315, 41.782562247193752 ], [ 45.179006258046677, 41.78256792867375 ], [ 45.17911100549636, 41.782581802835665 ], [ 45.17914675749082, 41.782588523061932 ], [ 45.179178270387006, 41.78259625777229 ], [ 45.179224743881207, 41.782610515427493 ], [ 45.179261132898233, 41.78262472575031 ], [ 45.179296579070694, 41.782644332728864 ], [ 45.179331246292236, 41.782671144714712 ], [ 45.179360204154911, 41.782699064458086 ], [ 45.179433490982724, 41.7827769749995 ], [ 45.179503685014403, 41.782846161637373 ], [ 45.179556146763765, 41.782901374558151 ], [ 45.179600369936864, 41.78295261653593 ], [ 45.179637307492477, 41.783001145269409 ], [ 45.179680482072882, 41.783070286672874 ], [ 45.179749303330716, 41.783200555400498 ], [ 45.179825089675099, 41.783343149174293 ], [ 45.179901514675855, 41.783494107599118 ], [ 45.179979589960411, 41.78365541423176 ], [ 45.180061508804087, 41.783831590748711 ], [ 45.180184394425552, 41.784106133283117 ], [ 45.180228228311499, 41.784211266314806 ], [ 45.180265824066559, 41.78430789119416 ], [ 45.18030443669668, 41.784419504817031 ], [ 45.180376905228215, 41.784653894657019 ], [ 45.180410357192478, 41.784754497174212 ], [ 45.180473605776527, 41.784920640057969 ], [ 45.180551611709802, 41.785101992350562 ], [ 45.180641802144102, 41.785294665240258 ], [ 45.180831288632142, 41.785680851219489 ], [ 45.180909526614052, 41.785844741909408 ], [ 45.180987238554579, 41.786017856537327 ], [ 45.18105116573561, 41.786174416350612 ], [ 45.181166116608885, 41.786476936053766 ], [ 45.181203996586, 41.786585053969418 ], [ 45.181235687772073, 41.78668351442235 ], [ 45.181254402247603, 41.786750830224335 ], [ 45.181271812583745, 41.786826396689129 ], [ 45.181319097198539, 41.787079439429078 ], [ 45.181338970645257, 41.787173171808043 ], [ 45.18136341192578, 41.78726498208345 ], [ 45.181391434100043, 41.787346719577471 ], [ 45.181421498603825, 41.787417771539687 ], [ 45.18150894477516, 41.787606537163938 ], [ 45.181558140351868, 41.787730165125019 ], [ 45.181606815364447, 41.787868843675597 ], [ 45.181650445912283, 41.788005935939935 ], [ 45.181757210146841, 41.788358096443012 ], [ 45.181822071603357, 41.788550347205025 ], [ 45.181865746258126, 41.788664394003241 ], [ 45.181986669544067, 41.78896376886172 ], [ 45.182019689989851, 41.789053086652778 ], [ 45.182046620659698, 41.789133852934789 ], [ 45.182068941855441, 41.789212029798051 ], [ 45.182114516755149, 41.789391212958641 ], [ 45.182139129845723, 41.789473298809725 ], [ 45.182177954584475, 41.789581911133808 ], [ 45.182223710476215, 41.789695611308083 ], [ 45.182277009724096, 41.789815944853338 ], [ 45.182339490064685, 41.789946622742576 ], [ 45.182382841433586, 41.790037667770072 ], [ 45.182411533510894, 41.79008651577729 ], [ 45.182446433477246, 41.790135385442852 ], [ 45.182475448220899, 41.79016684402054 ], [ 45.182505534253934, 41.790190283764623 ], [ 45.182543541963554, 41.790212889476166 ], [ 45.182589833629741, 41.790235089304403 ], [ 45.182654837579562, 41.790261883554585 ], [ 45.182698809961984, 41.790277669543876 ], [ 45.182748892221767, 41.790292446921818 ], [ 45.182805803859473, 41.790306564907546 ], [ 45.18288587864383, 41.790324072253433 ], [ 45.182975019288136, 41.790341026486473 ], [ 45.183077031225594, 41.790356535233265 ], [ 45.183198069453688, 41.790370648991576 ], [ 45.183319904082758, 41.790379979539217 ], [ 45.183475669398611, 41.79038914408676 ], [ 45.183568116868763, 41.790391080623849 ], [ 45.183652310335525, 41.790387044234521 ], [ 45.183690236385061, 41.790382550358288 ], [ 45.183725898537709, 41.790376352364284 ], [ 45.183793599456457, 41.790360326017066 ], [ 45.183857545907316, 41.790340710947859 ], [ 45.183916141004666, 41.790317999699766 ], [ 45.183968465083495, 41.790292554933998 ], [ 45.184006959591407, 41.790269708295568 ], [ 45.184047928450575, 41.790241786743366 ], [ 45.18407248960937, 41.790222705709802 ], [ 45.184095420325463, 41.790202064570408 ], [ 45.184116757802229, 41.790179826337862 ], [ 45.184136551250042, 41.790155944097812 ], [ 45.184171681178171, 41.790103039255904 ], [ 45.184201369758625, 41.790042511502314 ], [ 45.184223428622715, 41.789982218448152 ], [ 45.184242767018532, 41.78991251474217 ], [ 45.184296996355584, 41.789648590408682 ], [ 45.18431899542162, 41.789557836676266 ], [ 45.184326315368203, 41.789502019400416 ], [ 45.184323711789546, 41.78944390865238 ], [ 45.184307800155246, 41.789344329437483 ], [ 45.184290125823871, 41.789251610971618 ], [ 45.184263369410274, 41.789149062423874 ], [ 45.184233229836828, 41.789051910880353 ], [ 45.184156703640397, 41.78882226514213 ], [ 45.184122879606974, 41.788707146011518 ], [ 45.18409179975459, 41.788576913236881 ], [ 45.184040574164001, 41.788327393452889 ], [ 45.184018031603884, 41.788225984671229 ], [ 45.18399089703265, 41.788121357832388 ], [ 45.18396172539456, 41.788028218167149 ], [ 45.183940101509386, 41.787971081783603 ], [ 45.183882414672297, 41.787832874404678 ], [ 45.18385747330683, 41.787760286406751 ], [ 45.183839325833567, 41.787689451100981 ], [ 45.183824139564557, 41.787612930340501 ], [ 45.183811582785722, 41.787529197070334 ], [ 45.183800814050883, 41.787432699823562 ], [ 45.183797306804593, 41.787382446391021 ], [ 45.183796050072608, 41.787326720308805 ], [ 45.183801154196445, 41.787112323088273 ], [ 45.183799639900158, 41.787021616038075 ], [ 45.183796163923851, 41.786836090053811 ], [ 45.183791520929688, 41.786761496119865 ], [ 45.183779249014414, 41.786684305962119 ], [ 45.183770054987008, 41.786649472593041 ], [ 45.183758680952216, 41.786616553094291 ], [ 45.183728502416614, 41.786548484134208 ], [ 45.183710398636073, 41.786496155402872 ], [ 45.183696755594077, 41.786437747918022 ], [ 45.183686600167839, 41.786368370635238 ], [ 45.183672855064522, 41.786219372716154 ], [ 45.183664604558253, 41.786154984062129 ], [ 45.183650702276026, 41.786087927561439 ], [ 45.183631494696911, 41.786029121843306 ], [ 45.183598035793118, 41.785958457764345 ], [ 45.183505214340656, 41.785799501921794 ], [ 45.183468944797731, 41.785726848141913 ], [ 45.183416909377812, 41.785590973268626 ], [ 45.183385907502959, 41.785495935860176 ], [ 45.183359400455089, 41.785388613825994 ], [ 45.183338151085621, 41.785277413986016 ], [ 45.183288081560619, 41.784974228164451 ], [ 45.183268911758475, 41.784883659124574 ], [ 45.183247807738141, 41.784803526875393 ], [ 45.183217512265102, 41.784713336750272 ], [ 45.183181905180902, 41.784631253280018 ], [ 45.183140274252331, 41.784555650030235 ], [ 45.183092170750932, 41.784485729689408 ], [ 45.183047593602637, 41.784429430402106 ], [ 45.183005903071781, 41.784381010327493 ], [ 45.18295508304837, 41.784330320600617 ], [ 45.182835209519475, 41.784226123884302 ], [ 45.18278562919361, 41.784178797124092 ], [ 45.182712901860654, 41.784102423546457 ], [ 45.18267063926784, 41.784050292471356 ], [ 45.182644176484743, 41.784007971909794 ], [ 45.182620321071248, 41.783958705500382 ], [ 45.182601452704105, 41.783910740777408 ], [ 45.18255824794258, 41.783788568199583 ], [ 45.182518476707124, 41.783680415853176 ], [ 45.182481416623695, 41.783569204909867 ], [ 45.182410709375986, 41.783364083618537 ], [ 45.182383489895592, 41.783270728709262 ], [ 45.182373024617696, 41.783222125516559 ], [ 45.1823663540913, 41.783176647133466 ], [ 45.182363358009418, 41.783133458802389 ], [ 45.182364012295338, 41.783092135431332 ], [ 45.182369155248409, 41.783041048548114 ], [ 45.182378547886366, 41.782986746623209 ], [ 45.182392278863318, 41.782928669279102 ], [ 45.182410700090941, 41.782865307282187 ], [ 45.182431806350941, 41.782797384374511 ], [ 45.18245019560851, 41.782758005371377 ], [ 45.182471045683577, 41.782727509668014 ], [ 45.182496696292873, 41.78269752513868 ], [ 45.182526412197561, 41.78266891311722 ], [ 45.182559185314226, 41.782642647958873 ], [ 45.182597371307047, 41.782617258676062 ], [ 45.182638132654546, 41.782594888037146 ], [ 45.182680063582389, 41.782576304770878 ], [ 45.182722134075171, 41.782561959062988 ], [ 45.182752077657142, 41.782555102139774 ], [ 45.182837493259456, 41.782540923415503 ], [ 45.18290161065979, 41.782524384474776 ], [ 45.182963963412199, 41.782504721977169 ], [ 45.183023684648106, 41.782482209318047 ], [ 45.183080031475136, 41.782457128703918 ], [ 45.183146266832964, 41.782423304510985 ], [ 45.18319129088411, 41.78239439499977 ], [ 45.18321076171987, 41.782377533461727 ], [ 45.183250872584658, 41.782334772683214 ], [ 45.183270668794215, 41.782316817165452 ], [ 45.183299912162994, 41.782296553388406 ], [ 45.183385883067629, 41.782245140211998 ], [ 45.183451898148263, 41.782195807031016 ], [ 45.183515218454744, 41.782141299088181 ], [ 45.183575428625119, 41.782081971927475 ], [ 45.183631991043796, 41.782018351521423 ], [ 45.183670636355941, 41.781969496094248 ], [ 45.183703357878315, 41.781922912685744 ], [ 45.183743198591351, 41.781854443467566 ], [ 45.183777462663969, 41.781779181064657 ], [ 45.183806255362924, 41.781696901939519 ], [ 45.183829811886561, 41.78160694910887 ], [ 45.183838430372525, 41.781552171819705 ], [ 45.183841117768587, 41.781490760452478 ], [ 45.18383883381258, 41.78142841670811 ], [ 45.183826440554178, 41.781260784621409 ], [ 45.183825924624486, 41.781210754226436 ], [ 45.183828552711951, 41.781166076168127 ], [ 45.183841769003799, 41.781066583436981 ], [ 45.18386279543455, 41.780957546088075 ], [ 45.183891407907176, 41.780838043058409 ], [ 45.183938550456496, 41.780662467851464 ], [ 45.18398276577981, 41.780501895777213 ], [ 45.184017397320417, 41.780400199830389 ], [ 45.184044543502594, 41.780336638024934 ], [ 45.184078818809603, 41.780266969747522 ], [ 45.184195507354715, 41.780057342757729 ], [ 45.18423878432705, 41.779982988061548 ], [ 45.184286718855425, 41.779906794752421 ], [ 45.184339679844065, 41.779828168670612 ], [ 45.184398359851777, 41.779746082799157 ], [ 45.184464259510797, 41.779658476618195 ], [ 45.184539440775673, 41.779562656409347 ], [ 45.18485441912695, 41.779177625490632 ], [ 45.184987281358652, 41.779008468953691 ], [ 45.185056398995087, 41.778914814437748 ], [ 45.185117889023644, 41.77882631967573 ], [ 45.185172979791169, 41.778741213723428 ], [ 45.185222248730511, 41.778658594057475 ], [ 45.185308841996573, 41.778501226237502 ], [ 45.185408290214987, 41.7783097640799 ], [ 45.185439909247897, 41.77824453651332 ], [ 45.185472341563845, 41.778171344525532 ], [ 45.185580614495173, 41.777903332679891 ], [ 45.185627573832129, 41.777795078099388 ], [ 45.185682731088377, 41.777684753047041 ], [ 45.185711113165311, 41.777635124470876 ], [ 45.185740502127267, 41.777588336872576 ], [ 45.185815478719704, 41.777479379398997 ], [ 45.18588716318876, 41.777385534663516 ], [ 45.185945341808811, 41.777317528542355 ], [ 45.186013382768309, 41.777245060562045 ], [ 45.186092336044432, 41.777166729314459 ], [ 45.186204592960294, 41.777060322321645 ], [ 45.186274157880916, 41.77699948697375 ], [ 45.186357281935265, 41.776935160088684 ], [ 45.18644201679907, 41.776874914308777 ], [ 45.186658358320997, 41.776726995720189 ], [ 45.186769229867615, 41.776644676074667 ], [ 45.186823509170367, 41.776599777929441 ], [ 45.186871402421339, 41.776556049348201 ], [ 45.186913774891472, 41.776512697214734 ], [ 45.18695104287503, 41.776469290322474 ], [ 45.187003460807247, 41.776408776056577 ], [ 45.187015207570141, 41.776390707780315 ], [ 45.187022398658797, 41.77637384935521 ], [ 45.187027351449956, 41.776343663291549 ], [ 45.187026170142829, 41.776302350039956 ], [ 45.187018642622903, 41.776258072101825 ], [ 45.187002015729369, 41.776207065422149 ], [ 45.186976489343763, 41.7761539259511 ], [ 45.186938014149739, 41.776093971219517 ], [ 45.186918400206103, 41.776068430415656 ], [ 45.186895551687513, 41.776042812906375 ], [ 45.186839018748401, 41.77599013005478 ], [ 45.18677539803123, 41.775940119369807 ], [ 45.186634827947586, 41.775838280312911 ], [ 45.186483202152061, 41.775733728100533 ], [ 45.186435446656404, 41.775698596281167 ], [ 45.186340799507363, 41.775621594834277 ], [ 45.186260169340748, 41.775549191183792 ], [ 45.186190902024805, 41.775478994695234 ], [ 45.186132168368168, 41.775410135754221 ], [ 45.186089819526565, 41.775354614854869 ], [ 45.186057986526997, 41.775308872039901 ], [ 45.186032247045176, 41.775266539313158 ], [ 45.186012077185907, 41.775226622251736 ], [ 45.185986032883129, 41.775148310580711 ], [ 45.185976142965721, 41.775124414763539 ], [ 45.18594995860493, 41.775080899215126 ], [ 45.185912977081173, 41.775035127761697 ], [ 45.18586795674176, 41.774988936964512 ], [ 45.185780520914314, 41.774907272155865 ], [ 45.185726419177925, 41.774858325428269 ], [ 45.18566476441886, 41.774807162544811 ], [ 45.185594098248508, 41.774752500547898 ], [ 45.185505302685023, 41.774687279131442 ], [ 45.185352702749398, 41.774581730800961 ], [ 45.185277837069052, 41.774533501888925 ], [ 45.185203667978634, 41.774488133334124 ], [ 45.185129999004161, 41.774445508363385 ], [ 45.185056778316245, 41.774405599139442 ], [ 45.184983916726353, 41.774368357168917 ], [ 45.184911347951733, 41.774333749233271 ], [ 45.18480388769273, 41.774286873978909 ], [ 45.184688192734306, 41.774241270141637 ], [ 45.1845637186033, 41.774196719700718 ], [ 45.184429317460356, 41.774152811948802 ], [ 45.18429814861986, 41.774113616730297 ], [ 45.184167234936375, 41.774078176879186 ], [ 45.184036976164251, 41.774046599840332 ], [ 45.183907702189934, 41.774018965250406 ], [ 45.183779771758239, 41.773995346396518 ], [ 45.18365337023176, 41.773975775412175 ], [ 45.183528725096082, 41.773960287967142 ], [ 45.183406022889052, 41.773948906286968 ], [ 45.183296333257701, 41.773942061267505 ], [ 45.183181307866072, 41.773937932160415 ], [ 45.183060372707139, 41.773936499148128 ], [ 45.182932441209793, 41.773937745928031 ], [ 45.182821649748675, 41.773939464281291 ], [ 45.182757363561713, 41.77394398179986 ], [ 45.182700860596526, 41.773952592304695 ], [ 45.182610201914343, 41.77397102608667 ], [ 45.182506354764257, 41.773993745571097 ], [ 45.182391478869569, 41.774022014581021 ], [ 45.182228984382974, 41.774067402994355 ], [ 45.182061867509049, 41.774121100271095 ], [ 45.181888909188743, 41.774183492019795 ], [ 45.181707677667823, 41.77425545123706 ], [ 45.181551370234025, 41.774322996977332 ], [ 45.181485692271693, 41.774346164113048 ], [ 45.181410657554075, 41.774367912969197 ], [ 45.18133200039005, 41.774387287839573 ], [ 45.181114316914204, 41.774436564528486 ], [ 45.181049230469114, 41.774453670560469 ], [ 45.180991985053254, 41.774471061435086 ], [ 45.180846469087243, 41.774519237636547 ], [ 45.180798965174397, 41.774537140891802 ], [ 45.18075743231072, 41.774554839281002 ], [ 45.18069151671196, 41.774586553094679 ], [ 45.180632768987266, 41.774618361884002 ], [ 45.180580641310165, 41.774650564653271 ], [ 45.18053494391507, 41.774683281502988 ], [ 45.180486958146005, 41.774724663977743 ], [ 45.180440108720603, 41.774773540287157 ], [ 45.180393323817533, 41.774830868660544 ], [ 45.180340568169697, 41.774904024509752 ], [ 45.180281143808458, 41.774999442633295 ], [ 45.180214762027326, 41.775089671887322 ], [ 45.180150283354337, 41.775164765429125 ], [ 45.18011747758225, 41.775198136520622 ], [ 45.180084138549766, 41.775228859474886 ], [ 45.180050116235329, 41.775257070532547 ], [ 45.180015311007111, 41.775282853614414 ], [ 45.179936229564582, 41.775334372431246 ], [ 45.179901541864226, 41.775353588278712 ], [ 45.179868311594156, 41.775369471940095 ], [ 45.179832756336893, 41.775383958640028 ], [ 45.179795575090239, 41.775397015757932 ], [ 45.1797571981948, 41.775408491301064 ], [ 45.179718056057382, 41.775418256695325 ], [ 45.179678616426393, 41.77542619772003 ], [ 45.179639232873171, 41.775432247170095 ], [ 45.17960028065545, 41.775436347714816 ], [ 45.179562082151122, 41.775438464624109 ], [ 45.179505824854047, 41.775437847285517 ], [ 45.1794347212765, 41.775432706365393 ], [ 45.179378658433194, 41.775424575908673 ], [ 45.179237874433653, 41.775392559518068 ], [ 45.179203288948813, 41.775386336479315 ], [ 45.17917193354991, 41.775382475436743 ], [ 45.179098138596011, 41.775376543185864 ], [ 45.179048553148903, 41.775376709641485 ], [ 45.179000666752628, 41.775382524430569 ], [ 45.178950497097667, 41.775393719944738 ], [ 45.17889939341503, 41.775410007656951 ], [ 45.178849727627956, 41.775430639894068 ], [ 45.178824108025616, 41.775445370216588 ], [ 45.178798931896488, 41.775465547286572 ], [ 45.178729960429052, 41.775539258137172 ], [ 45.178705922437324, 41.77556200942248 ], [ 45.17868286260191, 41.775579099172582 ], [ 45.178659158855723, 41.775591796296951 ], [ 45.178611081904208, 41.775611834198664 ], [ 45.178573398253818, 41.775624361188477 ], [ 45.178539142688884, 41.775631692095487 ], [ 45.178508053859069, 41.775633735457269 ], [ 45.178468234365312, 41.775630190909851 ], [ 45.1784324098642, 41.775621937581192 ], [ 45.178413405740798, 41.775613713965654 ], [ 45.17839601498801, 41.775601945382455 ], [ 45.178380240014377, 41.775586631828546 ], [ 45.178366069964639, 41.775567763413697 ], [ 45.178353578697013, 41.775545505752916 ], [ 45.178342598326623, 41.775519630329093 ], [ 45.178324501265358, 41.775455287076767 ], [ 45.178320517313374, 41.775428358679086 ], [ 45.178319799980798, 41.77539918336479 ], [ 45.178322366063078, 41.775368179033372 ], [ 45.178328150334259, 41.77533612579343 ], [ 45.178338049928968, 41.775306758362305 ], [ 45.17835505440668, 41.775275116437562 ], [ 45.178375237810819, 41.775245633060074 ], [ 45.178428057740867, 41.775175661997203 ], [ 45.178450969100204, 41.775139328135928 ], [ 45.178484863890809, 41.775069229717104 ], [ 45.178515920597277, 41.77498930904185 ], [ 45.178541111033582, 41.774911849183553 ], [ 45.178596354863487, 41.77472557476581 ], [ 45.178628640966153, 41.774632641507644 ], [ 45.178654314652235, 41.774574629721457 ], [ 45.178721698335565, 41.774445520109111 ], [ 45.178748457836051, 41.774387745296949 ], [ 45.178769512900097, 41.77432568210596 ], [ 45.178775600603167, 41.774296853778765 ], [ 45.178778850136283, 41.774268982810085 ], [ 45.178780240834385, 41.774227302471473 ], [ 45.178778626789196, 41.774188553188409 ], [ 45.178772911427913, 41.774143044214789 ], [ 45.178763547764589, 41.774099221626756 ], [ 45.178750662603768, 41.774057684192819 ], [ 45.178734382178376, 41.774018825322266 ], [ 45.17872003693828, 41.773993107380839 ], [ 45.178700620694563, 41.773965427490083 ], [ 45.178627136241936, 41.773878257449091 ], [ 45.178602582360199, 41.773846254954236 ], [ 45.178505644978017, 41.773705255714127 ], [ 45.178442795162326, 41.773602908413103 ], [ 45.178416973929487, 41.773554638466692 ], [ 45.178395160549563, 41.77350850596158 ], [ 45.178377091152647, 41.773463948371067 ], [ 45.178362638506954, 41.773420646145318 ], [ 45.178349079838014, 41.773366474660023 ], [ 45.178338646693582, 41.773305628623099 ], [ 45.178331098452581, 41.773239420731471 ], [ 45.178322036246584, 41.77312877815563 ], [ 45.178315960555906, 41.773019050558474 ], [ 45.178313335744221, 41.77286069140316 ], [ 45.178314448648045, 41.772711224477959 ], [ 45.178320960319674, 41.772546128293619 ], [ 45.178332249234579, 41.772368215804569 ], [ 45.178354929518804, 41.77207419953141 ], [ 45.178390788345183, 41.771522337669445 ], [ 45.178402243747037, 41.771383799082621 ], [ 45.178415125973267, 41.77125999106277 ], [ 45.178432788988403, 41.771126429114609 ], [ 45.178453673906702, 41.771001944838517 ], [ 45.178478165413644, 41.770884253454597 ], [ 45.178506512929154, 41.770772189064623 ], [ 45.178544097408185, 41.770637703538675 ], [ 45.178571278327652, 41.770548880863892 ], [ 45.178599388867944, 41.770468608905553 ], [ 45.178628826647547, 41.770396659167389 ], [ 45.178671384451391, 41.770299880971557 ], [ 45.178698812177565, 41.770243744369097 ], [ 45.178728247231128, 41.770192995341063 ], [ 45.178759453353841, 41.770149207780825 ], [ 45.178803013754298, 41.770096886645675 ], [ 45.178842564772701, 41.770055245058813 ], [ 45.178882024500275, 41.77002017152261 ], [ 45.178922160113636, 41.769991073080995 ], [ 45.178946667695463, 41.769977018180896 ], [ 45.17901004782486, 41.769946532448728 ], [ 45.179037389162367, 41.769931315711297 ], [ 45.179060522281382, 41.769914946321819 ], [ 45.179109328672887, 41.769875411371402 ], [ 45.179132690906222, 41.76985967390322 ], [ 45.17915610621715, 41.769847882325095 ], [ 45.179184019057274, 41.769837451895143 ], [ 45.179219331235331, 41.76982745396284 ], [ 45.179331100653066, 41.769800520590721 ], [ 45.179364188764772, 41.769789007500854 ], [ 45.1793911025878, 41.769775861160646 ], [ 45.17942385682079, 41.769754207565356 ], [ 45.179457114266924, 41.769727057087962 ], [ 45.179490666205723, 41.76969506936824 ], [ 45.179541935782041, 41.769641575800421 ], [ 45.179612927768424, 41.769562419186052 ], [ 45.179639242139686, 41.769528090101396 ], [ 45.179660902566134, 41.76949542377934 ], [ 45.179682345516895, 41.769455540463603 ], [ 45.179701447341557, 41.769410126888822 ], [ 45.179718638999162, 41.769358836512097 ], [ 45.179739894708653, 41.769283799056083 ], [ 45.179752618248301, 41.769223596906052 ], [ 45.179770196259817, 41.76907801406211 ], [ 45.179782908935969, 41.769012652698983 ], [ 45.179805425301446, 41.768941049434261 ], [ 45.179856783791926, 41.768808564858745 ], [ 45.179875603013741, 41.76875512733239 ], [ 45.17990058979376, 41.768669955595954 ], [ 45.179946773203511, 41.768489666175121 ], [ 45.179968565746869, 41.768411898695625 ], [ 45.180021199236087, 41.768246437310317 ], [ 45.180081039544085, 41.768075540568624 ], [ 45.180148457800684, 41.767898148650424 ], [ 45.18022414660431, 41.767712432028659 ], [ 45.180297887065365, 41.767543443559894 ], [ 45.180380226405894, 41.767366977414547 ], [ 45.180472152294911, 41.767180896455528 ], [ 45.18057598182471, 41.766980502553523 ], [ 45.180688362656355, 41.766774673771877 ], [ 45.180813991281831, 41.766557325650865 ], [ 45.180955289382318, 41.766324205715499 ], [ 45.181120171039304, 41.766062239434639 ], [ 45.181256283303043, 41.765854047938362 ], [ 45.181409665857082, 41.765628748072132 ], [ 45.181583700985769, 41.76538106890861 ], [ 45.181819020667881, 41.765053174053385 ], [ 45.182029543194488, 41.76476575145837 ], [ 45.182262255018458, 41.764456574607273 ], [ 45.182523178918565, 41.764117477925247 ], [ 45.182851377921239, 41.763697675940612 ], [ 45.183139520639699, 41.763331265697488 ], [ 45.183329524653772, 41.763092743715212 ], [ 45.183506047606322, 41.762875801281282 ], [ 45.183669592140724, 41.762680253012412 ], [ 45.183985282555504, 41.762314137913407 ], [ 45.184121753880717, 41.76216095639834 ], [ 45.184251402805813, 41.762019289445746 ], [ 45.184404180888706, 41.761856508757539 ], [ 45.184547555005103, 41.761707375118114 ], [ 45.184685185941021, 41.761568087113758 ], [ 45.184818777107068, 41.761436925284322 ], [ 45.185051026272994, 41.761216303261854 ], [ 45.185148977334229, 41.761126893818833 ], [ 45.185241587340066, 41.761045171402493 ], [ 45.185356436828776, 41.760947223783774 ], [ 45.185468935596312, 41.760854375125135 ], [ 45.185579726945953, 41.760766094780784 ], [ 45.185689236986008, 41.760682043402518 ], [ 45.185805916965364, 41.760596081640237 ], [ 45.18593021646037, 41.760508106965005 ], [ 45.18606326390411, 41.760417317699499 ], [ 45.186207292354496, 41.760322188905299 ], [ 45.186387840165139, 41.76020756710389 ], [ 45.186599432001799, 41.760078750848955 ], [ 45.186844669393189, 41.759936103224888 ], [ 45.187205173780711, 41.759734894497505 ], [ 45.187441621225865, 41.75960640006619 ], [ 45.187706569280003, 41.759467586058186 ], [ 45.187980522482405, 41.759327881219257 ], [ 45.188732364853699, 41.758949377060027 ], [ 45.188959401844421, 41.758832384329864 ], [ 45.189161529858509, 41.758725593004492 ], [ 45.189729843447175, 41.758421677076853 ], [ 45.189907196852722, 41.75832342258439 ], [ 45.190064476725155, 41.758233010130098 ], [ 45.190287378546365, 41.758099939528861 ], [ 45.190499768638567, 41.757968611670762 ], [ 45.190702527218185, 41.757838483829943 ], [ 45.190896236655085, 41.757709179496167 ], [ 45.19113133727631, 41.757546087218891 ], [ 45.191343362556175, 41.757392757791962 ], [ 45.191538014301358, 41.757245061116279 ], [ 45.191717713432702, 41.757101144094847 ], [ 45.191870099748357, 41.756975788183553 ], [ 45.191958089584197, 41.75690100524136 ], [ 45.192037351278472, 41.756829559517939 ], [ 45.192105505331888, 41.756762997015912 ], [ 45.192193687068965, 41.756668861033347 ], [ 45.19227677381312, 41.756572152088872 ], [ 45.192353326121804, 41.756474216454343 ], [ 45.192433912056103, 41.756361566407435 ], [ 45.192498024496011, 41.756263942434487 ], [ 45.192562239533423, 41.756156842840198 ], [ 45.192628196099207, 41.756037660939292 ], [ 45.19270316844532, 41.755893276574085 ], [ 45.192756812411957, 41.75578234948523 ], [ 45.192811816204305, 41.755658009495953 ], [ 45.192865615896643, 41.75552770703262 ], [ 45.192964596162703, 41.755278788729527 ] ] ] ] } }
]
}
